_id,ID,SCH_NAME,ADDRESS,CITY,POSTAL_CODE,MET_PANEL_ID,ADDRESS_POINT_ID,ADDRESS_NUMBER,LINEAR_NAME_FULL,ADDRESS_FULL,MUNICIPALITY,PLACE_NAME,GENERAL_USE_CODE,CENTRELINE_ID,LO_NUM,LO_NUM_SUF,HI_NUM,HI_NUM_SUF,LINEAR_NAME_ID,OBJECTID,geometry
1,1,Thorncliffe Park Public School,80 Thorncliffe Park Drive,East York,M4H 1K3,E,3829444,80,Thorncliffe Park Dr,80 Thorncliffe Park Dr,East York,Thorncliffe Park Public School,115001,3829449,80,None,,None,354,1,"{'type': 'MultiPoint', 'coordinates': [[-79.3434367551101, 43.7053900432282]]}"
2,2,Highfield Junior School,85 Mount Olive Drive,Etobicoke,M9V 2C9,E,1020028,85,Mount Olive Dr,85 Mount Olive Dr,Etobicoke,Highfield Public School,115001,906730,85,None,,None,2145,2,"{'type': 'MultiPoint', 'coordinates': [[-79.5891451714213, 43.7458920486043]]}"
3,3,Victoria Village Public School,88 Sweeney Drive,North York,M4A 1T7,E,566907,88,Sweeney Dr,88 Sweeney Dr,North York,Victoria Village Public School,115001,442884,88,None,,None,6834,3,"{'type': 'MultiPoint', 'coordinates': [[-79.3141820772089, 43.7359594203073]]}"
4,4,Grenoble Public School,9 Grenoble Drive,North York,M3C 1C3,E,523752,9,Grenoble Dr,9 Grenoble Dr,North York,Grenoble Public School,115001,30093281,9,None,,None,5756,4,"{'type': 'MultiPoint', 'coordinates': [[-79.3327597513647, 43.7154310882437]]}"
5,5,Manhattan Park Junior Public School,90 Manhattan Drive,Scarborough,M1R 3V8,E,359023,90,Manhattan Dr,90 Manhattan Dr,Scarborough,Manhattan Park,115001,109829,90,None,,None,8407,5,"{'type': 'MultiPoint', 'coordinates': [[-79.2953011186665, 43.7533540031688]]}"
6,6,Brian Public School,95 Brian Drive,North York,M2J 3Y6,E,11467213,95,Brian Dr,95 Brian Dr,North York,Brian Public School,115001,11467035,95,None,,None,5028,6,"{'type': 'MultiPoint', 'coordinates': [[-79.331933544035, 43.7824531904325]]}"
7,7,North Preparatory Junior Public School,1100 Spadina Road,Toronto,M5N 2M6,E,870542,1100,Spadina Rd,1100 Spadina Rd,former Toronto,North Preparatory Public School,115001,1138559,1100,None,,None,4428,7,"{'type': 'MultiPoint', 'coordinates': [[-79.4203748853603, 43.7057655831012]]}"
8,8,Kingsview Village Junior School,1 York Road,Etobicoke,M9R 3C8,E,1045581,1,York Rd,1 York Rd,Etobicoke,Kingsview Village Public School,115001,908522,1,None,,None,2832,8,"{'type': 'MultiPoint', 'coordinates': [[-79.5507891278971, 43.6978666584909]]}"
9,9,Bliss Carman Senior Public School,10 Bellamy Road South,Scarborough,M1M 3N8,E,306063,10,Bellamy Rd S,10 Bellamy Rd S,Scarborough,Bliss Carman Senior Public School,115001,14245815,10,None,,None,7314,9,"{'type': 'MultiPoint', 'coordinates': [[-79.2256018786147, 43.732648962951]]}"
10,10,Flemington Public School,10 Flemington Road,North York,M6A 2N4,E,7062866,10,Flemington Rd,10 Flemington Rd,North York,Flemington Public School,115001,7062864,10,None,,None,5608,10,"{'type': 'MultiPoint', 'coordinates': [[-79.4444540037633, 43.7200875786734]]}"
11,11,Bloordale Middle School,10 Toledo Road,Etobicoke,M9C 2H3,E,8432037,10,Toledo Rd,10 Toledo Rd,Etobicoke,Bloordale Middle Public School,115001,30009321,10,None,,None,2640,11,"{'type': 'MultiPoint', 'coordinates': [[-79.5719465300651, 43.6391456489153]]}"
12,12,Courcelette Public School,100 Fallingbrook Road,Scarborough,M1N 2T6,E,333309,100,Fallingbrook Rd,100 Fallingbrook Rd,Scarborough,Courcelette Public School,115001,113247,100,None,,None,7874,12,"{'type': 'MultiPoint', 'coordinates': [[-79.2785659239745, 43.6793188262702]]}"
13,13,Derrydown Public School,120 Derrydown Road,North York,M3J 1R7,E,507241,120,Derrydown Rd,120 Derrydown Rd,North York,Derrydown Public School,115001,440361,120,None,,None,5376,13,"{'type': 'MultiPoint', 'coordinates': [[-79.4937101803973, 43.7586899266831]]}"
14,14,Maplewood High School,120 Galloway Road,West Hill,M1E 1W7,S,336715,120,Galloway Rd,120 Galloway Rd,Scarborough,Maplewood High School,115001,109225,120,None,,None,7948,14,"{'type': 'MultiPoint', 'coordinates': [[-79.1948946345862, 43.7588978527975]]}"
15,15,George B Little Public School,125 Orton Park Road,Scarborough,M1G 3G9,E,369629,125,Orton Park Rd,125 Orton Park Rd,Scarborough,George B Little Junior Public School,115001,108136,125,None,,None,8622,15,"{'type': 'MultiPoint', 'coordinates': [[-79.2081104450894, 43.7711994113319]]}"
16,16,John G Althouse Middle School,130 Lloyd Manor Road,Etobicoke,M9B 5K1,E,10512731,130,Lloyd Manor Rd,130 Lloyd Manor Rd,Etobicoke,John G. Althouse Middle School,115001,10512725,130,None,,None,2008,16,"{'type': 'MultiPoint', 'coordinates': [[-79.5540087673011, 43.6683053235247]]}"
17,17,Warren Park Junior Public School,135 Varsity Road,York,M6S 4P4,E,10663463,135,Varsity Rd,135 Varsity Rd,York,Warren Park Junior Public School,115001,10663461,135,None,,None,929,17,"{'type': 'MultiPoint', 'coordinates': [[-79.4994375141874, 43.6628427653687]]}"
18,18,Humbercrest Public School,14 Saint Marks Road,York,M6S 2H7,E,74152,14,St Mark's Rd,14 St Mark's Rd,York,Humbercrest Public School,115001,9485,14,None,,None,894,18,"{'type': 'MultiPoint', 'coordinates': [[-79.4910553735324, 43.6604526501243]]}"
19,19,Cliffwood Public School,140 Cliffwood Road,North York,M2H 2E4,E,8649130,140,Cliffwood Rd,140 Cliffwood Rd,North York,Cliffwood Public School,115001,30006220,140,None,,None,5225,19,"{'type': 'MultiPoint', 'coordinates': [[-79.360068599198, 43.8062920920724]]}"
20,20,Cedarvale Community School,145 Ava Road,York,M6C 1W4,E,51217,145,Ava Rd,145 Ava Rd,York,Cedarvale Community School,115001,7630,145,None,,None,418,20,"{'type': 'MultiPoint', 'coordinates': [[-79.4302837269918, 43.696025486871]]}"
21,21,Greenland Public School,15 Greenland Road,North York,M3C 1N1,E,13967814,15,Greenland Rd,15 Greenland Rd,North York,Greenland Public School,115001,443122,15,None,,None,5751,21,"{'type': 'MultiPoint', 'coordinates': [[-79.3385329307779, 43.7336070379667]]}"
22,22,Victoria Park Collegiate Institute,15 Wallingford Road,North York,M3A 2V1,S,572815,15,Wallingford Rd,15 Wallingford Rd,North York,Victoria Park Secondary School,115001,30038855,15,None,,None,7027,22,"{'type': 'MultiPoint', 'coordinates': [[-79.321464421707, 43.7560593384022]]}"
23,23,White Haven Public School,105 Invergordon Avenue,Agincourt,M1S 2Z1,E,3337385,105,Invergordon Ave,105 Invergordon Ave,Scarborough,Whitehaven Junior Public School,115001,3337339,105,None,,None,8171,23,"{'type': 'MultiPoint', 'coordinates': [[-79.2472058211989, 43.7872721001055]]}"
24,24,Wexford Public School,1050 Pharmacy Avenue,Scarborough,M1R 2H1,E,6375087,1050,Pharmacy Ave,1050 Pharmacy Ave,Scarborough,Wexford Public School,115001,6375088,1050,None,,None,8691,24,"{'type': 'MultiPoint', 'coordinates': [[-79.3041148885222, 43.7401530486018]]}"
25,25,Seventh Street Junior School,101 Seventh Street,Etobicoke,M8V 3B5,E,1031242,101,Seventh St,101 Seventh St,Etobicoke,Seventh Street Junior School,115001,20048547,101,None,,None,2455,25,"{'type': 'MultiPoint', 'coordinates': [[-79.5041938387474, 43.5999243685511]]}"
26,26,Norseman Junior Middle School,105 Norseman Street,Etobicoke,M8Z 2R1,E,7794390,105,Norseman St,105 Norseman St,Etobicoke,Norseman Junior Middle School,115001,7794393,105,None,,None,2193,26,"{'type': 'MultiPoint', 'coordinates': [[-79.5163297488864, 43.6343052597247]]}"
27,27,Lillian Public School,1059 Lillian Street,North York,M2M 3G1,E,537109,1059,Lillian St,1059 Lillian St,North York,Lillian Public School,115001,3252289,1059,None,,None,3850,27,"{'type': 'MultiPoint', 'coordinates': [[-79.4103985022169, 43.7978213696628]]}"
28,28,Riverdale Collegiate Institute,1094 Gerrard Street East,Toronto,M4M 2A1,S,11585699,1094,Gerrard St E,1094 Gerrard St E,former Toronto,Riverdale Collegiate Institute,115001,11585548,1094,None,,None,3495,28,"{'type': 'MultiPoint', 'coordinates': [[-79.3348598191726, 43.6700476981757]]}"
29,29,King Edward Junior and Senior Public School,112 Lippincott Street,Toronto,M5S 2P1,E,6355068,112,Lippincott St,112 Lippincott St,former Toronto,King Edward Public School,115001,20006084,112,None,,None,3857,29,"{'type': 'MultiPoint', 'coordinates': [[-79.4074089349881, 43.6582441160701]]}"
30,30,Bloor Collegiate Institute,1141 Bloor Street West,Toronto,M6H 1M9,S,6710176,1141,Bloor St W,1141 Bloor St W,former Toronto,Bloor Collegiate Institute,115001,6710177,1141,None,,None,458,30,"{'type': 'MultiPoint', 'coordinates': [[-79.4367968963581, 43.65924610796]]}"
31,31,Monarch Park Collegiate Institute,1 Hanson Street,Toronto,M4J 1G6,S,2565760,1,Hanson St,1 Hanson St,former Toronto,Monarch Park Collegiate,115001,2565761,1,None,,None,3604,31,"{'type': 'MultiPoint', 'coordinates': [[-79.3227718925618, 43.6792807307855]]}"
32,32,C R Marchant Middle School,1 Ralph Street,York,M9N 3A8,E,8837557,1,Ralph St,1 Ralph St,York,C. R. Marchant Middle School,115001,8837555,1,None,,None,829,32,"{'type': 'MultiPoint', 'coordinates': [[-79.5129333966558, 43.7017214781638]]}"
33,33,Central Etobicoke High School,10 Denfield Street,Etobicoke,M9R 3H1,S,996285,10,Denfield St,10 Denfield St,Etobicoke,Central Etobicoke High School,115001,909523,10,None,,None,1457,33,"{'type': 'MultiPoint', 'coordinates': [[-79.5554889336889, 43.6790185578849]]}"
34,34,Weston Collegiate Institute,100 Pine Street,York,M9N 2Y9,S,3202159,100,Pine St,100 Pine St,York,Weston Collegiate Institute,115001,3202160,100,None,,None,816,34,"{'type': 'MultiPoint', 'coordinates': [[-79.5094217518773, 43.7038163110412]]}"
35,35,Contact Alternative School,"132 St Patrick Street, 3rd Floor",Toronto,M5T 1V1,S,7796144,132,St Patrick St,132 St Patrick St,former Toronto,Mccaul Street Public School,115001,14121645,132,None,,None,4471,35,"{'type': 'MultiPoint', 'coordinates': [[-79.3903939018466, 43.6537657298722]]}"
36,36,Scarborough Village Public School,15 Luella Street,Scarborough,M1J 3P2,E,13515947,15,Luella St,15 Luella St,Scarborough,Scarborough Village Public School,115001,110352,15,None,,None,8372,36,"{'type': 'MultiPoint', 'coordinates': [[-79.2220717938636, 43.7441193622963]]}"
37,37,Winchester Junior and Senior Public School,15 Prospect Street,Toronto,M4X 1C7,E,6522886,15,Prospect St,15 Prospect St,former Toronto,Winchester Public School,115001,6522916,15,None,,None,4227,37,"{'type': 'MultiPoint', 'coordinates': [[-79.3708962772997, 43.6663306750224]]}"
38,38,George Harvey Collegiate Institute,1700 Keele Street,York,M6M 3W5,S,8152704,1700,Keele St,1700 Keele St,York,George Harvey Collegiate Institute - Building Grounds,115001,8128677,1700,None,,None,703,38,"{'type': 'MultiPoint', 'coordinates': [[-79.473699193678, 43.6845465069876]]}"
39,39,Orde Street Public School,18 Orde Street,Toronto,M5T 1N7,E,9947932,18,Orde St,18 Orde St,former Toronto,Orde Street Junior Public School,115001,30106991,18,None,,None,4112,39,"{'type': 'MultiPoint', 'coordinates': [[-79.3922600824158, 43.6586274865643]]}"
40,40,Inglenook Community School,19 Sackville Street,Toronto,M5A 3E1,S,864474,19,Sackville St,19 Sackville St,former Toronto,Inglenook Community School,115001,1144788,19,None,,None,4353,40,"{'type': 'MultiPoint', 'coordinates': [[-79.3594007219466, 43.6539752894773]]}"
41,41,Charles E Webster Public School,1900 Keele Street,York,M6M 3X7,E,9038626,1900,Keele St,1900 Keele St,York,C. E. Webster Junior Public School,115001,9038621,1900,None,,None,703,41,"{'type': 'MultiPoint', 'coordinates': [[-79.475099515903, 43.6934344434159]]}"
42,42,ALPHA Alternative Junior School,20 Brant Street,Toronto,M5V 2M1,E,3948771,20,Brant St,20 Brant St,former Toronto,Alpha Alternative Junior Public School,115001,14036014,20,None,,None,3055,42,"{'type': 'MultiPoint', 'coordinates': [[-79.3982225847432, 43.6457220331711]]}"
43,43,Oasis Alternative Secondary School (Arts & Social Change Program),20 Brant Street,Toronto,M5V 2M1,S,3948771,20,Brant St,20 Brant St,former Toronto,Alpha Alternative Junior Public School,115001,14036014,20,None,,None,3055,43,"{'type': 'MultiPoint', 'coordinates': [[-79.3982225847432, 43.6457220331711]]}"
44,44,Eastview Public School,20 Waldock Street,West Hill,M1E 2E5,E,395203,20,Waldock St,20 Waldock St,Scarborough,Eastview Junior Public School,115001,109224,20,None,,None,9177,44,"{'type': 'MultiPoint', 'coordinates': [[-79.1912804405348, 43.7589633617233]]}"
45,45,Weston Memorial Junior Public School,200 John Street,York,M9N 1K2,E,64616,200,John St,200 John St,York,Weston Memorial Junior Public School,115001,7261,200,None,,None,9831,45,"{'type': 'MultiPoint', 'coordinates': [[-79.509329936238, 43.7059781458169]]}"
46,46,George R Gauld Junior School,200 Melrose Street,Etobicoke,M8Y 1B7,E,1018182,200,Melrose St,200 Melrose St,Etobicoke,George R. Gauld Junior Public School,115001,913522,200,None,,None,2097,46,"{'type': 'MultiPoint', 'coordinates': [[-79.498405687125, 43.6205662675783]]}"
47,47,Niagara Street Junior Public School,222 Niagara Street,Toronto,M6J 2L3,E,12267344,222,Niagara St,222 Niagara St,former Toronto,Niagara St Public School,115001,12267343,222,None,,None,4060,47,"{'type': 'MultiPoint', 'coordinates': [[-79.4082529250071, 43.6439374594858]]}"
48,48,Fairbank Public School,2335 Dufferin Street,York,M6E 3S5,E,9741283,2335,Dufferin St,2335 Dufferin St,York,Fairbank Middle Public School,115001,9741259,2335,None,,None,557,48,"{'type': 'MultiPoint', 'coordinates': [[-79.4490892289333, 43.6942876649058]]}"
49,49,Leslieville Junior Public School,254 Leslie Street,Toronto,M4M 3C9,E,832942,254,Leslie St,254 Leslie St,former Toronto,Leslieville Public School Junior,115001,1142529,254,None,,None,225,49,"{'type': 'MultiPoint', 'coordinates': [[-79.3324077238987, 43.6673207679123]]}"
50,50,Annette Street Junior and Senior Public School,265 Annette Street,Toronto,M6P 1R3,E,7992305,265,Annette St,265 Annette St,former Toronto,Annette Street Public School,115001,7987734,265,None,,None,2890,50,"{'type': 'MultiPoint', 'coordinates': [[-79.4728312797592, 43.6614231859019]]}"
51,51,High Park Alternative Junior School,265 Annette Street,Toronto,M6P 1R3,E,7992305,265,Annette St,265 Annette St,former Toronto,Annette Street Public School,115001,7987734,265,None,,None,2890,51,"{'type': 'MultiPoint', 'coordinates': [[-79.4728312797592, 43.6614231859019]]}"
52,52,Lucy McCormick Senior School,2717 Dundas Street West,Toronto,M6P 1Y1,E,13494198,2717,Dundas St W,2717 Dundas St W,former Toronto,Lucy McCormick Senior Public School,115001,12189729,2717,None,,None,558,52,"{'type': 'MultiPoint', 'coordinates': [[-79.4601799672306, 43.6646326067736]]}"
53,53,Downsview Public School,2829 Keele Street,North York,M3M 2G7,E,10154479,2829,Keele St,2829 Keele St,North York,Downsview Public School,115001,10154475,2829,None,,None,703,53,"{'type': 'MultiPoint', 'coordinates': [[-79.4824357959776, 43.7311138437024]]}"
54,54,Harbord Collegiate Institute,286 Harbord Street,Toronto,M6G 1G5,S,9344971,286,Harbord St,286 Harbord St,former Toronto,Harbord Collegiate Institute,115001,30074125,286,None,,None,3605,54,"{'type': 'MultiPoint', 'coordinates': [[-79.4142666153396, 43.6612895164804]]}"
55,55,H J Alexander Community School,30 King Street,York,M9N 1K9,E,7074422,30,King St,30 King St,York,H. J. Alexander Community School,115001,7074419,30,None,,None,9748,55,"{'type': 'MultiPoint', 'coordinates': [[-79.5202286163034, 43.7023994674705]]}"
56,56,Howard Junior Public School,30 Marmaduke Street,Toronto,M6R 1T2,E,8594462,30,Marmaduke St,30 Marmaduke St,former Toronto,Howard Public School,115001,14017434,30,None,,None,3930,56,"{'type': 'MultiPoint', 'coordinates': [[-79.4522720930996, 43.650426312651]]}"
57,57,Lord Dufferin Junior and Senior Public School,350 Parliament Street,Toronto,M5A 2Z7,E,14172941,350,Parliament St,350 Parliament St,former Toronto,Lord Dufferin Public School,115001,30073974,350,None,,None,4162,57,"{'type': 'MultiPoint', 'coordinates': [[-79.3669550617347, 43.6608245373338]]}"
58,58,Carleton Village Junior and Senior Sports and Wellness Academy,315 Osler Street,Toronto,M6N 2Z4,E,8714071,315,Osler St,315 Osler St,former Toronto,Carleton Village North Public School,115001,14012998,315,None,,None,4124,58,"{'type': 'MultiPoint', 'coordinates': [[-79.4600288033669, 43.6723528079383]]}"
59,59,David Hornell Junior School,32 Victoria Street,Etobicoke,M8V 1M6,E,7973823,32,Victoria St,32 Victoria St,Etobicoke,David Hornell Junior Public School,115001,7973818,32,None,,None,2717,59,"{'type': 'MultiPoint', 'coordinates': [[-79.4888936625883, 43.6193332842276]]}"
60,60,Ogden Junior Public School,33 Phoebe Street,Toronto,M5T 1A8,E,853889,33,Phoebe St,33 Phoebe St,former Toronto,Ogden Public School,115001,20089930,33,None,,None,4188,60,"{'type': 'MultiPoint', 'coordinates': [[-79.395126856022, 43.6500136150807]]}"
61,61,Lord Lansdowne Junior Public School,33 Robert Street,Toronto,M5S 2K2,E,8105948,33,Robert St,33 Robert St,former Toronto,None,115001,14022601,33,None,,None,844,61,"{'type': 'MultiPoint', 'coordinates': [[-79.401909850979, 43.6589530395299]]}"
62,62,City View Alternative Senior School,38 Shirley Street,Toronto,M6K 1S9,E,10759447,38,Shirley St,38 Shirley St,former Toronto,"Shirley Street Junior Public School, City View Alternative Senior School",115001,14017192,38,None,,None,4400,62,"{'type': 'MultiPoint', 'coordinates': [[-79.4367221725004, 43.6485242370315]]}"
63,63,Shirley Street Junior Public School,38 Shirley Street,Toronto,M6K 1S9,E,10759447,38,Shirley St,38 Shirley St,former Toronto,"Shirley Street Junior Public School, City View Alternative Senior School",115001,14017192,38,None,,None,4400,63,"{'type': 'MultiPoint', 'coordinates': [[-79.4367221725004, 43.6485242370315]]}"
64,64,School of Experiential Education,40 McArthur Street,Etobicoke,M9P 3M7,S,9980628,40,McArthur St,40 McArthur St,Etobicoke,School Of Experiential Education,115001,30108084,40,None,,None,2079,64,"{'type': 'MultiPoint', 'coordinates': [[-79.5463909750587, 43.7016350249789]]}"
65,65,Horizon Alternative Senior School,570 Shaw Street,Toronto,M6G 3L6,E,866713,570,Shaw St,570 Shaw St,former Toronto,Central Commerce Collegiate,115001,1144414,570,None,,None,4388,65,"{'type': 'MultiPoint', 'coordinates': [[-79.4219986112882, 43.657978462827]]}"
66,66,Kensington Community School,401 College Street,Toronto,M5T 1S9,E,2812332,401,College St,401 College St,former Toronto,None,115001,1144329,401,None,,None,9765,66,"{'type': 'MultiPoint', 'coordinates': [[-79.4057315246338, 43.656397819463]]}"
67,67,Bloorlea Middle School,4050 Bloor Street West,Etobicoke,M9B 1M5,E,8731366,4050,Bloor St W,4050 Bloor St W,Etobicoke,Bloorlea Middle Public School,115001,8731343,4050,None,,None,458,67,"{'type': 'MultiPoint', 'coordinates': [[-79.5556754935908, 43.6376529320238]]}"
68,68,Nelson Mandela Park Public School,440 Shuter Street,Toronto,M5A 1X6,E,7635592,440,Shuter St,440 Shuter St,former Toronto,Nelson Mandela Park Public School,115001,30075973,440,None,,None,4403,68,"{'type': 'MultiPoint', 'coordinates': [[-79.3605527757157, 43.6582511901491]]}"
69,69,Inglewood Heights Junior Public School,45 Dempster Street,Agincourt,M1T 2T6,E,327534,45,Dempster St,45 Dempster St,Scarborough,Inglewood Heights Junior Public School,115001,107178,45,None,,None,7743,69,"{'type': 'MultiPoint', 'coordinates': [[-79.2923181525917, 43.7794075284367]]}"
70,70,Brookview Middle School,4505 Jane Street,North York,M3N 2K7,E,531083,4505,Jane St,4505 Jane St,North York,Brookview Middle School,115001,439448,4505,None,,None,694,70,"{'type': 'MultiPoint', 'coordinates': [[-79.5172466551502, 43.7674572380872]]}"
71,71,Tumpane Public School,48 Tumpane Street,North York,M3M 1L8,E,570542,48,Tumpane St,48 Tumpane St,North York,Tumpane Public School,115001,444319,48,None,,None,6955,71,"{'type': 'MultiPoint', 'coordinates': [[-79.5022550959971, 43.7265952806861]]}"
72,72,Jarvis Collegiate Institute,495 Jarvis Street,Toronto,M4Y 2G8,S,6522646,495,Jarvis St,495 Jarvis St,former Toronto,Jarvis Collegiate Institute,115001,6522648,495,None,,None,3741,72,"{'type': 'MultiPoint', 'coordinates': [[-79.3777587671164, 43.6660913938656]]}"
73,73,Hawthorne II Bilingual Alternative Junior School,50 Essex Street,Toronto,M6G 1T3,E,30024677,50,Essex St,50 Essex St,former Toronto,Essex Junior and Senior School Public School,115001,30017326,50,None,,None,3408,73,"{'type': 'MultiPoint', 'coordinates': [[-79.4223654834763, 43.6682357494066]]}"
74,74,Essex Junior and Senior Public School,50 Essex Street,Toronto,M6G 1T3,E,30024677,50,Essex St,50 Essex St,former Toronto,Essex Junior and Senior School Public School,115001,30017326,50,None,,None,3408,74,"{'type': 'MultiPoint', 'coordinates': [[-79.4223654834763, 43.6682357494066]]}"
75,75,Harwood Public School,50 Leigh Street,York,M6N 3X3,E,66887,50,Leigh St,50 Leigh St,York,Harwood Junior Public School,115001,30098556,50,None,,None,736,75,"{'type': 'MultiPoint', 'coordinates': [[-79.4784124771008, 43.6761859127687]]}"
76,76,Huron Street Junior Public School,541 Huron Street,Toronto,M5R 2R6,E,7974431,541,Huron St,541 Huron St,former Toronto,Huron Street Public School,115001,7974421,541,None,,None,3716,76,"{'type': 'MultiPoint', 'coordinates': [[-79.4024215880623, 43.6705755099718]]}"
77,77,Cedarbrook Public School,56 Nelson Street,Scarborough,M1J 2V6,E,367221,56,Nelson St,56 Nelson St,Scarborough,Cedarbrook Junior Public School,115001,110186,56,None,,None,4050,77,"{'type': 'MultiPoint', 'coordinates': [[-79.2301927515264, 43.7472933923281]]}"
78,78,Runnymede Collegiate Institute,569 Jane Street,York,M6S 4A3,S,64159,569,Jane St,569 Jane St,York,Runnymede Collegiate Institute,115001,9402,569,None,,None,694,78,"{'type': 'MultiPoint', 'coordinates': [[-79.4898113825241, 43.6635322654948]]}"
79,79,Central Toronto Academy,570 Shaw Street,Toronto,M6G 3L6,S,866713,570,Shaw St,570 Shaw St,former Toronto,Central Commerce Collegiate,115001,1144414,570,None,,None,4388,79,"{'type': 'MultiPoint', 'coordinates': [[-79.4219986112882, 43.657978462827]]}"
80,80,Zion Heights Middle School,5900 Leslie Street,North York,M2H 1J9,E,536807,5900,Leslie St,5900 Leslie St,North York,Zion Heights Junior High School,115001,436598,5900,None,,None,225,80,"{'type': 'MultiPoint', 'coordinates': [[-79.3710972374637, 43.7979149025647]]}"
81,81,Beverley School,64 Baldwin Street,Toronto,M5T 1L4,E,6350055,64,Baldwin St,64 Baldwin St,former Toronto,Beverley Public School,115001,1144586,64,None,,None,2938,81,"{'type': 'MultiPoint', 'coordinates': [[-79.3957051033565, 43.6557652368658]]}"
82,82,Rose Avenue Junior Public School,675 Ontario Street,Toronto,M4X 1N4,E,6522577,675,Ontario St,675 Ontario St,former Toronto,Rose Avenue Community Centre,115001,6522541,675,None,,None,4108,82,"{'type': 'MultiPoint', 'coordinates': [[-79.3727880966405, 43.6703164704159]]}"
83,83,Heydon Park Secondary School,70 D'Arcy Street,Toronto,M5T 1K1,S,6350039,70,D'Arcy St,70 D'Arcy St,former Toronto,Heydon Park Secondary School,115001,6349994,70,None,,None,3262,83,"{'type': 'MultiPoint', 'coordinates': [[-79.394534752422, 43.6549646089495]]}"
84,84,Sprucecourt Public School,70 Spruce Street,Toronto,M5A 2J1,E,7640178,70,Spruce St,70 Spruce St,former Toronto,Sprucecourt Junior Public School,115001,7640173,70,None,,None,4437,84,"{'type': 'MultiPoint', 'coordinates': [[-79.3638299150084, 43.6644860052749]]}"
85,85,Eastdale Collegiate Institute,701 Gerrard Street East,Toronto,M4M 1Y4,S,808480,701,Gerrard St E,701 Gerrard St E,former Toronto,Eastdale Collegiate Institute,115001,1142671,701,None,,None,3495,85,"{'type': 'MultiPoint', 'coordinates': [[-79.3488189225485, 43.6659265701789]]}"
86,86,Second Street Junior Middle School,71 Second Street,Etobicoke,M8V 2X4,E,7389731,71,Second St,71 Second St,Etobicoke,Second Street Junior Middle School,115001,7389724,71,None,,None,2447,86,"{'type': 'MultiPoint', 'coordinates': [[-79.5000229034999, 43.6037250776607]]}"
87,87,Rosedale Heights School of the Arts,711 Bloor Street East,Toronto,M4W 1J4,S,11462317,711,Bloor St E,711 Bloor St E,former Toronto,Rosedale Heights Secondary School,115001,11462316,711,None,,None,3020,87,"{'type': 'MultiPoint', 'coordinates': [[-79.3660163370219, 43.6739396616654]]}"
88,88,Central Technical School,725 Bathurst Street,Toronto,M5S 2R5,S,6924847,725,Bathurst St,725 Bathurst St,former Toronto,Central Technical School,115001,6924827,725,None,,None,436,88,"{'type': 'MultiPoint', 'coordinates': [[-79.4085177947948, 43.6628382420106]]}"
89,89,West End Alternative School,777 Bloor Street West,Toronto,M6G 1L6,S,772989,777,Bloor St W,777 Bloor St W,former Toronto,Bickford Centre,115001,30039622,777,None,,None,458,89,"{'type': 'MultiPoint', 'coordinates': [[-79.4198340161091, 43.6624299848934]]}"
90,90,Church Street Junior Public School,83 Alexander Street,Toronto,M4Y 1B7,E,762114,83,Alexander St,83 Alexander St,former Toronto,Church Street Public School,115001,14023586,83,None,,None,9761,90,"{'type': 'MultiPoint', 'coordinates': [[-79.3791781653545, 43.6636084257427]]}"
91,91,Downtown Alternative School,85 Lower Jarvis Street,Toronto,M5E 1R8,E,8351468,85,Lower Jarvis St,85 Lower Jarvis St,former Toronto,Downtown Alternative Junior School,115001,8351467,85,None,,None,9348,91,"{'type': 'MultiPoint', 'coordinates': [[-79.3704156513245, 43.6477361331853]]}"
92,92,Ursula Franklin Academy,146 Glendonwynne Road,Toronto,M6P 3J7,S,14203310,146,Glendonwynne Rd,146 Glendonwynne Rd,former Toronto,None,115001,1144630,146,None,,None,3537,92,"{'type': 'MultiPoint', 'coordinates': [[-79.4748206948471, 43.6567074123716]]}"
93,93,James S Bell Junior Middle Sports and Wellness Academy,90 Thirty First Street,Etobicoke,M8W 3E9,E,7287731,90,Thirty First St,90 Thirty First St,Etobicoke,James S Bell Junior Middle School - Building Grounds,115001,7287729,90,None,,None,2615,93,"{'type': 'MultiPoint', 'coordinates': [[-79.5301917018794, 43.5943542260396]]}"
94,94,Brock Public School,93 Margueretta Street,Toronto,M6H 3S4,E,9780839,93,Margueretta St,93 Margueretta St,former Toronto,Brock Junior Public School,115001,14017889,93,None,,None,3919,94,"{'type': 'MultiPoint', 'coordinates': [[-79.4378441314772, 43.6530496924269]]}"
95,95,Dundas Junior Public School,935 Dundas Street East,Toronto,M4M 1R4,E,7576813,935,Dundas St E,935 Dundas St E,former Toronto,Dundas Junior Public School,115001,14047337,935,None,,None,3334,95,"{'type': 'MultiPoint', 'coordinates': [[-79.3486863276324, 43.6620777465508]]}"
96,96,First Nations School of Toronto,16 Phin Avenue,Toronto,M4J 3T2,E,853872,16,Phin Ave,16 Phin Ave,former Toronto,Eastern High School Of Commerce,115001,1140397,16,None,,None,4186,96,"{'type': 'MultiPoint', 'coordinates': [[-79.3366360566295, 43.6791402347004]]}"
97,97,Ledbury Park Elementary and Middle School,95 Falkirk Street,North York,M5M 4K1,E,7110840,95,Falkirk St,95 Falkirk St,North York,Ledbury Elementary Middle School,115001,7110841,95,None,,None,5551,97,"{'type': 'MultiPoint', 'coordinates': [[-79.4271823065033, 43.7274253087965]]}"
98,98,Roselands Junior Public School,990 Jane Street,York,M6N 4E2,E,9584890,990,Jane St,990 Jane St,York,Roselands Junior Public School,115001,30006755,990,None,,None,694,98,"{'type': 'MultiPoint', 'coordinates': [[-79.4990610012849, 43.6812267942846]]}"
99,99,Winona Drive Senior Public School,101 Winona Drive,Toronto,M6G 3S8,E,6620126,101,Winona Dr,101 Winona Dr,former Toronto,Winona Drive Junior Public School,115001,6620030,101,None,,None,964,99,"{'type': 'MultiPoint', 'coordinates': [[-79.4308587867559, 43.6770020664784]]}"
100,100,Steelesview Public School,105 Bestview Drive,North York,M2M 2Y1,E,9467757,105,Bestview Dr,105 Bestview Dr,North York,Steelesview Public School,115001,9467747,105,None,,None,4945,100,"{'type': 'MultiPoint', 'coordinates': [[-79.3856328580992, 43.8026660882921]]}"
101,101,Sir William Osler High School,1050 Huntingwood Drive,Agincourt,M1S 3H5,S,14170901,1050,Huntingwood Dr,1050 Huntingwood Dr,Scarborough,Sir William Osler Secondary School,115001,30002264,1050,None,,None,8150,101,"{'type': 'MultiPoint', 'coordinates': [[-79.2874013328849, 43.7975664888386]]}"
102,102,Glen Ravine Junior Public School,11 Gadsby Drive,Scarborough,M1K 4V4,E,9086409,11,Gadsby Dr,11 Gadsby Dr,Scarborough,Glen Ravine Junior Public School,115001,9086406,11,None,,None,7942,102,"{'type': 'MultiPoint', 'coordinates': [[-79.2540589454282, 43.7382246272196]]}"
103,103,Roywood Public School,11 Roywood Drive,North York,M3A 2C7,E,6739507,11,Roywood Dr,11 Roywood Dr,North York,Roywood Public School,115001,6739504,11,None,,None,6599,103,"{'type': 'MultiPoint', 'coordinates': [[-79.3217731783625, 43.7647240733216]]}"
104,104,Tredway Woodsworth Public School,112 Sedgemount Drive,Scarborough,M1H 1X9,E,384158,112,Sedgemount Dr,112 Sedgemount Dr,Scarborough,William Tredway Junior Public School,115001,108752,112,None,,None,8914,104,"{'type': 'MultiPoint', 'coordinates': [[-79.2352659356635, 43.7650332154187]]}"
105,105,McMurrich Junior Public School,115 Winona Drive,Toronto,M6G 3S8,E,6620127,115,Winona Dr,115 Winona Dr,former Toronto,McMurrich Junior Public School,115001,6620030,115,None,,None,964,105,"{'type': 'MultiPoint', 'coordinates': [[-79.4310619546751, 43.6780763704772]]}"
106,106,Elkhorn Public School,10 Elkhorn Drive,North York,M2K 1J3,E,4504013,10,Elkhorn Dr,10 Elkhorn Dr,North York,Elkhorn Public School,115001,4503989,10,None,,None,5494,106,"{'type': 'MultiPoint', 'coordinates': [[-79.3800624355928, 43.7712153929829]]}"
107,107,Elmbank Junior Middle Academy,10 Pittsboro Drive,Etobicoke,M9V 3R4,E,8128665,10,Pittsboro Dr,10 Pittsboro Dr,Etobicoke,Elmbank Junior Middle Academy,115001,20053315,10,None,,None,2278,107,"{'type': 'MultiPoint', 'coordinates': [[-79.5900470677447, 43.7365019019057]]}"
108,108,Chalkfarm Public School,100 Chalkfarm Drive,North York,M3L 1L4,E,10494536,100,Chalkfarm Dr,100 Chalkfarm Dr,North York,Chalkfarm Public School,115001,10494522,100,None,,None,5162,108,"{'type': 'MultiPoint', 'coordinates': [[-79.5143927419889, 43.7271064323401]]}"
109,109,Milne Valley Middle School,100 Underhill Drive,North York,M3A 2J9,E,570770,100,Underhill Dr,100 Underhill Dr,North York,Milne Valley Middle School,115001,441523,100,None,,None,6965,109,"{'type': 'MultiPoint', 'coordinates': [[-79.3267091236923, 43.7472020481689]]}"
110,110,Crestview Public School,101 Seneca Hill Drive,North York,M2J 2W3,E,560542,101,Seneca Hill Dr,101 Seneca Hill Dr,North York,Crestview Public School,115001,437045,101,None,,None,6676,110,"{'type': 'MultiPoint', 'coordinates': [[-79.3598465997775, 43.7884321784152]]}"
111,111,Whitney Junior Public School,119 Rosedale Heights Drive,Toronto,M4T 1C7,E,861261,119,Rosedale Heights Dr,119 Rosedale Heights Dr,former Toronto,Whitney Junior Public School,115001,1139397,119,None,,None,4317,111,"{'type': 'MultiPoint', 'coordinates': [[-79.3783972733833, 43.6871603367392]]}"
112,112,Henry Kelsey Senior Public School,1200 Huntingwood Drive,Agincourt,M1S 1K7,E,6321693,1200,Huntingwood Dr,1200 Huntingwood Dr,Scarborough,Henry Kelsey Senior Public School,115001,30002255,1200,None,,None,8150,112,"{'type': 'MultiPoint', 'coordinates': [[-79.2770232222959, 43.7988176895396]]}"
113,113,Lawrence Park Collegiate Institute,125 Chatsworth Drive,Toronto,M4R 1S1,S,8344129,125,Chatsworth Dr,125 Chatsworth Dr,former Toronto,Lawrence Park Collegiate Institute,115001,8344132,125,None,,None,3149,113,"{'type': 'MultiPoint', 'coordinates': [[-79.4104390774942, 43.7222227051645]]}"
114,114,Yorkview Public School,130 Yorkview Drive,North York,M2R 1K1,E,579389,130,Yorkview Dr,130 Yorkview Dr,North York,Yorkview Public School,115001,438673,130,None,,None,9794,114,"{'type': 'MultiPoint', 'coordinates': [[-79.4355664221908, 43.7725736106375]]}"
115,115,Fenside Public School,131 Fenside Drive,North York,M3A 2V9,E,515284,131,Fenside Dr,131 Fenside Dr,North York,Fenside Public School,115001,439443,131,None,,None,5578,115,"{'type': 'MultiPoint', 'coordinates': [[-79.3291265799904, 43.7645805189835]]}"
116,116,West Humber Junior Middle School,15 Delsing Drive,Etobicoke,M9W 4S7,E,10155258,15,Delsing Dr,15 Delsing Dr,Etobicoke,West Humber Junior Public School,115001,10155252,15,None,,None,1455,116,"{'type': 'MultiPoint', 'coordinates': [[-79.5807026757453, 43.7237549779012]]}"
117,117,Eatonville Junior School,15 Rossburn Drive,Etobicoke,M9C 2P7,E,1028895,15,Rossburn Dr,15 Rossburn Dr,Etobicoke,Eatonville Junior School,115001,912398,15,None,,None,2406,117,"{'type': 'MultiPoint', 'coordinates': [[-79.5666150696602, 43.6378407814724]]}"
118,118,Hunter's Glen Junior Public School,16 Haileybury Drive,Scarborough,M1K 4X5,E,341682,16,Haileybury Dr,16 Haileybury Dr,Scarborough,Hunter's Glen Junior Public School,115001,30073938,16,None,,None,8054,118,"{'type': 'MultiPoint', 'coordinates': [[-79.2601219894519, 43.7457122545676]]}"
119,119,Lord Roberts Junior Public School,165 Lord Roberts Drive,Scarborough,M1K 3W5,E,356987,165,Lord Roberts Dr,165 Lord Roberts Dr,Scarborough,Lord Roberts Junior Public School,115001,110705,165,None,,None,8361,119,"{'type': 'MultiPoint', 'coordinates': [[-79.2636373332983, 43.7413177791394]]}"
120,120,O'Connor Public School,1665 O'Connor Drive,North York,M4A 1W5,E,8609165,1665,O'Connor Dr,1665 O'Connor Dr,North York,O'Connor Public School,115001,8609163,1665,None,,None,274,120,"{'type': 'MultiPoint', 'coordinates': [[-79.304152132862, 43.7165073254377]]}"
121,121,Pleasant View Middle School,175 Brian Drive,North York,M2J 3Y8,E,492072,175,Brian Dr,175 Brian Dr,North York,Pleasant View Junior High School,115001,437221,175,None,,None,5028,121,"{'type': 'MultiPoint', 'coordinates': [[-79.3339032144143, 43.7874877559234]]}"
122,122,Smithfield Middle School,175 Mount Olive Drive,Etobicoke,M9V 2E3,E,10537872,175,Mount Olive Dr,175 Mount Olive Dr,Etobicoke,Smithfield Public School,115001,30108313,175,None,,None,2145,122,"{'type': 'MultiPoint', 'coordinates': [[-79.5957518765444, 43.7500111297374]]}"
123,123,Dallington Public School,18 Dallington Drive,North York,M2J 2G3,E,9963285,18,Dallington Dr,18 Dallington Dr,North York,Dallington Public School,115001,9963276,18,None,,None,5322,123,"{'type': 'MultiPoint', 'coordinates': [[-79.3547553486122, 43.7771281264675]]}"
124,124,Pelmo Park Public School,180 Gary Drive,North York,M9N 2M1,E,519066,180,Gary Dr,180 Gary Dr,North York,Pelmo Park Public School,115001,445999,180,None,,None,5666,124,"{'type': 'MultiPoint', 'coordinates': [[-79.5181161605692, 43.7120567278162]]}"
125,125,Rosethorn Junior School,2 Remington Drive,Etobicoke,M9A 2J1,E,1026805,2,Remington Dr,2 Remington Dr,Etobicoke,Rosethorn Junior Public School,115001,910530,2,None,,None,2351,125,"{'type': 'MultiPoint', 'coordinates': [[-79.5394518624762, 43.6601566099814]]}"
126,126,Dunlace Public School,20 Dunlace Drive,North York,M2L 2S1,E,9963196,20,Dunlace Dr,20 Dunlace Dr,North York,Dunlace Public School,115001,30058051,20,None,,None,5459,126,"{'type': 'MultiPoint', 'coordinates': [[-79.3703573292119, 43.7624594249816]]}"
127,127,Donview Middle Health and Wellness Academy,20 Evermede Drive,North York,M3A 2S3,E,513470,20,Evermede Dr,20 Evermede Dr,North York,Donview Middle School,115001,439470,20,None,,None,5540,127,"{'type': 'MultiPoint', 'coordinates': [[-79.3314383068706, 43.7641877197384]]}"
128,128,George S Henry Academy,200 Graydon Hall Drive,North York,M3A 3A6,S,8824026,200,Graydon Hall Dr,200 Graydon Hall Dr,North York,George S. Henry Academy - Building Grounds,115001,30058565,200,None,,None,5741,128,"{'type': 'MultiPoint', 'coordinates': [[-79.3399200284936, 43.7643599636777]]}"
129,129,John D Parker Junior School,202 Mount Olive Drive,Etobicoke,M9V 3Z5,E,1020094,202,Mount Olive Dr,202 Mount Olive Dr,Etobicoke,John D Parker Public School,115001,906556,202,None,,None,2145,129,"{'type': 'MultiPoint', 'coordinates': [[-79.5964455179149, 43.7533579130158]]}"
130,130,Bessborough Drive Elementary and Middle School,211 Bessborough Drive,East York,M4G 3K2,E,17935,211,Bessborough Dr,211 Bessborough Dr,East York,Bessborough Drive Public School,115001,605,211,None,,None,33,130,"{'type': 'MultiPoint', 'coordinates': [[-79.3701352031944, 43.7072147378542]]}"
131,131,Rosedale Junior Public School,22 South Drive,Toronto,M4W 1R1,E,869568,22,South Dr,22 South Dr,former Toronto,Rosedale Junior Public School,115001,13516316,22,None,,None,4421,131,"{'type': 'MultiPoint', 'coordinates': [[-79.38168602675, 43.6776557315322]]}"
132,132,Wellesworth Junior School,225 Wellesworth Drive,Etobicoke,M9C 4S5,E,1042829,225,Wellesworth Dr,225 Wellesworth Dr,Etobicoke,Wellesworth Junior Public School,115001,910913,225,None,,None,2752,132,"{'type': 'MultiPoint', 'coordinates': [[-79.5767187454201, 43.6566373465707]]}"
133,133,Daystrom Public School,25 Daystrom Drive,North York,M9M 2A8,E,505735,25,Daystrom Dr,25 Daystrom Dr,North York,Daystrom Public School,115001,441683,25,None,,None,5339,133,"{'type': 'MultiPoint', 'coordinates': [[-79.5469633014631, 43.7479469273564]]}"
134,134,Westway Junior School,25 Poynter Drive,Etobicoke,M9R 1K8,E,1024346,25,Poynter Dr,25 Poynter Dr,Etobicoke,Westway Junior Public School,115001,908884,25,None,,None,2291,134,"{'type': 'MultiPoint', 'coordinates': [[-79.5489933081465, 43.6908221223255]]}"
135,135,Beverley Heights Middle School,26 Troutbrooke Drive,North York,M3M 1S5,E,570175,26,Troutbrooke Dr,26 Troutbrooke Dr,North York,Beverly Heights Middle School,115001,443483,26,None,,None,6946,135,"{'type': 'MultiPoint', 'coordinates': [[-79.5047717197305, 43.7330245969924]]}"
136,136,Cliffside Public School,27 East Haven Drive,Scarborough,M1N 1M1,E,8802114,27,East Haven Dr,27 East Haven Dr,Scarborough,Cliffside Public School,115001,30076792,27,None,,None,7810,136,"{'type': 'MultiPoint', 'coordinates': [[-79.2503830440116, 43.7048959315468]]}"
137,137,George Anderson Public School,30 George Anderson Drive,North York,M6M 2Y8,E,519441,30,George Anderson Dr,30 George Anderson Dr,North York,George Anderson Public School - Building Grounds,115001,446465,30,None,,None,5677,137,"{'type': 'MultiPoint', 'coordinates': [[-79.4789480608335, 43.7054535329767]]}"
138,138,Rivercrest Junior School,30 Harefield Drive,Etobicoke,M9W 4C9,E,1005812,30,Harefield Dr,30 Harefield Dr,Etobicoke,Rivercrest Junior School,115001,907426,30,None,,None,1754,138,"{'type': 'MultiPoint', 'coordinates': [[-79.5695177435715, 43.729716180075]]}"
139,139,Parkfield Junior School,31 Redgrave Drive,Etobicoke,M9R 3T9,E,1026461,31,Redgrave Dr,31 Redgrave Dr,Etobicoke,Parkfield Junior Public School,115001,909329,31,None,,None,2345,139,"{'type': 'MultiPoint', 'coordinates': [[-79.5697578514709, 43.6822877769246]]}"
140,140,Shoreham Public Sports and Wellness Academy,31 Shoreham Drive,North York,M3N 2S6,E,13969058,31,Shoreham Dr,31 Shoreham Dr,North York,Shoreham Public Sports and Wellness Academy,115001,439111,31,None,,None,6708,140,"{'type': 'MultiPoint', 'coordinates': [[-79.5173879692824, 43.7687995439219]]}"
141,141,Oakdale Park Middle School,315 Grandravine Drive,North York,M3N 1J5,E,523032,315,Grandravine Dr,315 Grandravine Dr,North York,Oakdale Park Middle School,115001,30100304,315,None,,None,5733,141,"{'type': 'MultiPoint', 'coordinates': [[-79.5119920580985, 43.7474650745775]]}"
142,142,Calico Public School,35 Calico Drive,North York,M3L 1V5,E,495446,35,Calico Dr,35 Calico Dr,North York,Calico Public School,115001,442948,35,None,,None,5092,142,"{'type': 'MultiPoint', 'coordinates': [[-79.5035920382592, 43.7379061764681]]}"
143,143,Valleyfield Junior School,35 Saskatoon Drive,Etobicoke,M9P 2E8,E,1030369,35,Saskatoon Dr,35 Saskatoon Dr,Etobicoke,Valleyfield Junior Public School,115001,908699,35,None,,None,2437,143,"{'type': 'MultiPoint', 'coordinates': [[-79.5384444417594, 43.6942865155451]]}"
144,144,Hilltop Middle School,35 Trehorne Drive,Etobicoke,M9P 1N8,E,1039711,35,Trehorne Dr,35 Trehorne Dr,Etobicoke,Hilltop Middle Public School,115001,908943,35,None,,None,2653,144,"{'type': 'MultiPoint', 'coordinates': [[-79.53306700719, 43.6894627380415]]}"
145,145,Claireville Junior School,350 Silverstone Drive,Etobicoke,M9V 3J4,E,10558804,350,Silverstone Dr,350 Silverstone Dr,Etobicoke,Claireville Public School,115001,10558805,350,None,,None,2485,145,"{'type': 'MultiPoint', 'coordinates': [[-79.5991007205673, 43.7480114029654]]}"
146,146,Maurice Cody Junior Public School,364 Belsize Drive,Toronto,M4S 1N2,E,13971288,364,Belsize Dr,364 Belsize Dr,former Toronto,Maurice Cody Junior Public School,115001,1138442,364,None,,None,2990,146,"{'type': 'MultiPoint', 'coordinates': [[-79.3776790176605, 43.7048143191022]]}"
147,147,Woburn Junior Public School,40 Dormington Drive,Scarborough,M1G 3N2,E,328365,40,Dormington Dr,40 Dormington Dr,Scarborough,Woburn Junior Public School,115001,9234022,40,None,,None,7766,147,"{'type': 'MultiPoint', 'coordinates': [[-79.2270016649434, 43.779502795504]]}"
148,148,Broadacres Junior School,45 Crendon Drive,Etobicoke,M9C 3G6,E,7515119,45,Crendon Dr,45 Crendon Dr,Etobicoke,Broadacres Public School,115001,7515109,45,None,,None,1409,148,"{'type': 'MultiPoint', 'coordinates': [[-79.5720207319543, 43.6480667176351]]}"
149,149,The Elms Junior Middle School,45 Golfdown Drive,Etobicoke,M9W 2H8,E,1003702,45,Golfdown Dr,45 Golfdown Dr,Etobicoke,The Elms Junior Middle School,115001,907618,45,None,,None,1690,149,"{'type': 'MultiPoint', 'coordinates': [[-79.5521137885613, 43.722227297768]]}"
150,150,Willow Park Junior Public School,45 Windover Drive,Scarborough,M1G 1P1,E,398591,45,Windover Dr,45 Windover Dr,Scarborough,Willow Park Junior Public School,115001,108970,45,None,,None,9241,150,"{'type': 'MultiPoint', 'coordinates': [[-79.2095785361357, 43.7611980953357]]}"
151,151,Cresthaven Public School,46 Cresthaven Drive,North York,M2H 1M1,E,504194,46,Cresthaven Dr,46 Cresthaven Dr,North York,Cresthaven Public School,115001,30102963,46,None,,None,5297,151,"{'type': 'MultiPoint', 'coordinates': [[-79.3635402543448, 43.7972191365557]]}"
152,152,Bellmere Junior Public School,470 Brimorton Drive,Scarborough,M1H 2E6,E,312976,470,Brimorton Dr,470 Brimorton Dr,Scarborough,Bellmere Junior Public School,115001,108018,470,None,,None,7437,152,"{'type': 'MultiPoint', 'coordinates': [[-79.23514687523, 43.7719692863916]]}"
153,153,A Y Jackson Secondary School,50 Francine Drive,North York,M2H 2G6,S,517961,50,Francine Dr,50 Francine Dr,North York,A. Y. Jackson Secondary School,115001,436260,50,None,,None,5639,153,"{'type': 'MultiPoint', 'coordinates': [[-79.3665552934095, 43.8052613014219]]}"
154,154,Elmlea Junior School,50 Hadrian Drive,Etobicoke,M9W 1V4,E,10010732,50,Hadrian Dr,50 Hadrian Dr,Etobicoke,Elmlea Public School,115001,20053010,50,None,,None,1737,154,"{'type': 'MultiPoint', 'coordinates': [[-79.5498701970545, 43.7159386194401]]}"
155,155,Lynnwood Heights Junior Public School,50 Southlawn Drive,Scarborough,M1S 1J1,E,14174271,50,Southlawn Dr,50 Southlawn Dr,Scarborough,Lynnwood Heights Junior Public School,115001,6332545,50,None,,None,8981,155,"{'type': 'MultiPoint', 'coordinates': [[-79.2913478664802, 43.7965807575644]]}"
156,156,Stilecroft Public School,50 Stilecroft Drive,North York,M3J 1A7,E,7522835,50,Stilecroft Dr,50 Stilecroft Dr,North York,Stilecroft Public School,115001,30092975,50,None,,None,6797,156,"{'type': 'MultiPoint', 'coordinates': [[-79.4932050987089, 43.7510558213298]]}"
157,157,Vradenburg Junior Public School,50 Vradenberg Drive,Agincourt,M1T 1M6,E,395053,50,Vradenberg Dr,50 Vradenberg Dr,Scarborough,Vradenburg Public School,115001,107883,50,None,,None,9171,157,"{'type': 'MultiPoint', 'coordinates': [[-79.3082862993578, 43.7743422666974]]}"
158,158,Martingrove Collegiate Institute,50 Winterton Drive,Etobicoke,M9B 3G7,S,8087277,50,Winterton Dr,50 Winterton Dr,Etobicoke,Martingrove Collegiate Institute,115001,8087278,50,None,,None,2813,158,"{'type': 'MultiPoint', 'coordinates': [[-79.5607396403649, 43.6733827722511]]}"
159,159,Chine Drive Public School,51 Chine Drive,Scarborough,M1M 2K8,E,2904931,51,Chine Dr,51 Chine Dr,Scarborough,Chine Drive Public School,115001,30029531,51,None,,None,7587,159,"{'type': 'MultiPoint', 'coordinates': [[-79.2417968940952, 43.7099825934536]]}"
160,160,Melody Village Junior School,520 Silverstone Drive,Etobicoke,M9V 3L5,E,10154322,520,Silverstone Dr,520 Silverstone Dr,Etobicoke,Melody Village Public School,115001,10154323,520,None,,None,2485,160,"{'type': 'MultiPoint', 'coordinates': [[-79.5948425834357, 43.7381347518027]]}"
161,161,Lambton-Kingsway Junior Middle School,525 Prince Edward Drive,Etobicoke,M8X 2M6,E,7033947,525,Prince Edward Dr N,525 Prince Edward Dr N,Etobicoke,Lambton-Kingsway Junior Middle School,115001,7033940,525,None,,None,10300,161,"{'type': 'MultiPoint', 'coordinates': [[-79.5093148073344, 43.6586572209274]]}"
162,162,Arbor Glen Public School,55 Freshmeadow Drive,North York,M2H 3H6,E,3107754,55,Freshmeadow Dr,55 Freshmeadow Dr,North York,Arbor Glen Public School,115001,3107766,55,None,,None,5647,162,"{'type': 'MultiPoint', 'coordinates': [[-79.3557094447754, 43.8094863867353]]}"
163,163,Alternative Scarborough Education 1,60 Brimorton Drive,Scarborough,M1P 3Z1,S,312808,60,Brimorton Dr,60 Brimorton Dr,Scarborough,St. Andrews Public School,115001,108579,60,None,,None,7437,163,"{'type': 'MultiPoint', 'coordinates': [[-79.2547962816571, 43.766645247168]]}"
164,164,St Andrews Public School,60 Brimorton Drive,Scarborough,M1P 3Z1,E,312808,60,Brimorton Dr,60 Brimorton Dr,Scarborough,St. Andrews Public School,115001,108579,60,None,,None,7437,164,"{'type': 'MultiPoint', 'coordinates': [[-79.2547962816571, 43.766645247168]]}"
165,165,George P Mackie Junior Public School,60 Heathfield Drive,Scarborough,M1M 3B1,E,343513,60,Heathfield Dr,60 Heathfield Dr,Scarborough,George P Mackie Junior Public School,115001,110851,60,None,,None,8089,165,"{'type': 'MultiPoint', 'coordinates': [[-79.2119939725128, 43.7393273081079]]}"
166,166,Briarcrest Junior School,60 Wellesworth Drive,Etobicoke,M9C 4R3,E,8344927,60,Wellesworth Dr,60 Wellesworth Dr,Etobicoke,Briarcrest Junior School,115001,8344924,60,None,,None,2752,166,"{'type': 'MultiPoint', 'coordinates': [[-79.5800752804407, 43.6664657716455]]}"
167,167,Bendale Junior Public School,61 Benshire Drive,Scarborough,M1H 1M4,E,307066,61,Benshire Dr,61 Benshire Dr,Scarborough,Bendale Junior Public School,115001,108929,61,None,,None,7343,167,"{'type': 'MultiPoint', 'coordinates': [[-79.2448802576444, 43.7625671183697]]}"
168,168,Seneca Hill Public School,625 Seneca Hill Drive,North York,M2J 2W6,E,560551,625,Seneca Hill Dr,625 Seneca Hill Dr,North York,Seneca Hill Public School,115001,436927,625,None,,None,6676,168,"{'type': 'MultiPoint', 'coordinates': [[-79.3502969872857, 43.7908704223355]]}"
169,169,Hollycrest Middle School,630 Renforth Drive,Etobicoke,M9C 2N6,E,1027148,630,Renforth Dr,630 Renforth Dr,Etobicoke,Hollycrest Middle Public School,115001,910965,630,None,,None,2353,169,"{'type': 'MultiPoint', 'coordinates': [[-79.5827078548947, 43.656104223852]]}"
170,170,Princess Margaret Junior School,65 Tromley Drive,Etobicoke,M9B 5Y7,E,10513559,65,Tromley Dr,65 Tromley Dr,Etobicoke,Princess Margaret Junior School,115001,10513552,65,None,,None,2659,170,"{'type': 'MultiPoint', 'coordinates': [[-79.5590577552409, 43.6712220300167]]}"
171,171,Brookhaven Public School,70 Brookhaven Drive,North York,M6M 4N8,E,493354,70,Brookhaven Dr,70 Brookhaven Dr,North York,Brookhaven Public School,115001,446535,70,None,,None,5048,171,"{'type': 'MultiPoint', 'coordinates': [[-79.4956943989555, 43.7025063022277]]}"
172,172,Beaumonde Heights Junior Middle School,70 Monterrey Drive,Etobicoke,M9V 1T1,E,1019694,70,Monterrey Dr,70 Monterrey Dr,Etobicoke,Beaumonde Heights Public School,115001,906829,70,None,,None,2134,172,"{'type': 'MultiPoint', 'coordinates': [[-79.5747551861525, 43.7426035565314]]}"
173,173,West Preparatory Junior Public School,70 Ridge Hill Drive,Toronto,M6C 2J6,E,859183,70,Ridge Hill Dr,70 Ridge Hill Dr,former Toronto,West Preparatory School,115001,1138683,70,None,,None,4282,173,"{'type': 'MultiPoint', 'coordinates': [[-79.4329440583326, 43.7026161891079]]}"
174,174,Park Lawn Junior Middle School,71 Ballacaine Drive,Etobicoke,M8Y 4B6,E,985525,71,Ballacaine Dr,71 Ballacaine Dr,Etobicoke,Park Lawn Junior Middle School,115001,912249,71,None,,None,1101,174,"{'type': 'MultiPoint', 'coordinates': [[-79.4964469164461, 43.6377066076306]]}"
175,175,Churchill Heights Public School,749 Brimorton Drive,Scarborough,M1G 2S4,E,313046,749,Brimorton Dr,749 Brimorton Dr,Scarborough,Churchill Heights Public School,115001,107715,749,None,,None,7437,175,"{'type': 'MultiPoint', 'coordinates': [[-79.2243167892305, 43.7731919492023]]}"
176,176,Bennington Heights Elementary School,76 Bennington Heights Drive,East York,M4G 1B1,E,2945619,76,Bennington Heights Dr,76 Bennington Heights Dr,East York,Bennington Heights School,115001,2945649,76,None,,None,30,176,"{'type': 'MultiPoint', 'coordinates': [[-79.3687780820258, 43.6939854007409]]}"
177,177,Three Valleys Public School,76 Three Valleys Drive,North York,M3A 3B7,E,568636,76,Three Valleys Dr,76 Three Valleys Dr,North York,Three Valleys Public School,115001,441061,76,None,,None,6895,177,"{'type': 'MultiPoint', 'coordinates': [[-79.3376043958259, 43.7506806575244]]}"
178,178,Lester B Pearson Collegiate Institute,150 Tapscott Road,Scarborough,M1B 2L2,S,390705,150,Tapscott Rd,150 Tapscott Rd,Scarborough,Lester B Pearson Collegiate Institute,115001,104524,150,None,,None,9057,178,"{'type': 'MultiPoint', 'coordinates': [[-79.2258580493407, 43.8033727841338]]}"
179,179,Roden Public School,151 Hiawatha Road,Toronto,M4L 2Y1,E,820061,151,Hiawatha Rd,151 Hiawatha Rd,former Toronto,Roden Junior Public School,115001,14022212,151,None,,None,3656,179,"{'type': 'MultiPoint', 'coordinates': [[-79.3230764862029, 43.6738732738778]]}"
180,180,Birch Cliff Public School,1650 Kingston Road,Scarborough,M1N 1S2,E,351953,1650,Kingston Rd,1650 Kingston Rd,Scarborough,Birch Cliff Public School,115001,113039,1650,None,,None,3786,180,"{'type': 'MultiPoint', 'coordinates': [[-79.2655686242961, 43.6919887241508]]}"
181,181,West Humber Collegiate Institute,1675 Martin Grove Road,Etobicoke,M9V 3S3,S,10747541,1675,Martin Grove Rd,1675 Martin Grove Rd,Etobicoke,West Humber Collegiate Institute,115001,10747534,1675,None,,None,2066,181,"{'type': 'MultiPoint', 'coordinates': [[-79.5867053925528, 43.7309224004354]]}"
182,182,Diefenbaker Elementary School,175 Plains Road,East York,M4J 2R2,E,6208971,175,Plains Rd,175 Plains Rd,East York,Diefenbaker Elementary School,115001,1176,175,None,,None,290,182,"{'type': 'MultiPoint', 'coordinates': [[-79.3316401743941, 43.6950420299431]]}"
183,183,Glen Ames Senior Public School,18 Williamson Road,Toronto,M4E 1K5,E,8236855,18,Williamson Rd,18 Williamson Rd,former Toronto,Glen Ames Senior Public School,115001,8236854,18,None,,None,4686,183,"{'type': 'MultiPoint', 'coordinates': [[-79.2984421909583, 43.6741488615009]]}"
184,184,Galloway Road Public School,192 Galloway Road,West Hill,M1E 1X2,E,336737,192,Galloway Rd,192 Galloway Rd,Scarborough,Galloway Road Public School,115001,108571,192,None,,None,7948,184,"{'type': 'MultiPoint', 'coordinates': [[-79.1966222950893, 43.7650173036954]]}"
185,185,C D Farquharson Junior Public School,1965 Brimley Road,Agincourt,M1S 2B1,E,312706,1965,Brimley Rd,1965 Brimley Rd,Scarborough,C. D. Farquharson Junior Public School,115001,20050591,1965,None,,None,7435,185,"{'type': 'MultiPoint', 'coordinates': [[-79.2661055358191, 43.784467159758]]}"
186,186,North Kipling Junior Middle School,2 Rowntree Road,Etobicoke,M9V 5C7,E,14073053,2,Rowntree Rd,2 Rowntree Rd,Etobicoke,"North Kipling Junior Middle School, North Kipling Community Centre",115001,30088407,2,None,,None,2408,186,"{'type': 'MultiPoint', 'coordinates': [[-79.5844719859096, 43.7520919012962]]}"
187,187,Gulfstream Public School,20 Gulfstream Road,North York,M9M 1S3,E,13967820,20,Gulfstream Rd,20 Gulfstream Rd,North York,Gulfstream Public School,115001,442891,20,None,,None,5766,187,"{'type': 'MultiPoint', 'coordinates': [[-79.5420098021244, 43.7390779789322]]}"
188,188,Rene Gordon Health and Wellness Academy,20 Karen Road,North York,M3A 3L6,E,532360,20,Karen Rd,20 Karen Rd,North York,Rene Gordon Elementary School,115001,30058561,20,None,,None,5937,188,"{'type': 'MultiPoint', 'coordinates': [[-79.3401430648432, 43.7619030433066]]}"
189,189,Fleming Public School,20 Littles Road,Scarborough,M1B 5B5,E,4124712,20,Littles Rd,20 Littles Rd,Scarborough,Fleming Public School,115001,4124713,20,None,,None,19464,189,"{'type': 'MultiPoint', 'coordinates': [[-79.2033845823469, 43.8154347835423]]}"
190,190,William Lyon Mackenzie Collegiate Institute,20 Tillplain Road,North York,M3H 5R2,S,569008,20,Tillplain Rd,20 Tillplain Rd,North York,William Lyon Mackenzie C.I.,115001,441008,20,None,,None,6902,190,"{'type': 'MultiPoint', 'coordinates': [[-79.4618941625427, 43.753470958116]]}"
191,191,Leaside High School,200 Hanna Road,East York,M4G 3N8,S,3244917,200,Hanna Rd,200 Hanna Rd,East York,Leaside High School,115001,347,200,None,,None,187,191,"{'type': 'MultiPoint', 'coordinates': [[-79.3725387473782, 43.7110428289168]]}"
192,192,Highland Middle School,201 Cliffwood Road,North York,M2H 3B5,E,4786681,201,Cliffwood Rd,201 Cliffwood Rd,North York,Highland Junior High School,115001,30100875,201,None,,None,5225,192,"{'type': 'MultiPoint', 'coordinates': [[-79.3554480856806, 43.8068603785032]]}"
193,193,Rippleton Public School,21 Rippleton Road,North York,M3B 1H4,E,556083,21,Rippleton Rd,21 Rippleton Rd,North York,Rippleton Public School,115001,14186978,21,None,,None,6551,193,"{'type': 'MultiPoint', 'coordinates': [[-79.3601204660189, 43.7409048373993]]}"
194,194,Elia Middle School,215 Sentinel Road,North York,M3J 1T7,E,10071229,215,Sentinel Rd,215 Sentinel Rd,North York,Elia Middle School,115001,10071213,215,None,,None,6678,194,"{'type': 'MultiPoint', 'coordinates': [[-79.4984583080641, 43.7537993176252]]}"
195,195,Millwood Junior School,222 Mill Road,Etobicoke,M9C 1Y2,E,1018827,222,Mill Rd,222 Mill Rd,Etobicoke,None,115001,912833,222,None,,None,2111,195,"{'type': 'MultiPoint', 'coordinates': [[-79.5769148190181, 43.6334096401878]]}"
196,196,Woburn Collegiate Institute,2222 Ellesmere Road,Scarborough,M1G 3M3,S,12789553,2222,Ellesmere Rd,2222 Ellesmere Rd,Scarborough,Woburn Collegiate Institute,115001,12789544,2222,None,,None,7835,196,"{'type': 'MultiPoint', 'coordinates': [[-79.2284585858987, 43.7781651122844]]}"
197,197,Guildwood Junior Public School,225 Livingston Road,Scarborough,M1E 1L8,E,4166113,225,Livingston Rd,225 Livingston Rd,Scarborough,Guildwood Junior Public School,115001,4165928,225,None,,None,8348,197,"{'type': 'MultiPoint', 'coordinates': [[-79.1999866837748, 43.7508210711606]]}"
198,198,Willowdale Middle School,225 Senlac Road,North York,M2R 1P6,E,14121615,225,Senlac Rd,225 Senlac Rd,North York,Willowdale Middle School,115001,439018,225,None,,None,6677,198,"{'type': 'MultiPoint', 'coordinates': [[-79.4260889839917, 43.7697752168173]]}"
199,199,Edgewood Public School,230 Birkdale Road,Scarborough,M1P 3S4,E,308915,230,Birkdale Rd,230 Birkdale Rd,Scarborough,Edgewood Public School,115001,30029983,230,None,,None,7367,199,"{'type': 'MultiPoint', 'coordinates': [[-79.2658120339035, 43.7663054576185]]}"
200,200,J R Wilcox Community School,231 Ava Road,York,M6C 1X3,E,51261,231,Ava Rd,231 Ava Rd,York,J. R. Wilcox Community School,115001,7726,231,None,,None,418,200,"{'type': 'MultiPoint', 'coordinates': [[-79.4363052648149, 43.6949467937453]]}"
201,201,St Margaret's Public School,235 Galloway Road,West Hill,M1E 1X5,E,4650231,235,Galloway Rd,235 Galloway Rd,Scarborough,St. Margaret's Public School,115001,30025638,235,None,,None,7948,201,"{'type': 'MultiPoint', 'coordinates': [[-79.195821221175, 43.7679505557947]]}"
202,202,Alexander Muir/Gladstone Ave Junior and Senior Public School,108 Gladstone Avenue,Toronto,M6J 3L2,E,10527839,108,Gladstone Ave,108 Gladstone Ave,former Toronto,Alexander Muir/Gladstone Ave Junior and Senior Public School,115001,10527836,108,None,,None,3506,202,"{'type': 'MultiPoint', 'coordinates': [[-79.4288472631571, 43.6460212506421]]}"
203,203,Williamson Road Junior Public School,24 Williamson Road,Toronto,M4E 1K5,E,883096,24,Williamson Rd,24 Williamson Rd,former Toronto,Williamson Road Junior Public School,115001,1141197,24,None,,None,4686,203,"{'type': 'MultiPoint', 'coordinates': [[-79.2974698038611, 43.6745110572076]]}"
204,204,Stephen Leacock Collegiate Institute,2450 Birchmount Road,Agincourt,M1T 2M5,S,9668671,2450,Birchmount Rd,2450 Birchmount Rd,Scarborough,Stephen Leacock Collegiate Institute - Building Grounds,115001,30000677,2450,None,,None,7365,204,"{'type': 'MultiPoint', 'coordinates': [[-79.3021342614181, 43.7851820434334]]}"
205,205,John Buchan Senior Public School,2450 Birchmount Road,Agincourt,M1T 2M5,E,9668671,2450,Birchmount Rd,2450 Birchmount Rd,Scarborough,Stephen Leacock Collegiate Institute - Building Grounds,115001,30000677,2450,None,,None,7365,205,"{'type': 'MultiPoint', 'coordinates': [[-79.3021342614181, 43.7851820434334]]}"
206,206,Forest Manor Public School,25 Forest Manor Road,North York,M2J 1M4,E,517448,25,Forest Manor Rd,25 Forest Manor Rd,North York,Forest Manor Public School,115001,30095974,25,None,,None,5625,206,"{'type': 'MultiPoint', 'coordinates': [[-79.3430668038294, 43.7710427399232]]}"
207,207,Muirhead Public School,25 Muirhead Road,North York,M2J 3W3,E,544255,25,Muirhead Rd,25 Muirhead Rd,North York,Muirhead Public School,115001,437939,25,None,,None,6256,207,"{'type': 'MultiPoint', 'coordinates': [[-79.3374501774332, 43.7788840209192]]}"
208,208,King George Junior Public School,25 Rexford Road,York,M6S 2M2,E,71098,25,Rexford Rd,25 Rexford Rd,York,King George Public School,115001,9403,25,None,,None,838,208,"{'type': 'MultiPoint', 'coordinates': [[-79.4868867512535, 43.6631626964079]]}"
209,209,Joseph Brant Public School,270 Manse Road,West Hill,M1E 3V4,E,30036190,270,Manse Rd,270 Manse Rd,Scarborough,Joseph Brant Public School,115001,14668450,270,None,,None,8411,209,"{'type': 'MultiPoint', 'coordinates': [[-79.1754975507903, 43.7670440318193]]}"
210,210,Centennial Road Junior Public School,271 Centennial Road,West Hill,M1C 2A2,E,317905,271,Centennial Rd,271 Centennial Rd,Scarborough,Centennial Road Public School,115001,106476,271,None,,None,7544,210,"{'type': 'MultiPoint', 'coordinates': [[-79.1500238078626, 43.7869622763272]]}"
211,211,Dorset Park Public School,28 Blaisdale Road,Scarborough,M1P 1V6,E,309262,28,Blaisdale Rd,28 Blaisdale Rd,Scarborough,Dorset Park Public School,115001,109925,28,None,,None,7374,211,"{'type': 'MultiPoint', 'coordinates': [[-79.2797350588123, 43.7501910914087]]}"
212,212,Woodbine Middle School,2900 Don Mills Road,North York,M2J 3B6,E,9950376,2900,Don Mills Rd E,2900 Don Mills Rd E,North York,Woodbine Junior High School,115001,9950377,2900,None,,None,5398,212,"{'type': 'MultiPoint', 'coordinates': [[-79.349385410988, 43.7824288154923]]}"
213,213,Silverthorn Collegiate Institute,291 Mill Road,Etobicoke,M9C 1Y5,S,1018866,291,Mill Rd,291 Mill Rd,Etobicoke,Silverthorn Collegiate Institute,115001,912488,291,None,,None,2111,213,"{'type': 'MultiPoint', 'coordinates': [[-79.5803885455116, 43.6378359132721]]}"
214,214,Rouge Valley Public School,30 Durnford Road,Scarborough,M1B 4X3,E,9602601,30,Durnford Rd,30 Durnford Rd,Scarborough,Rouge Valley Public School,115001,30100421,30,None,,None,7794,214,"{'type': 'MultiPoint', 'coordinates': [[-79.1512873936937, 43.7993862553854]]}"
215,215,General Crerar Public School,30 McGregor Road,Scarborough,M1P 1C8,E,4605063,30,McGregor Rd,30 McGregor Rd,Scarborough,General Crerar Public School,115001,14668247,30,None,,None,8460,215,"{'type': 'MultiPoint', 'coordinates': [[-79.2795776619808, 43.7456867654999]]}"
216,216,F H Miller Junior Public School,300 Caledonia Road,York,M6E 4T5,E,54313,300,Caledonia Rd,300 Caledonia Rd,York,F. H. Miller Junior Public School,115001,14072354,300,None,,None,481,216,"{'type': 'MultiPoint', 'coordinates': [[-79.458898094007, 43.6840057733305]]}"
217,217,Georges Vanier Secondary School,3000 Don Mills Road,North York,M2J 3B6,S,6738446,3000,Don Mills Rd E,3000 Don Mills Rd E,North York,Georges Vanier Secondary School,115001,30044624,3000,None,,None,5398,217,"{'type': 'MultiPoint', 'coordinates': [[-79.3509063859672, 43.7831172284439]]}"
218,218,Maple Leaf Public School,301 Culford Road,North York,M6L 2V4,E,504683,301,Culford Rd,301 Culford Rd,North York,Maple Leaf Public School,115001,445682,301,None,,None,5309,218,"{'type': 'MultiPoint', 'coordinates': [[-79.490275221205, 43.7148506431932]]}"
219,219,Northlea Elementary and Middle School,305 Rumsey Road,East York,M4G 1R4,E,33244,305,Rumsey Rd,305 Rumsey Rd,East York,Northlea Public School,115001,222,305,None,,None,318,219,"{'type': 'MultiPoint', 'coordinates': [[-79.3696628900613, 43.7144436649986]]}"
220,220,H A Halbert Junior Public School,25 Halbert Place,Scarborough,M1M 0E1,E,361168,25,Halbert Pl,25 Halbert Pl,Scarborough,H. A. Halbert Junior Public School,115001,111483,25,None,,None,8056,220,"{'type': 'MultiPoint', 'coordinates': [[-79.2317360671938, 43.7276495960022]]}"
221,221,Rolph Road Elementary School,31 Rolph Road,East York,M4G 3M5,E,3244674,31,Rolph Rd,31 Rolph Rd,East York,Rolph Road Elementary School,115001,3244642,31,None,,None,311,221,"{'type': 'MultiPoint', 'coordinates': [[-79.3660007150713, 43.6998541229578]]}"
222,222,Fairmount Public School,31 Sloley Road,Scarborough,M1M 1C7,E,2261459,31,Sloley Rd,31 Sloley Rd,Scarborough,Fairmount Junior Public School,115001,2261458,31,None,,None,8967,222,"{'type': 'MultiPoint', 'coordinates': [[-79.2308941806286, 43.7197580924624]]}"
223,223,Don Valley Middle School,3100 Don Mills Road,North York,M2J 3C3,E,10906428,3100,Don Mills Rd,3100 Don Mills Rd,North York,Don Valley Junior High School,115001,10906429,3100,None,,None,100,223,"{'type': 'MultiPoint', 'coordinates': [[-79.3549665618627, 43.7895329062794]]}"
224,224,Sir Alexander Mackenzie Senior Public School,33 Heather Road,Agincourt,M1S 2E2,E,343306,33,Heather Rd,33 Heather Rd,Scarborough,Sir Alexander Mackenzie Senior Public School,115001,20040265,33,None,,None,9726,224,"{'type': 'MultiPoint', 'coordinates': [[-79.2731724486555, 43.7893650361485]]}"
225,225,Emery Collegiate Institute,3395 Weston Road,North York,M9M 2V9,S,574355,3395,Weston Rd,3395 Weston Rd,North York,Emery Collegiate Institute,115001,30117738,3395,None,,None,952,225,"{'type': 'MultiPoint', 'coordinates': [[-79.5395569845548, 43.7487227091093]]}"
226,226,Lescon Public School,34 Lescon Road,North York,M2J 2G6,E,536699,34,Lescon Rd,34 Lescon Rd,North York,Lescon Public School - Building Grounds,115001,437795,34,None,,None,6046,226,"{'type': 'MultiPoint', 'coordinates': [[-79.3577389782403, 43.7808296263161]]}"
227,227,C W Jefferys Collegiate Institute,340 Sentinel Road,North York,M3J 1T9,S,10071193,340,Sentinel Rd,340 Sentinel Rd,North York,C. W. Jeffreys Collegiate Institute,115001,30024038,340,None,,None,6678,227,"{'type': 'MultiPoint', 'coordinates': [[-79.4999125095246, 43.7582792583815]]}"
228,228,Henry Hudson Senior Public School,350 Orton Park Road,Scarborough,M1G 3H4,E,369701,350,Orton Park Rd,350 Orton Park Rd,Scarborough,Henry Hudson Junior Public School,115001,107222,350,None,,None,8622,228,"{'type': 'MultiPoint', 'coordinates': [[-79.2144673665189, 43.7777371786683]]}"
229,229,Runnymede Junior and Senior Public School,357 Runnymede Road,Toronto,M6S 2Y7,E,7973683,357,Runnymede Rd,357 Runnymede Rd,former Toronto,Runnymede Junior & Senior Public School,115001,7973682,357,None,,None,866,229,"{'type': 'MultiPoint', 'coordinates': [[-79.4774817133393, 43.6559293055801]]}"
230,230,Windfields Middle School,375 Banbury Road,North York,M2L 2V2,E,486113,375,Banbury Rd,375 Banbury Rd,North York,Windfields Junior High School,115001,440413,375,None,,None,4876,230,"{'type': 'MultiPoint', 'coordinates': [[-79.3705792903782, 43.7561115796205]]}"
231,231,Oakridge Junior Public School,110 Byng Avenue,Scarborough,M1L 3P1,E,315052,110,Byng Ave,110 Byng Ave,Scarborough,Oakridge Junior Public School,115001,112907,110,None,,None,9832,231,"{'type': 'MultiPoint', 'coordinates': [[-79.2815887508899, 43.6954675997844]]}"
232,232,Buchanan Public School,4 Bucannan Road,Scarborough,M1R 3V3,E,314022,4,Bucannan Rd,4 Bucannan Rd,Scarborough,Buchanan Public School,115001,109942,4,None,,None,7464,232,"{'type': 'MultiPoint', 'coordinates': [[-79.2999282686155, 43.7514123659806]]}"
233,233,Adam Beck Junior Public School,400 Scarborough Road,Toronto,M4E 3M8,E,10476656,400,Scarborough Rd,400 Scarborough Rd,former Toronto,Adam Beck Junior Public School,115001,10476638,400,None,,None,4366,233,"{'type': 'MultiPoint', 'coordinates': [[-79.2884878925608, 43.6831518038006]]}"
234,234,Mill Valley Junior School,411 Mill Road,Etobicoke,M9C 1Y9,E,7471919,411,Mill Rd,411 Mill Rd,Etobicoke,Mill Valley Public School,115001,7471917,411,None,,None,2111,234,"{'type': 'MultiPoint', 'coordinates': [[-79.5869715708541, 43.6441893872147]]}"
235,235,John McCrae Public School,431 McCowan Road,Scarborough,M1J 1J1,E,6427801,431,McCowan Rd,431 McCowan Rd,Scarborough,John McCrae Senior Public School,115001,14239688,431,None,,None,8454,235,"{'type': 'MultiPoint', 'coordinates': [[-79.2398865092258, 43.7440442493865]]}"
236,236,Ancaster Public School,44 Ancaster Road,North York,M3K 1S6,E,482522,44,Ancaster Rd,44 Ancaster Rd,North York,Ancaster Public School,115001,30093012,44,None,,None,4795,236,"{'type': 'MultiPoint', 'coordinates': [[-79.4669926271694, 43.732866171726]]}"
237,237,Albion Heights Junior Middle School,45 Lynmont Road,Etobicoke,M9V 3W9,E,10133520,45,Lynmont Rd,45 Lynmont Rd,Etobicoke,Albion Heights Public School,115001,30065224,45,None,,None,2033,237,"{'type': 'MultiPoint', 'coordinates': [[-79.5943154958931, 43.7313882639787]]}"
238,238,Sunny View Junior and Senior Public School,450 Blythwood Road,Toronto,M4N 1A9,E,2476346,450,Blythwood Rd,450 Blythwood Rd,North York,Sunny View Public School,115001,2476347,450,None,,None,3024,238,"{'type': 'MultiPoint', 'coordinates': [[-79.3873376052873, 43.7198437625729]]}"
239,239,Brown Junior Public School,454 Avenue Road,Toronto,M4V 2J1,E,7992855,454,Avenue Rd,454 Avenue Rd,former Toronto,"Brown Junior Public School, Brown Community Centre",115001,7992854,454,None,,None,2924,239,"{'type': 'MultiPoint', 'coordinates': [[-79.4013122747142, 43.6849129181957]]}"
240,240,J G Workman Public School,487 Birchmount Road,Scarborough,M1K 1N7,E,4503984,487,Birchmount Rd,487 Birchmount Rd,Scarborough,J. G. Workman Public School,115001,4503983,487,None,,None,7365,240,"{'type': 'MultiPoint', 'coordinates': [[-79.2671279279676, 43.7071912568456]]}"
241,241,York Mills Collegiate Institute,490 York Mills Road,North York,M3B 1W6,S,579005,490,York Mills Rd,490 York Mills Rd,North York,York Mills Collegiate Institute,115001,441141,490,None,,None,7145,241,"{'type': 'MultiPoint', 'coordinates': [[-79.3735238955731, 43.7515290541848]]}"
242,242,Etienne Brule Junior School,50 Cloverhill Road,Etobicoke,M8Y 1T3,E,7940034,50,Cloverhill Rd,50 Cloverhill Rd,Etobicoke,Etienne Brule Junior Public School,115001,7940032,50,None,,None,1363,242,"{'type': 'MultiPoint', 'coordinates': [[-79.4896844559483, 43.63561874071]]}"
243,243,Norman Ingram Public School,50 Duncairn Road,North York,M3B 1C8,E,510159,50,Duncairn Rd,50 Duncairn Rd,North York,Norman Ingram Public School,115001,442273,50,None,,None,5453,243,"{'type': 'MultiPoint', 'coordinates': [[-79.3496061486394, 43.7399524524339]]}"
244,244,Cedarbrae Collegiate Institute,550 Markham Road,Scarborough,M1H 2A2,S,360056,550,Markham Rd,550 Markham Rd,Scarborough,Cedarbrae Collegiate Institute,115001,109476,550,None,,None,8429,244,"{'type': 'MultiPoint', 'coordinates': [[-79.2259248559894, 43.7563408988376]]}"
245,245,Seneca School,580 Rathburn Road,Etobicoke,M9C 3T3,E,6733591,580,Rathburn Rd,580 Rathburn Rd,Etobicoke,Seneca School,115001,6733590,580,None,,None,2335,245,"{'type': 'MultiPoint', 'coordinates': [[-79.582545826113, 43.650933953139]]}"
246,246,William G Miller Public School,60 Bennett Road,West Hill,M1E 3Y3,E,30032611,60,Bennett Rd,60 Bennett Rd,Scarborough,None,115001,108162,60,None,,None,7338,246,"{'type': 'MultiPoint', 'coordinates': [[-79.1650340052142, 43.7685135568036]]}"
247,247,North Agincourt Junior Public School,60 Moran Road,Agincourt,M1S 2J3,E,365117,60,Moran Rd,60 Moran Rd,Scarborough,North Agincourt Junior Public School,115001,105519,60,None,,None,8529,247,"{'type': 'MultiPoint', 'coordinates': [[-79.2762127949402, 43.7964537061583]]}"
248,248,Rockford Public School,60 Rockford Road,North York,M2R 3A7,E,9212874,60,Rockford Rd,60 Rockford Rd,North York,Rockford Public School,115001,9212590,60,None,,None,6571,248,"{'type': 'MultiPoint', 'coordinates': [[-79.4524414110058, 43.7858005190036]]}"
249,249,Jesse Ketchum Junior and Senior Public School,61 Davenport Road,Toronto,M5R 1H4,E,7979412,61,Davenport Rd,61 Davenport Rd,former Toronto,Jesse Ketchum Public School,115001,7979413,61,None,,None,3269,249,"{'type': 'MultiPoint', 'coordinates': [[-79.3921392257859, 43.6729826224861]]}"
250,250,Humber Valley Village Junior Middle School,65 Hartfield Road,Etobicoke,M9A 3E1,E,1006145,65,Hartfield Rd,65 Hartfield Rd,Etobicoke,Humber Valley Village Public School,115001,910218,65,None,,None,1763,250,"{'type': 'MultiPoint', 'coordinates': [[-79.5265666084256, 43.6654435061721]]}"
251,251,Etobicoke School of the Arts,675 Royal York Road,Etobicoke,M8Y 2T1,S,10142862,675,Royal York Rd,675 Royal York Rd,Etobicoke,Etobicoke School Of The Arts,115001,10142864,675,None,,None,2413,251,"{'type': 'MultiPoint', 'coordinates': [[-79.5041485169903, 43.6307322050172]]}"
252,252,Downsview Secondary School,7 Hawksdale Road,North York,M3K 1W3,S,525550,7,Hawksdale Rd,7 Hawksdale Rd,North York,Downsview Secondary School,115001,443858,7,None,,None,5805,252,"{'type': 'MultiPoint', 'coordinates': [[-79.4795174892873, 43.7308678403515]]}"
253,253,John G Diefenbaker Public School,70 Dean Park Road,Scarborough,M1B 2X3,E,326649,70,Dean Park Rd,70 Dean Park Rd,Scarborough,John G Diefenbaker Public School,115001,104641,70,None,,None,7721,253,"{'type': 'MultiPoint', 'coordinates': [[-79.171869534813, 43.8022950282646]]}"
254,254,Duke of Connaught Junior and Senior Public School,70 Woodfield Road,Toronto,M4L 2W6,E,6362823,70,Woodfield Rd,70 Woodfield Rd,former Toronto,Duke Of Connaught Ps Jr & Sr.,115001,14022648,70,None,,None,4712,254,"{'type': 'MultiPoint', 'coordinates': [[-79.3219578466597, 43.6661955194459]]}"
255,255,Tecumseh Senior Public School,720 Scarborough Golf Club Road,Scarborough,M1G 1H7,E,383206,720,Scarborough Golf Club Rd,720 Scarborough Golf Club Rd,Scarborough,Tecumseh Senior Public School,115001,108906,720,None,,None,8891,255,"{'type': 'MultiPoint', 'coordinates': [[-79.2167270408446, 43.7629070424859]]}"
256,256,Norman Cook Junior Public School,725 Danforth Road,Scarborough,M1K 1G4,E,325679,725,Danforth Rd,725 Danforth Rd,Scarborough,Norman Cook Junior Public School,115001,30015906,725,None,,None,7707,256,"{'type': 'MultiPoint', 'coordinates': [[-79.2577951258558, 43.7190391303319]]}"
257,257,Golf Road Junior Public School,730 Scarborough Golf Club Road,Scarborough,M1G 1H7,E,383209,730,Scarborough Golf Club Rd,730 Scarborough Golf Club Rd,Scarborough,Golf Road Junior Public School,115001,108906,730,None,,None,8891,257,"{'type': 'MultiPoint', 'coordinates': [[-79.2168876729568, 43.7639036098219]]}"
258,258,Ellesmere-Statton Public School,739 Ellesmere Road,Scarborough,M1P 2W1,E,4312082,739,Ellesmere Rd,739 Ellesmere Rd,Scarborough,Ellesmere-Statton Public School,115001,14663886,739,None,,None,7835,258,"{'type': 'MultiPoint', 'coordinates': [[-79.2875719983282, 43.7636236123759]]}"
259,259,Stanley Public School,75 Stanley Road,North York,M3N 1C2,E,20200382,75,Stanley Rd,75 Stanley Rd,North York,Stanley Public School,115001,11271967,75,None,,None,6783,259,"{'type': 'MultiPoint', 'coordinates': [[-79.5178270423286, 43.7418311837881]]}"
260,260,Westview Centennial Secondary School,755 Oakdale Road,North York,M3N 1W7,S,10536933,755,Oakdale Rd,755 Oakdale Rd,North York,Westview Centennial Secondary School - Building Grounds,115001,10536929,755,None,,None,6317,260,"{'type': 'MultiPoint', 'coordinates': [[-79.5250905310153, 43.7523976347813]]}"
261,261,Meadowvale Public School,761 Meadowvale Road,West Hill,M1C 1T1,E,6349862,761,Meadowvale Rd,761 Meadowvale Rd,Scarborough,Meadowvale Public School - Building Grounds,115001,6349870,761,None,,None,8470,261,"{'type': 'MultiPoint', 'coordinates': [[-79.1640681823792, 43.7955110107972]]}"
262,262,Forest Hill Junior and Senior Public School,78 Dunloe Road,Toronto,M5P 2T6,E,797816,78,Dunloe Rd,78 Dunloe Rd,former Toronto,Forest Hill Public School,115001,1139009,78,None,,None,3338,262,"{'type': 'MultiPoint', 'coordinates': [[-79.4139385899, 43.6953762569543]]}"
263,263,Mason Road Junior Public School,78 Mason Road,Scarborough,M1M 3R2,E,360667,78,Mason Rd,78 Mason Rd,Scarborough,Mason Road Junior Public School,115001,110821,78,None,,None,8442,263,"{'type': 'MultiPoint', 'coordinates': [[-79.2256545935691, 43.7390564379521]]}"
264,264,Bowmore Road Junior and Senior Public School,80 Bowmore Road,Toronto,M4L 3J2,E,6361762,80,Bowmore Rd,80 Bowmore Rd,former Toronto,Bowmore Public School - Building Grounds,115001,6355883,80,None,,None,3044,264,"{'type': 'MultiPoint', 'coordinates': [[-79.3144917153579, 43.676063664796]]}"
265,265,Harrison Public School,81 Harrison Road,North York,M2L 1V9,E,525261,81,Harrison Rd,81 Harrison Rd,North York,Harrison Public School,115001,440270,81,None,,None,5792,265,"{'type': 'MultiPoint', 'coordinates': [[-79.3773086129257, 43.7573684747214]]}"
266,266,Northern Secondary School,851 Mount Pleasant Road,Toronto,M4P 2L5,S,845013,851,Mount Pleasant Rd,851 Mount Pleasant Rd,former Toronto,Northern Secondary School,115001,1138214,851,None,,None,4022,266,"{'type': 'MultiPoint', 'coordinates': [[-79.3901642998392, 43.7105370975811]]}"
267,267,Etobicoke Collegiate Institute,86 Montgomery Road,Etobicoke,M9A 3N5,S,10756789,86,Montgomery Rd,86 Montgomery Rd,Etobicoke,Etobicoke Collegiate Institute,115001,10756784,86,None,,None,2136,267,"{'type': 'MultiPoint', 'coordinates': [[-79.522296213866, 43.6500842008403]]}"
268,268,Ionview Public School,90 Ionview Road,Scarborough,M1K 2Z9,E,347910,90,Ionview Rd,90 Ionview Rd,Scarborough,Ionview Public School,115001,110925,90,None,,None,8175,268,"{'type': 'MultiPoint', 'coordinates': [[-79.2743179577449, 43.7374516240236]]}"
269,269,Kingslake Public School,90 Kingslake Road,North York,M2J 3E8,E,533947,90,Kingslake Rd,90 Kingslake Rd,North York,Kingslake Public School,115001,437389,90,None,,None,5972,269,"{'type': 'MultiPoint', 'coordinates': [[-79.3455302477626, 43.7847819082729]]}"
270,270,Robert Service Senior Public School,945 Danforth Road,Scarborough,M1K 1J2,E,7359582,945,Danforth Rd,945 Danforth Rd,Scarborough,Robert Service Senior Public School,115001,7359575,945,None,,None,7707,270,"{'type': 'MultiPoint', 'coordinates': [[-79.2511781787807, 43.7290251523698]]}"
271,271,Westmount Junior School,95 Chapman Road,Etobicoke,M9P 1E9,E,9847243,95,Chapman Rd,95 Chapman Rd,Etobicoke,Westmount Public School,115001,14660658,95,None,,None,1332,271,"{'type': 'MultiPoint', 'coordinates': [[-79.519659304979, 43.6890961288899]]}"
272,272,Regal Road Junior Public School,95 Regal Road,Toronto,M6H 2J6,E,9270479,95,Regal Rd,95 Regal Rd,former Toronto,Regal Road Public School,115001,9270480,95,None,,None,4263,272,"{'type': 'MultiPoint', 'coordinates': [[-79.4400632870577, 43.6737751677408]]}"
273,273,Sloane Public School,110 Sloane Avenue,North York,M4A 2B1,E,563140,110,Sloane Ave,110 Sloane Ave,North York,Sloane Public School,115001,443411,110,None,,None,6732,273,"{'type': 'MultiPoint', 'coordinates': [[-79.3103396611409, 43.7312122256091]]}"
274,274,Chester Elementary School,115 Gowan Avenue,East York,M4K 2E4,E,3232917,115,Gowan Ave,115 Gowan Ave,East York,Chester Elementary School,115001,3232919,115,None,,None,178,274,"{'type': 'MultiPoint', 'coordinates': [[-79.3517099846563, 43.6876023807709]]}"
275,275,Selwyn Elementary School,1 Selwyn Avenue,East York,M4B 3J9,E,3259532,1,Selwyn Ave,1 Selwyn Ave,East York,Selwyn Elementary School,115001,3259533,1,None,,None,325,275,"{'type': 'MultiPoint', 'coordinates': [[-79.3063259433172, 43.7084396528702]]}"
276,276,George Peck Public School,1 Wayne Avenue,Scarborough,M1R 1Y1,E,396495,1,Wayne Ave,1 Wayne Ave,Scarborough,George Peck Public School,115001,110941,1,None,,None,9197,276,"{'type': 'MultiPoint', 'coordinates': [[-79.2936351945354, 43.7382584753535]]}"
277,277,Dublin Heights Elementary and Middle School,100 Bainbridge Avenue,North York,M3H 2K2,E,485548,100,Bainbridge Ave,100 Bainbridge Ave,North York,Dublin Heights Elementary and Ms,115001,441419,100,None,,None,4862,277,"{'type': 'MultiPoint', 'coordinates': [[-79.4470247426388, 43.7491483093568]]}"
278,278,Queen Victoria Public School,100 Close Avenue,Toronto,M6K 2V3,E,784384,100,Close Ave,100 Close Ave,former Toronto,Queen Victoria Public School,115001,30035821,100,None,,None,3186,278,"{'type': 'MultiPoint', 'coordinates': [[-79.435320697841, 43.6365094905393]]}"
279,279,York Humber High School,100 Emmett Avenue,York,M6M 2E6,S,9344875,100,Emmett Ave,100 Emmett Ave,York,York Humber High School,115001,9344876,100,None,,None,580,279,"{'type': 'MultiPoint', 'coordinates': [[-79.506177459366, 43.6885691951614]]}"
280,280,Pauline Junior Public School,100 Pauline Avenue,Toronto,M6H 3M8,E,9638081,100,Pauline Ave,100 Pauline Ave,former Toronto,Pauline Public School,115001,14012736,100,None,,None,4168,280,"{'type': 'MultiPoint', 'coordinates': [[-79.4391436705617, 43.6624891075822]]}"
281,281,Earl Haig Secondary School,100 Princess Avenue,North York,M2N 3R7,S,3310442,100,Princess Ave,100 Princess Ave,North York,Earl Haig Secondary School,115001,3310436,100,None,,None,6470,281,"{'type': 'MultiPoint', 'coordinates': [[-79.4059659483565, 43.7696090327771]]}"
282,282,Earl Grey Senior Public School,100 Strathcona Avenue,Toronto,M4J 1G8,E,6355066,100,Strathcona Ave,100 Strathcona Ave,former Toronto,Earl Grey Senior Public School,115001,14022315,100,None,,None,4496,282,"{'type': 'MultiPoint', 'coordinates': [[-79.3405244209135, 43.6768438820104]]}"
283,283,William Burgess Elementary School,100 Torrens Avenue,East York,M4J 2P5,E,35916,100,Torrens Ave,100 Torrens Ave,East York,William Burgess Public School,115001,1540,100,None,,None,361,283,"{'type': 'MultiPoint', 'coordinates': [[-79.348157720646, 43.6919277284887]]}"
284,284,Secord Elementary School,101 Barrington Avenue,East York,M4C 4Y9,E,10363878,101,Barrington Ave,101 Barrington Ave,East York,Secord Elementary School,115001,10363876,101,None,,None,21,284,"{'type': 'MultiPoint', 'coordinates': [[-79.3018312433153, 43.6923788956395]]}"
285,285,Glen Park Public School,101 Englemount Avenue,North York,M6B 4L5,E,14038150,101,Englemount Ave,101 Englemount Ave,North York,Glen Park Public School,115001,445733,101,None,,None,5517,285,"{'type': 'MultiPoint', 'coordinates': [[-79.4357473261606, 43.7132238247354]]}"
286,286,Kew Beach Junior Public School,101 Kippendavie Avenue,Toronto,M4L 3R3,E,8236907,101,Kippendavie Ave,101 Kippendavie Ave,former Toronto,Kew Beach Public School,115001,8236876,101,None,,None,3790,286,"{'type': 'MultiPoint', 'coordinates': [[-79.3027273153273, 43.6684642406022]]}"
287,287,Wexford Collegiate School for the Arts,1176 Pharmacy Avenue,Scarborough,M1R 2H7,S,373269,1176,Pharmacy Ave,1176 Pharmacy Ave,Scarborough,Wexford Collegiate Institute,115001,14663380,1176,None,,None,8691,287,"{'type': 'MultiPoint', 'coordinates': [[-79.3067953750859, 43.7461595742932]]}"
288,288,Birch Cliff Heights Public School,120 Highview Avenue,Scarborough,M1N 2J1,E,343964,120,Highview Ave,120 Highview Ave,Scarborough,Birch Cliff Heights Public School,115001,112688,120,None,,None,9828,288,"{'type': 'MultiPoint', 'coordinates': [[-79.259816624788, 43.7017413937537]]}"
289,289,Pierre Laporte Middle School,1270 Wilson Avenue,North York,M3M 1H5,E,576369,1270,Wilson Ave,1270 Wilson Ave,North York,Pierre Laporte Middle School,115001,444500,1270,None,,None,4693,289,"{'type': 'MultiPoint', 'coordinates': [[-79.4921243121893, 43.7250745328027]]}"
290,290,William G Davis Junior Public School,128 East Avenue,West Hill,M1C 3L6,E,2375320,128,East Ave,128 East Ave,Scarborough,William G Davis Junior Public School,115001,2375314,128,None,,None,3352,290,"{'type': 'MultiPoint', 'coordinates': [[-79.1344743650252, 43.7850464257848]]}"
291,291,Fern Avenue Junior and Senior Public School,128 Fern Avenue,Toronto,M6R 1K3,E,8007871,128,Fern Ave,128 Fern Ave,former Toronto,Fern Avenue Public School,115001,14017573,128,None,,None,591,291,"{'type': 'MultiPoint', 'coordinates': [[-79.4461128419154, 43.6451803159495]]}"
292,292,Lynngate Junior Public School,129 Cass Avenue,Agincourt,M1T 2B5,E,316950,129,Cass Ave,129 Cass Ave,Scarborough,Lynngate Junior Public School,115001,30100525,129,None,,None,7523,292,"{'type': 'MultiPoint', 'coordinates': [[-79.300660254809, 43.7766766424049]]}"
293,293,John Ross Robertson Junior Public School,130 Glengrove Avenue West,Toronto,M4R 1P2,E,812871,130,Glengrove Ave W,130 Glengrove Ave W,former Toronto,John Ross Robertson Junior Public School,115001,1137988,130,None,,None,3544,293,"{'type': 'MultiPoint', 'coordinates': [[-79.4088642991292, 43.7183259803294]]}"
294,294,St Andrew's Middle School,131 Fenn Avenue,North York,M2P 1X7,E,515118,131,Fenn Ave,131 Fenn Ave,North York,St Andrew's Middle School,115001,441207,131,None,,None,5575,294,"{'type': 'MultiPoint', 'coordinates': [[-79.3903297628128, 43.7515973528757]]}"
295,295,Maryvale Public School,1325 Pharmacy Avenue,Scarborough,M1R 2J1,E,2820814,1325,Pharmacy Ave,1325 Pharmacy Ave,Scarborough,Maryvale Public School,115001,2820803,1325,None,,None,8691,295,"{'type': 'MultiPoint', 'coordinates': [[-79.307836183235, 43.754822068202]]}"
296,296,Balmy Beach Community School,14 Pine Avenue,Toronto,M4E 1L6,E,7667200,14,Pine Ave,14 Pine Ave,former Toronto,"Balmy Beach Community School, Balmy Beach Community Recreation Centre",115001,14673229,14,None,,None,4190,296,"{'type': 'MultiPoint', 'coordinates': [[-79.289826941499, 43.6764359194877]]}"
297,297,Perth Avenue Junior Public School,14 Ruskin Avenue,Toronto,M6P 3P8,E,8431734,14,Ruskin Ave,14 Ruskin Ave,former Toronto,Perth Avenue Junior Public School,115001,8431729,14,None,,None,4342,297,"{'type': 'MultiPoint', 'coordinates': [[-79.4524196858968, 43.6628313614165]]}"
298,298,Sheppard Public School,1430 Sheppard Avenue West,North York,M3M 2W9,E,10133016,1430,Sheppard Ave W,1430 Sheppard Ave W,North York,Sheppard Public School,115001,10133008,1430,None,,None,6699,298,"{'type': 'MultiPoint', 'coordinates': [[-79.4882606578029, 43.7454243556118]]}"
299,299,Baycrest Public School,145 Baycrest Avenue,North York,M6A 1W4,E,487550,145,Baycrest Ave,145 Baycrest Ave,North York,Baycrest Public School,115001,444124,145,None,,None,4905,299,"{'type': 'MultiPoint', 'coordinates': [[-79.4442515073691, 43.7266057772143]]}"
300,300,Victoria Park Elementary School,145 Tiago Avenue,East York,M4B 2A6,E,3259557,145,Tiago Ave,145 Tiago Ave,East York,Victoria Park Elementary School,115001,3259538,145,None,,None,357,300,"{'type': 'MultiPoint', 'coordinates': [[-79.2981507568545, 43.712689182329]]}"
301,301,Armour Heights Public School,148 Wilson Avenue,North York,M5M 3A5,E,576041,148,Wilson Ave,148 Wilson Ave,North York,Armour Heights Public School,115001,20055791,148,None,,None,4693,301,"{'type': 'MultiPoint', 'coordinates': [[-79.4195222787578, 43.7409100432478]]}"
302,302,Humewood Community School,15 Cherrywood Avenue,York,M6C 2X4,E,55237,15,Cherrywood Ave,15 Cherrywood Ave,York,Humewood Community School,115001,8534,15,None,,None,499,302,"{'type': 'MultiPoint', 'coordinates': [[-79.4280204516617, 43.6866350930218]]}"
303,303,Earl Haig Public School,15 Earl Haig Avenue,Toronto,M4C 1E2,E,799259,15,Earl Haig Ave,15 Earl Haig Ave,former Toronto,Earl Haig Junior Public School,115001,1140005,15,None,,None,3349,303,"{'type': 'MultiPoint', 'coordinates': [[-79.3212504675318, 43.6813314530514]]}"
304,304,Newtonbrook Secondary School,155 Hilda Avenue,North York,M2M 1V6,S,10335749,155,Hilda Ave,155 Hilda Ave,North York,Newtonbrook Secondary School,115001,10335742,155,None,,None,5839,304,"{'type': 'MultiPoint', 'coordinates': [[-79.4262425900561, 43.7935491354672]]}"
305,305,Bendale Business and Technical Institute,1555 Midland Avenue,Scarborough,M1P 3C1,S,2820831,1555,Midland Ave,1555 Midland Ave,Scarborough,Bendale BTI,115001,2820380,1555,None,,None,8496,305,"{'type': 'MultiPoint', 'coordinates': [[-79.2647430887907, 43.755339758132]]}"
306,306,Subway Academy I,16 Phin Avenue,Toronto,M4J 3T2,S,853872,16,Phin Ave,16 Phin Ave,former Toronto,Eastern High School Of Commerce,115001,1140397,16,None,,None,4186,306,"{'type': 'MultiPoint', 'coordinates': [[-79.3366360566295, 43.6791402347004]]}"
307,307,Elizabeth Simcoe Junior Public School,166 Sylvan Avenue,Scarborough,M1E 1A3,E,390308,166,Sylvan Ave,166 Sylvan Ave,Scarborough,Elizabeth Simcoe Junior Public School,115001,110959,166,None,,None,4522,307,"{'type': 'MultiPoint', 'coordinates': [[-79.2060348701063, 43.7381519615688]]}"
308,308,Dennis Avenue Community School,17 Dennis Avenue,York,M6N 2T7,E,10313238,17,Dennis Ave,17 Dennis Ave,York,Dennis Avenue Community School,115001,10313197,17,None,,None,551,308,"{'type': 'MultiPoint', 'coordinates': [[-79.4872863165976, 43.6844195398894]]}"
309,309,Avondale Elementary Alternative School,171 Avondale Ave,North York,M2N 2V4,E,485329,171,Avondale Ave,171 Avondale Ave,North York,Avondale Alternative School,115001,439906,171,None,,None,4853,309,"{'type': 'MultiPoint', 'coordinates': [[-79.4000020943236, 43.7596784143197]]}"
310,310,Avondale Secondary Alternative School,24 Silverview Dr,North York,M2N 2B3,S,7315504,24,Silverview Dr,24 Silverview Dr,North York,Griffin Centre,115001,7315505,24,None,,None,6720,310,"{'type': 'MultiPoint', 'coordinates': [[-79.4118431542439, 43.7863065106423]]}"
311,311,Richview Collegiate Institute,1738 Islington Avenue,Etobicoke,M9A 3N2,S,1009103,1738,Islington Ave,1738 Islington Ave,Etobicoke,Richview Collegiate Institute,115001,30023253,1738,None,,None,1863,311,"{'type': 'MultiPoint', 'coordinates': [[-79.5395009465865, 43.6786465333719]]}"
312,312,Cordella Junior Public School,175 Cordella Avenue,York,M6N 2K1,E,8492735,175,Cordella Ave,175 Cordella Ave,York,Cordella Junior Public School,115001,30073965,175,None,,None,528,312,"{'type': 'MultiPoint', 'coordinates': [[-79.4875854399739, 43.6790700932118]]}"
313,313,Gracefield Public School,177 Gracefield Avenue,North York,M6L 1L7,E,10035226,177,Gracefield Ave,177 Gracefield Ave,North York,Gracefield Public School,115001,30097198,177,None,,None,5729,313,"{'type': 'MultiPoint', 'coordinates': [[-79.4914064041562, 43.709018391832]]}"
314,314,Morse Street Junior Public School,180 Carlaw Avenue,Toronto,M4M 2R9,E,779906,180,Carlaw Ave,180 Carlaw Ave,former Toronto,Morse Street Junior Public School,115001,14038008,180,None,,None,56,314,"{'type': 'MultiPoint', 'coordinates': [[-79.3401666940738, 43.6601669225421]]}"
315,315,Queen Alexandra Middle School,181 Broadview Avenue,Toronto,M4M 2G3,E,6350054,181,Broadview Ave,181 Broadview Ave,former Toronto,Queen Alexandra Middle School,115001,1143632,181,None,,None,44,315,"{'type': 'MultiPoint', 'coordinates': [[-79.3500911323149, 43.6616429603441]]}"
316,316,Churchill Public School,188 Churchill Avenue,North York,M2N 1Z5,E,499519,188,Churchill Ave,188 Churchill Ave,North York,Churchill Public School,115001,438811,188,None,,None,3167,316,"{'type': 'MultiPoint', 'coordinates': [[-79.4270361642829, 43.7707536046539]]}"
317,317,Gledhill Junior Public School,2 Gledhill Avenue,Toronto,M4C 5K6,E,10080042,2,Gledhill Ave,2 Gledhill Ave,East York,"Gledhill Junior Public School, Terry Fox Recreation Centre",115001,10080038,2,None,,None,159,317,"{'type': 'MultiPoint', 'coordinates': [[-79.3092864659493, 43.6875483306854]]}"
318,318,Keelesdale Junior Public School,200 Bicknell Avenue,York,M6M 4G9,E,52633,200,Bicknell Ave,200 Bicknell Ave,York,Keelesdale Junior Public School,115001,8519,200,None,,None,450,318,"{'type': 'MultiPoint', 'coordinates': [[-79.4769463100751, 43.6869571004579]]}"
319,319,Amesbury Middle School,201 Gracefield Avenue,North York,M6L 1L7,E,10035747,201,Gracefield Ave,201 Gracefield Ave,North York,Amesbury Middle School,115001,10035736,201,None,,None,5729,319,"{'type': 'MultiPoint', 'coordinates': [[-79.4932822327979, 43.7084286282992]]}"
320,320,Swansea Junior and Senior Public School,207 Windermere Avenue,Toronto,M6S 3J9,E,7635396,207,Windermere Ave,207 Windermere Ave,former Toronto,Swansea Public School,115001,7632578,207,None,,None,960,320,"{'type': 'MultiPoint', 'coordinates': [[-79.4770427530375, 43.6436792914692]]}"
321,321,Parkdale Collegiate Institute,209 Jameson Avenue,Toronto,M6K 2Y3,S,8168404,209,Jameson Ave,209 Jameson Ave,former Toronto,Parkdale Collegiate Institute,115001,8168402,209,None,,None,3740,321,"{'type': 'MultiPoint', 'coordinates': [[-79.4360685050841, 43.6396575139163]]}"
322,322,Blake Street Junior Public School,21 Boultbee Avenue,Toronto,M4J 1A7,E,774626,21,Boultbee Ave,21 Boultbee Ave,former Toronto,Blake Street Public School,115001,1141613,21,None,,None,3038,322,"{'type': 'MultiPoint', 'coordinates': [[-79.3384762500832, 43.6718063689636]]}"
323,323,East Alternative School of Toronto,21 Boultbee Avenue,Toronto,M4J 1A7,E,774626,21,Boultbee Ave,21 Boultbee Ave,former Toronto,Blake Street Public School,115001,1141613,21,None,,None,3038,323,"{'type': 'MultiPoint', 'coordinates': [[-79.3384762500832, 43.6718063689636]]}"
324,324,Cedar Drive Junior Public School,21 Gatesview Avenue,Scarborough,M1J 3G4,E,337054,21,Gatesview Ave,21 Gatesview Ave,Scarborough,Cedar Drive Junior Public School,115001,110162,21,None,,None,7957,324,"{'type': 'MultiPoint', 'coordinates': [[-79.215050939271, 43.7458528095017]]}"
325,325,Samuel Hearne Middle School,21 Newport Avenue,Scarborough,M1L 4N7,E,5386857,21,Newport Ave,21 Newport Ave,Scarborough,Samuel Hearne Senior Public School,115001,112878,21,None,,None,8586,325,"{'type': 'MultiPoint', 'coordinates': [[-79.2834799574648, 43.6950056241564]]}"
326,326,Cameron Public School,211 Cameron Avenue,North York,M2N 1E8,E,495911,211,Cameron Ave,211 Cameron Ave,North York,Cameron Public School,115001,440741,211,None,,None,484,326,"{'type': 'MultiPoint', 'coordinates': [[-79.421251554251, 43.7543606984639]]}"
327,327,Highview Public School,22 Highview Avenue,North York,M3M 1C4,E,2119836,22,Highview Ave,22 Highview Ave,North York,Highview Public School,115001,14610668,22,None,,None,5835,327,"{'type': 'MultiPoint', 'coordinates': [[-79.4972302699958, 43.7219510502744]]}"
328,328,Fairglen Junior Public School,2200 Pharmacy Avenue,Agincourt,M1W 1H8,E,373577,2200,Pharmacy Ave,2200 Pharmacy Ave,Scarborough,Fairglen Junior Public School,115001,106776,2200,None,,None,8691,328,"{'type': 'MultiPoint', 'coordinates': [[-79.3222381903671, 43.7849363770968]]}"
329,329,Eglinton Junior Public School,223 Eglinton Avenue East,Toronto,M4P 1L1,E,800621,223,Eglinton Ave E,223 Eglinton Ave E,former Toronto,Eglinton Junior Public School,115001,1138255,223,None,,None,125,329,"{'type': 'MultiPoint', 'coordinates': [[-79.3908468303168, 43.7079037464755]]}"
330,330,Winston Churchill Collegiate Institute,2239 Lawrence Avenue East,Scarborough,M1P 2P7,S,6436450,2239,Lawrence Ave E,2239 Lawrence Ave E,Scarborough,Winston Churchill Collegiate Institute,115001,6436449,2239,None,,None,3828,330,"{'type': 'MultiPoint', 'coordinates': [[-79.2783774186933, 43.7480914839731]]}"
331,331,Garden Avenue Junior Public School,225 Garden Avenue,Toronto,M6R 1M9,E,807559,225,Garden Ave,225 Garden Ave,former Toronto,Garden Avenue Public School,115001,14017612,225,None,,None,9807,331,"{'type': 'MultiPoint', 'coordinates': [[-79.4491237018998, 43.6432001067781]]}"
332,332,R J Lang Elementary and Middle School,227 Drewry Avenue,North York,M2M 1E3,E,7274066,227,Drewry Ave,227 Drewry Ave,North York,R. J. Lang Elementary and Middle School,115001,437473,227,None,,None,5435,332,"{'type': 'MultiPoint', 'coordinates': [[-79.4265104765386, 43.7834853825344]]}"
333,333,Dovercourt Public School,228 Bartlett Avenue,Toronto,M6H 3G4,E,6619920,228,Bartlett Ave,228 Bartlett Ave,former Toronto,Dovercourt Public School,115001,14234587,228,None,,None,2952,333,"{'type': 'MultiPoint', 'coordinates': [[-79.4357789540645, 43.666735610558]]}"
334,334,Deer Park Junior and Senior Public School,23 Ferndale Avenue,Toronto,M4T 2B4,E,4070042,23,Ferndale Ave,23 Ferndale Ave,former Toronto,Deer Park Junior & Senior Public School,115001,14024601,23,None,,None,3435,334,"{'type': 'MultiPoint', 'coordinates': [[-79.3915563848553, 43.689651951117]]}"
335,335,Sir John A Macdonald Collegiate Institute,2300 Pharmacy Avenue,Agincourt,M1W 1H8,S,373578,2300,Pharmacy Ave,2300 Pharmacy Ave,Scarborough,Sir John A Macdonald C.I.,115001,106693,2300,None,,None,8691,335,"{'type': 'MultiPoint', 'coordinates': [[-79.3236705089564, 43.7870773578969]]}"
336,336,Rawlinson Community School,231 Glenholme Avenue,York,M6E 3C7,E,60867,231,Glenholme Ave,231 Glenholme Ave,York,Rawlinson Community School,115001,8735,231,None,,None,615,336,"{'type': 'MultiPoint', 'coordinates': [[-79.4400434190871, 43.6839770688827]]}"
337,337,Greenwood Secondary School,800 Greenwood Ave,Toronto,M4J 4B7,S,6624393,800,Greenwood Ave,800 Greenwood Ave,former Toronto,Danforth Collegiate & T.I.,115001,6620281,800,None,,None,181,337,"{'type': 'MultiPoint', 'coordinates': [[-79.3340895606897, 43.6828387343202]]}"
338,338,School of Life Experience,1 Hanson Street,Toronto,M4J 1G6,S,2565760,1,Hanson St,1 Hanson St,former Toronto,Monarch Park Collegiate,115001,2565761,1,None,,None,3604,338,"{'type': 'MultiPoint', 'coordinates': [[-79.3227718925618, 43.6792807307855]]}"
339,339,John Wanless Junior Public School,245 Fairlawn Avenue,Toronto,M5M 1T2,E,13503695,245,Fairlawn Ave,245 Fairlawn Ave,former Toronto,John Wanless Junior Public School,115001,1137725,245,None,,None,3421,339,"{'type': 'MultiPoint', 'coordinates': [[-79.4120566947699, 43.7288686420148]]}"
340,340,Hillmount Public School,245 McNicoll Avenue,North York,M2H 2C6,E,542014,245,McNicoll Ave,245 McNicoll Ave,North York,Hillmount Public School,115001,436436,245,None,,None,6195,340,"{'type': 'MultiPoint', 'coordinates': [[-79.3507265117258, 43.7994075938642]]}"
341,341,Withrow Avenue Junior Public School,25 Bain Avenue,Toronto,M4K 1E5,E,765985,25,Bain Ave,25 Bain Ave,former Toronto,Withrow Public School,115001,14673415,25,None,,None,2934,341,"{'type': 'MultiPoint', 'coordinates': [[-79.3521296600971, 43.670460460892]]}"
342,342,Quest Alternative Senior School,25 Bain Avenue,Toronto,M4K 1E5,E,765985,25,Bain Ave,25 Bain Ave,former Toronto,Withrow Public School,115001,14673415,25,None,,None,2934,342,"{'type': 'MultiPoint', 'coordinates': [[-79.3521296600971, 43.670460460892]]}"
343,343,Blaydon Public School,25 Blaydon Avenue,North York,M3M 2C9,E,490361,25,Blaydon Ave,25 Blaydon Ave,North York,Blaydon Public School,115001,30085278,25,None,,None,4974,343,"{'type': 'MultiPoint', 'coordinates': [[-79.4862561391138, 43.735357222836]]}"
344,344,Knob Hill Public School,25 Seminole Avenue,Scarborough,M1J 1M8,E,384283,25,Seminole Ave,25 Seminole Ave,Scarborough,Knob Hill Junior Public School,115001,110291,25,None,,None,8917,344,"{'type': 'MultiPoint', 'coordinates': [[-79.2497850291991, 43.7452922846894]]}"
345,345,Presteign Heights Elementary School,2570 St Clair Avenue East,East York,M4B 1M3,E,34673,2570,St Clair Ave E,2570 St Clair Ave E,East York,Presteign Heights Elementary School,115001,656,2570,None,,None,339,345,"{'type': 'MultiPoint', 'coordinates': [[-79.3171939752515, 43.7055433445086]]}"
346,346,North Albion Collegiate Institute,2580 Kipling Avenue,Etobicoke,M9V 3B2,S,3497653,2580,Kipling Ave,2580 Kipling Ave,Etobicoke,North Albion Collegiate Institute,115001,3497654,2580,None,,None,1935,346,"{'type': 'MultiPoint', 'coordinates': [[-79.5851427788123, 43.7471415695057]]}"
347,347,Agincourt Collegiate Institute,2621 Midland Avenue,Agincourt,M1S 1R6,S,3211411,2621,Midland Ave,2621 Midland Ave,Scarborough,Agincourt Collegiate Institute,115001,3216896,2621,None,,None,8496,347,"{'type': 'MultiPoint', 'coordinates': [[-79.2789099586918, 43.7888738444071]]}"
348,348,Driftwood Public School,265 Driftwood Avenue,North York,M3N 2N6,E,509370,265,Driftwood Ave,265 Driftwood Ave,North York,Driftwood Public School,115001,30077880,265,None,,None,5437,348,"{'type': 'MultiPoint', 'coordinates': [[-79.5150042552815, 43.7629711864463]]}"
349,349,York Memorial Collegiate Institute,2690 Eglinton Avenue West,York,M6M 1T9,S,59118,2690,Eglinton Ave W,2690 Eglinton Ave W,York,York Memorial Collegiate Institute,115001,8171,2690,None,,None,571,349,"{'type': 'MultiPoint', 'coordinates': [[-79.4762398021686, 43.6902787238341]]}"
350,350,D A Morrison Middle School,271 Gledhill Avenue,East York,M4C 4L2,E,7754527,271,Gledhill Ave,271 Gledhill Ave,East York,D. A. Morrison Middle School,115001,7754529,271,None,,None,159,350,"{'type': 'MultiPoint', 'coordinates': [[-79.3116924407793, 43.6953964611984]]}"
351,351,David and Mary Thomson Collegiate Institute,2740 Lawrence Avenue East,Scarborough,M1P 2S7,S,7155735,2740,Lawrence Ave E,2740 Lawrence Ave E,Scarborough,None,115001,7155728,2740,None,,None,3828,351,"{'type': 'MultiPoint', 'coordinates': [[-79.2595791300931, 43.7536065622312]]}"
352,352,Finch Public School,277 Finch Avenue East,North York,M2N 4S3,E,9084973,277,Finch Ave E,277 Finch Ave E,North York,Finch Public School,115001,9084975,277,None,,None,5589,352,"{'type': 'MultiPoint', 'coordinates': [[-79.3949742011282, 43.7838330777765]]}"
353,353,Humberside Collegiate Institute,280 Quebec Avenue,Toronto,M6P 2V3,S,7472009,280,Quebec Ave,280 Quebec Ave,former Toronto,Humberside Collegiate Institute,115001,7471991,280,None,,None,4236,353,"{'type': 'MultiPoint', 'coordinates': [[-79.4706428031364, 43.6599427156923]]}"
354,354,Gordon A Brown Middle School,2800 St Clair Avenue East,East York,M4B 1N2,E,6427428,2800,St Clair Ave E,2800 St Clair Ave E,East York,Gordon A. Brown Middle School,115001,6427437,2800,None,,None,339,354,"{'type': 'MultiPoint', 'coordinates': [[-79.3053702914276, 43.707534131345]]}"
355,355,Hodgson Middle School,282 Davisville Avenue,Toronto,M4S 1H2,E,7324242,282,Davisville Ave,282 Davisville Ave,former Toronto,Hodgson Middle School,115001,7324227,282,None,,None,3271,355,"{'type': 'MultiPoint', 'coordinates': [[-79.3847932929072, 43.7010950019854]]}"
356,356,Charles H Best Junior Middle School,285 Wilmington Avenue,North York,M3H 5K8,E,575920,285,Wilmington Ave,285 Wilmington Ave,North York,Charles H Best Middle School,115001,439329,285,None,,None,7095,356,"{'type': 'MultiPoint', 'coordinates': [[-79.4586302368016, 43.7674452465892]]}"
357,357,Pleasant Public School,288 Pleasant Avenue,North York,M2R 2R1,E,30076180,288,Pleasant Ave,288 Pleasant Ave,North York,None,115001,437127,288,None,,None,6445,357,"{'type': 'MultiPoint', 'coordinates': [[-79.4345576870743, 43.7899554182757]]}"
358,358,Agincourt Junior Public School,29 Lockie Avenue,Agincourt,M1S 1N3,E,356507,29,Lockie Ave,29 Lockie Ave,Scarborough,Agincourt Junior Public School,115001,106335,29,None,,None,8352,358,"{'type': 'MultiPoint', 'coordinates': [[-79.2811623057309, 43.7882592158345]]}"
359,359,Blantyre Public School,290 Blantyre Avenue,Scarborough,M1N 2S4,E,309574,290,Blantyre Ave,290 Blantyre Ave,Scarborough,Blantyre Public School,115001,113172,290,None,,None,7377,359,"{'type': 'MultiPoint', 'coordinates': [[-79.2838646531108, 43.6851000843951]]}"
360,360,West Hill Public School,299 Morningside Avenue,West Hill,M1E 3G1,E,7017603,299,Morningside Ave,299 Morningside Ave,Scarborough,West Hill Public School,115001,7017604,299,None,,None,4015,360,"{'type': 'MultiPoint', 'coordinates': [[-79.1868844429518, 43.7726796050533]]}"
361,361,Corvette Junior Public School,30 Corvette Avenue,Scarborough,M1K 3G2,E,323066,30,Corvette Ave,30 Corvette Ave,Scarborough,Corvette Junior Public School,115001,111593,30,None,,None,7657,361,"{'type': 'MultiPoint', 'coordinates': [[-79.2621597253873, 43.726485113649]]}"
362,362,General Mercer Junior Public School,30 Turnberry Avenue,Toronto,M6N 1P8,E,877576,30,Turnberry Ave,30 Turnberry Ave,former Toronto,General Mercer Junior Public School,115001,1140783,30,None,,None,4576,362,"{'type': 'MultiPoint', 'coordinates': [[-79.4640229792623, 43.6789306711569]]}"
363,363,Silverthorn Community School,300 Kane Avenue,York,M6M 3P1,E,64913,300,Kane Ave,300 Kane Ave,York,Kane Middle Public School,115001,8438,300,None,,None,702,363,"{'type': 'MultiPoint', 'coordinates': [[-79.4694151111639, 43.6872494240615]]}"
364,364,Montrose Junior Public School,301 Montrose Avenue,Toronto,M6G 3G9,E,844204,301,Montrose Ave,301 Montrose Ave,former Toronto,Montrose Public School,115001,1144176,301,None,,None,4013,364,"{'type': 'MultiPoint', 'coordinates': [[-79.4188437208257, 43.6586815852248]]}"
365,365,Delta Alternative Senior School,301 Montrose Avenue,Toronto,M6G 3G9,E,844204,301,Montrose Ave,301 Montrose Ave,former Toronto,Montrose Public School,115001,1144176,301,None,,None,4013,365,"{'type': 'MultiPoint', 'coordinates': [[-79.4188437208257, 43.6586815852248]]}"
366,366,Subway Academy II,64 Baldwin Street,Toronto,M5T 1L4,S,6350055,64,Baldwin St,64 Baldwin St,former Toronto,Beverley Public School,115001,1144586,64,None,,None,2938,366,"{'type': 'MultiPoint', 'coordinates': [[-79.3957051033565, 43.6557652368658]]}"
367,367,Wilmington Elementary School,330 Wilmington Avenue,North York,M3H 5L1,E,575941,330,Wilmington Ave,330 Wilmington Ave,North York,Wilmington Elementary School,115001,439170,330,None,,None,7095,367,"{'type': 'MultiPoint', 'coordinates': [[-79.4604980247184, 43.7685583806317]]}"
368,368,McKee Public School,35 Church Avenue,North York,M2N 6X6,E,13973429,35,Church Ave,35 Church Ave,North York,McKee Public School,115001,438374,35,None,,None,5197,368,"{'type': 'MultiPoint', 'coordinates': [[-79.411056249547, 43.7741078589817]]}"
369,369,Sunnylea Junior School,35 Glenroy Avenue,Etobicoke,M8Y 2M2,E,6807238,35,Glenroy Ave,35 Glenroy Ave,Etobicoke,Sunnylea Junior Public School,115001,6807239,35,None,,None,1682,369,"{'type': 'MultiPoint', 'coordinates': [[-79.5068732423943, 43.6424439892717]]}"
370,370,Lakeshore Collegiate Institute,350 Kipling Avenue,Etobicoke,M8V 3L1,S,1011402,350,Kipling Ave,350 Kipling Ave,Etobicoke,Lakeshore Collegiate Institute,115001,914446,350,None,,None,1935,370,"{'type': 'MultiPoint', 'coordinates': [[-79.5191606370668, 43.6015634242313]]}"
371,371,West Hill Collegiate Institute,350 Morningside Avenue,West Hill,M1E 3G3,S,365513,350,Morningside Ave,350 Morningside Ave,Scarborough,West Hill Collegiate Institute,115001,107532,350,None,,None,4015,371,"{'type': 'MultiPoint', 'coordinates': [[-79.1905875661913, 43.7756684257862]]}"
372,372,Hollywood Public School,360 Hollywood Avenue,North York,M2N 3L4,E,528255,360,Hollywood Ave,360 Hollywood Ave,North York,Hollywood Public School,115001,438817,360,None,,None,5854,372,"{'type': 'MultiPoint', 'coordinates': [[-79.3918291306292, 43.7705185087478]]}"
373,373,Birchmount Park Collegiate Institute,3663 Danforth Avenue,Scarborough,M1N 2G2,S,325504,3663,Danforth Ave,3663 Danforth Ave,Scarborough,Birchmount Park Collegiate Institute,115001,112815,3663,None,,None,86,373,"{'type': 'MultiPoint', 'coordinates': [[-79.2594545253619, 43.697753029491]]}"
374,374,Ossington/Old Orchard Junior Public School,380 Ossington Avenue,Toronto,M6J 3A5,E,9486678,380,Ossington Ave,380 Ossington Ave,former Toronto,Ossington/Old Orchard Public School,115001,14019831,380,None,,None,4125,374,"{'type': 'MultiPoint', 'coordinates': [[-79.4225997592765, 43.6527076700775]]}"
375,375,R H King Academy,3800 St Clair Avenue East,Scarborough,M1M 1V3,S,388308,3800,St Clair Ave E,3800 St Clair Ave E,Scarborough,R. H. King Academy,115001,111762,3800,None,,None,339,375,"{'type': 'MultiPoint', 'coordinates': [[-79.2374500349757, 43.7226223410982]]}"
376,376,Allenby Junior Public School,391 St Clements Avenue,Toronto,M5N 1M2,E,873148,391,St Clements Ave,391 St Clements Ave,former Toronto,Allenby Junior Public School,115001,1138238,391,None,,None,4446,376,"{'type': 'MultiPoint', 'coordinates': [[-79.4127877318278, 43.7094356428595]]}"
377,377,John Fisher Junior Public School,40 Erskine Avenue,Toronto,M4P 1Y2,E,11541855,40,Erskine Ave,40 Erskine Ave,former Toronto,John Fisher Public School,115001,11541837,40,None,,None,3407,377,"{'type': 'MultiPoint', 'coordinates': [[-79.3974693799724, 43.7119282510654]]}"
378,378,Parkside Elementary School,401 Cedarvale Avenue,East York,M4C 4K7,E,6427685,401,Cedarvale Ave,401 Cedarvale Ave,East York,Parkside Elementary School - Building Grounds,115001,30118988,401,None,,None,58,378,"{'type': 'MultiPoint', 'coordinates': [[-79.3163183865433, 43.6994434678363]]}"
379,379,West Rouge Junior Public School,401 Friendship Avenue,West Hill,M1C 2X8,E,336198,401,Friendship Ave,401 Friendship Ave,Scarborough,West Rouge Junior Public School,115001,105359,401,None,,None,7933,379,"{'type': 'MultiPoint', 'coordinates': [[-79.1337159199136, 43.7956184194221]]}"
380,380,Glenview Senior Public School,401 Rosewell Avenue,Toronto,M4R 2B5,E,862164,401,Rosewell Ave,401 Rosewell Ave,former Toronto,Glenview Senior Public School,115001,14662186,401,None,,None,4323,380,"{'type': 'MultiPoint', 'coordinates': [[-79.409524700301, 43.7199764434722]]}"
381,381,Pape Avenue Junior Public School,220 Langley Avenue,Toronto,M4K 1B9,E,14615167,220,Langley Ave,220 Langley Ave,former Toronto,Pape Avenue Junior Public School,115001,14022329,220,None,,None,3812,381,"{'type': 'MultiPoint', 'coordinates': [[-79.3418936177203, 43.670351887554]]}"
382,382,Fisherville Senior Public School,425 Patricia Avenue,North York,M2R 2N1,E,30055925,425,Patricia Ave,425 Patricia Ave,North York,None,115001,7156908,425,None,,None,6386,382,"{'type': 'MultiPoint', 'coordinates': [[-79.4411616324684, 43.784556440757]]}"
383,383,Islington Junior Middle School,44 Cordova Avenue,Etobicoke,M9A 2H5,E,994430,44,Cordova Ave,44 Cordova Ave,Etobicoke,Islington Junior Middle Public School,115001,911431,44,None,,None,1386,383,"{'type': 'MultiPoint', 'coordinates': [[-79.5279466910799, 43.6474828161727]]}"
384,384,Hillcrest Community School,44 Hilton Avenue,Toronto,M5R 3E6,E,821864,44,Hilton Ave,44 Hilton Ave,former Toronto,Hillcrest Community School,115001,1140608,44,None,,None,3683,384,"{'type': 'MultiPoint', 'coordinates': [[-79.4158447800033, 43.6790424542588]]}"
385,385,William J McCordic School,45 Balfour Avenue,Toronto,M4C 1T4,E,766354,45,Balfour Ave,45 Balfour Ave,former Toronto,William J. McCordic School,115001,14016715,45,None,,None,2939,385,"{'type': 'MultiPoint', 'coordinates': [[-79.2989833380474, 43.6906318395424]]}"
386,386,Walter Perry Junior Public School,45 Falmouth Avenue,Scarborough,M1K 4M7,E,333402,45,Falmouth Ave,45 Falmouth Ave,Scarborough,Walter Perry Junior Public School,115001,111243,45,None,,None,7876,386,"{'type': 'MultiPoint', 'coordinates': [[-79.2512456866976, 43.7334561275574]]}"
387,387,Lanor Junior Middle School,450 Lanor Avenue,Etobicoke,M8W 2S1,E,7641687,450,Lanor Ave,450 Lanor Ave,Etobicoke,Lanor Junior Middle School,115001,7641688,450,None,,None,1972,387,"{'type': 'MultiPoint', 'coordinates': [[-79.5447921850042, 43.6095014861413]]}"
388,388,John A Leslie Public School,459 Midland Avenue,Scarborough,M1N 4A7,E,363191,459,Midland Ave,459 Midland Ave,Scarborough,John A. Leslie Public School,115001,112075,459,None,,None,8496,388,"{'type': 'MultiPoint', 'coordinates': [[-79.2490593761566, 43.7141086801971]]}"
389,389,Clinton Street Junior Public School,460 Manning Avenue,Toronto,M6G 2V7,E,837356,460,Manning Ave,460 Manning Ave,former Toronto,Clinton Street Public School,115001,14019934,460,None,,None,3909,389,"{'type': 'MultiPoint', 'coordinates': [[-79.4140575735688, 43.6576460735345]]}"
390,390,West Glen Junior School,47 Cowley Avenue,Etobicoke,M9B 2E4,E,994747,47,Cowley Ave,47 Cowley Ave,Etobicoke,West Glen Public School,115001,911193,47,None,,None,1400,390,"{'type': 'MultiPoint', 'coordinates': [[-79.5608016240727, 43.6504713423926]]}"
391,391,Wedgewood Junior School,5 Swan Avenue,Etobicoke,M9B 1V1,E,9531172,5,Swan Ave,5 Swan Ave,Etobicoke,Wedgewood Junior Public School,115001,9531166,5,None,,None,2565,391,"{'type': 'MultiPoint', 'coordinates': [[-79.5462529112722, 43.6453169519903]]}"
392,392,John Polanyi Collegiate Institute,"640 Lawrence Avenue West, 1st Floor",North York,M6A 1B1,S,9234641,640,Lawrence Ave W,640 Lawrence Ave W,North York,Bathurst Heights Secondary School,115001,9234642,640,None,,None,732,392,"{'type': 'MultiPoint', 'coordinates': [[-79.439855309525, 43.7178089516362]]}"
393,393,Claude Watson School for the Arts,130 Doris Avenue,North York,M2N 0A8,E,20097586,130,Doris Ave,130 Doris Ave,North York,Watson School for the Performing Arts,115001,30053442,130,None,,None,5419,393,"{'type': 'MultiPoint', 'coordinates': [[-79.4093736661307, 43.7657254741228]]}"
394,394,Kimberley Junior Public School,50 Swanwick Avenue,Toronto,M4E 2Z5,E,876040,50,Swanwick Ave,50 Swanwick Ave,former Toronto,Kimberly Public School Junior,115001,14016131,50,None,,None,4519,394,"{'type': 'MultiPoint', 'coordinates': [[-79.2991278839731, 43.6826199722785]]}"
395,395,Beaches Alternative Junior School,50 Swanwick Avenue,Toronto,M4E 2Z5,E,876040,50,Swanwick Ave,50 Swanwick Ave,former Toronto,Kimberly Public School Junior,115001,14016131,50,None,,None,4519,395,"{'type': 'MultiPoint', 'coordinates': [[-79.2991278839731, 43.6826199722785]]}"
396,396,Frank Oke Secondary School,500 Alliance Avenue,York,M6N 2H8,S,50146,500,Alliance Ave,500 Alliance Ave,York,Frank Oke Secondary School - Building Grounds,115001,9096,500,None,,None,407,396,"{'type': 'MultiPoint', 'coordinates': [[-79.4887542282147, 43.677512419216]]}"
397,397,Lester B Pearson Elementary School,7 Snowcrest Avenue,North York,M2K 2K5,E,9487216,7,Snowcrest Ave,7 Snowcrest Ave,North York,Lester B. Pearson Elementary School,115001,9487214,7,None,,None,6738,397,"{'type': 'MultiPoint', 'coordinates': [[-79.3874623162842, 43.7923194425359]]}"
398,398,Bruce Public School,51 Larchmount Avenue,Toronto,M4M 2Y6,E,8392356,51,Larchmount Ave,51 Larchmount Ave,former Toronto,Bruce Junior Public School,115001,14037200,51,None,,None,3817,398,"{'type': 'MultiPoint', 'coordinates': [[-79.3333360558731, 43.6610358159785]]}"
399,399,Cosburn Middle School,520 Cosburn Avenue,East York,M4J 2P1,E,7794470,520,Cosburn Ave,520 Cosburn Ave,East York,Cosburn Middle School,115001,7794467,520,None,,None,70,399,"{'type': 'MultiPoint', 'coordinates': [[-79.3307746357026, 43.6940723030924]]}"
400,400,Wilkinson Junior Public School,53 Donlands Avenue,Toronto,M4J 3N7,E,7807349,53,Donlands Ave,53 Donlands Ave,former Toronto,Wilkinson Public School,115001,7807301,53,None,,None,109,400,"{'type': 'MultiPoint', 'coordinates': [[-79.3374832389852, 43.6820416289563]]}"
401,401,Sir Oliver Mowat Collegiate Institute,5400 Lawrence Avenue East,West Hill,M1C 2C6,S,13497749,5400,Lawrence Ave E,5400 Lawrence Ave E,Scarborough,Sir Oliver Mowat Collegiate Institute,115001,13226450,5400,None,,None,3828,401,"{'type': 'MultiPoint', 'coordinates': [[-79.1422383222644, 43.7793019336713]]}"
402,402,Sir Adam Beck Junior School,544 Horner Avenue,Etobicoke,M8W 2C2,E,6735862,544,Horner Ave,544 Horner Ave,Etobicoke,Sir Adam Beck Junior Public School,115001,6735853,544,None,,None,1823,402,"{'type': 'MultiPoint', 'coordinates': [[-79.5482756661428, 43.6017812323731]]}"
403,403,Norway Junior Public School,390 Kingston Road,Toronto,M4L 1T9,E,14198771,390,Kingston Rd,390 Kingston Rd,former Toronto,Norway Public School,115001,1140851,390,None,,None,3786,403,"{'type': 'MultiPoint', 'coordinates': [[-79.3066687042731, 43.676279047019]]}"
404,404,Malvern Collegiate Institute,55 Malvern Avenue,Toronto,M4E 3E4,S,836897,55,Malvern Ave,55 Malvern Ave,former Toronto,Malvern Collegiate Institute,115001,1139888,55,None,,None,3904,404,"{'type': 'MultiPoint', 'coordinates': [[-79.2929363196488, 43.6829141496984]]}"
405,405,Earl Beatty Junior and Senior Public School,55 Woodington Avenue,Toronto,M4C 3J6,E,6624483,55,Woodington Ave,55 Woodington Ave,former Toronto,Earl Beatty Public School,115001,6624492,55,None,,None,395,405,"{'type': 'MultiPoint', 'coordinates': [[-79.3213456307331, 43.6860684583807]]}"
406,406,Northview Heights Secondary School,550 Finch Avenue West,North York,M2R 1N6,S,30030280,550,Finch Ave W,550 Finch Ave W,North York,Northview Heights Secondary School,115001,20092034,550,None,,None,1610,406,"{'type': 'MultiPoint', 'coordinates': [[-79.4461177069985, 43.7738827738809]]}"
407,407,Fairbank Memorial Community School,555 Harvie Avenue,York,M6E 4M2,E,62504,555,Harvie Ave,555 Harvie Ave,York,Fairbank Memorial Community School - Building Grounds,115001,8067,555,None,,None,648,407,"{'type': 'MultiPoint', 'coordinates': [[-79.4554057013447, 43.6917032417799]]}"
408,408,R H McGregor Elementary School,555 Mortimer Avenue,East York,M4J 2G9,E,29703,555,Mortimer Ave,555 Mortimer Ave,East York,R. H. Mcgregor Public School,115001,1600,555,None,,None,259,408,"{'type': 'MultiPoint', 'coordinates': [[-79.3271357421257, 43.6899952579101]]}"
409,409,Regent Heights Public School,555 Pharmacy Avenue,Scarborough,M1L 3H1,E,372953,555,Pharmacy Ave,555 Pharmacy Ave,Scarborough,Regent Heights Junior Public School,115001,112465,555,None,,None,8691,409,"{'type': 'MultiPoint', 'coordinates': [[-79.2891326348503, 43.7070156248448]]}"
410,410,Bala Avenue Community School,6 Bala Avenue,York,M6M 2E1,E,9848255,6,Bala Ave,6 Bala Ave,York,Bala Avenue School,115001,9848256,6,None,,None,428,410,"{'type': 'MultiPoint', 'coordinates': [[-79.4990122716087, 43.6894622237887]]}"
411,411,Humber Summit Middle School,60 Pearldale Avenue,North York,M9L 2G9,E,10392311,60,Pearldale Ave,60 Pearldale Ave,North York,Humber Summit Middle School,115001,10392312,60,None,,None,6399,411,"{'type': 'MultiPoint', 'coordinates': [[-79.564522188693, 43.7505647535485]]}"
412,412,Donwood Park Public School,61 Dorcot Avenue,Scarborough,M1P 3K5,E,328292,61,Dorcot Ave,61 Dorcot Ave,Scarborough,Donwood Park Public School,115001,109362,61,None,,None,7764,412,"{'type': 'MultiPoint', 'coordinates': [[-79.2623651149549, 43.7569783122163]]}"
413,413,Taylor Creek Public School,644 Warden Avenue,Scarborough,M1L 3Z3,E,395722,644,Warden Ave,644 Warden Ave,Scarborough,Warden Avenue Junior Public School,115001,20353596,644,None,,None,9187,413,"{'type': 'MultiPoint', 'coordinates': [[-79.2772877434307, 43.7000377584633]]}"
414,414,Dewson Street Junior Public School,65 Concord Avenue,Toronto,M6H 2N9,E,6523008,65,Concord Ave,65 Concord Ave,former Toronto,Dewson Street Public School,115001,14018391,65,None,,None,3208,414,"{'type': 'MultiPoint', 'coordinates': [[-79.4240544310152, 43.655675087264]]}"
415,415,Topcliff Public School,65 Topcliff Avenue,North York,M3N 1L6,E,7415223,65,Topcliff Ave,65 Topcliff Ave,North York,Topcliff Public School,115001,7399132,65,None,,None,6921,415,"{'type': 'MultiPoint', 'coordinates': [[-79.5106588918435, 43.7555851004459]]}"
416,416,East York Collegiate Institute,650 Cosburn Avenue,East York,M4C 2V2,S,7794431,650,Cosburn Ave,650 Cosburn Ave,East York,East York Collegiate Institute,115001,7794416,650,None,,None,70,416,"{'type': 'MultiPoint', 'coordinates': [[-79.3275764481259, 43.6949906148821]]}"
417,417,East York Alternative Secondary School,670 Cosburn Avenue,East York,M4C 2V2,S,7846533,670,Cosburn Ave,670 Cosburn Ave,East York,Alternative High School Programme,115001,7846484,670,None,,None,70,417,"{'type': 'MultiPoint', 'coordinates': [[-79.3252956395229, 43.6949913553145]]}"
418,418,George Syme Community School,69 Pritchard Avenue,York,M6N 1T6,E,9523611,69,Pritchard Ave,69 Pritchard Ave,York,George Syme Catholic School - Building Grounds,115001,9523610,69,None,,None,825,418,"{'type': 'MultiPoint', 'coordinates': [[-79.491126770757, 43.6692513829928]]}"
419,419,Drewry Secondary School,70 Drewry Avenue,North York,M2M 1C8,S,7273971,70,Drewry Ave,70 Drewry Ave,North York,Drewry Secondary School,115001,14128642,70,None,,None,5435,419,"{'type': 'MultiPoint', 'coordinates': [[-79.421213687216, 43.7869814732506]]}"
420,420,Cummer Valley Middle School,70 Maxome Avenue,North York,M2M 3K1,E,541058,70,Maxome Ave,70 Maxome Ave,North York,Cummer Valley Middle School,115001,437113,70,None,,None,6183,420,"{'type': 'MultiPoint', 'coordinates': [[-79.4012761021226, 43.7882319564093]]}"
421,421,North Toronto Collegiate Institute,17 Broadway Ave,Toronto,M4P 1T7,S,20097962,17,Broadway Ave,17 Broadway Ave,former Toronto,None,115001,7632816,17,None,,None,45,421,"{'type': 'MultiPoint', 'coordinates': [[-79.3966000753378, 43.7098067339604]]}"
422,422,Forest Hill Collegiate Institute,730 Eglinton Avenue West,Toronto,M5N 1B9,S,800884,730,Eglinton Ave W,730 Eglinton Ave W,former Toronto,Forest Hill Collegiate Institute,115001,1138689,730,None,,None,571,422,"{'type': 'MultiPoint', 'coordinates': [[-79.4213427841136, 43.7030582555106]]}"
423,423,Palmerston Avenue Junior Public School,734 Palmerston Avenue,Toronto,M6G 2R4,E,6619760,734,Palmerston Ave,734 Palmerston Ave,former Toronto,Palmerston Avenue Public School,115001,6619772,734,None,,None,4142,423,"{'type': 'MultiPoint', 'coordinates': [[-79.4152049534391, 43.6681449064113]]}"
424,424,Parkdale Junior and Senior Public School,78 Seaforth Avenue,Toronto,M6K 3L2,E,10180114,78,Seaforth Ave,78 Seaforth Ave,former Toronto,Parkdale Junior & Senior Public School,115001,10180125,78,None,,None,4372,424,"{'type': 'MultiPoint', 'coordinates': [[-79.4367985750645, 43.6431872870807]]}"
425,425,Jackman Avenue Junior Public School,79 Jackman Avenue,Toronto,M4K 2X5,E,825367,79,Jackman Ave,79 Jackman Ave,former Toronto,Jackman Avenue Junior Public School,115001,1140144,79,None,,None,205,425,"{'type': 'MultiPoint', 'coordinates': [[-79.3539353612732, 43.6806502154921]]}"
426,426,Charles G Fraser Junior Public School,79 Manning Avenue,Toronto,M6J 2K6,E,837099,79,Manning Ave,79 Manning Ave,former Toronto,Charles G Fraser Public School,115001,14018080,79,None,,None,3909,426,"{'type': 'MultiPoint', 'coordinates': [[-79.4094836303214, 43.6485300830641]]}"
427,427,Oriole Park Junior Public School,80 Braemar Avenue,Toronto,M5P 2L4,E,7323683,80,Braemar Ave,80 Braemar Ave,former Toronto,Oriole Park Junior Public School,115001,7323668,80,None,,None,3050,427,"{'type': 'MultiPoint', 'coordinates': [[-79.4096932774579, 43.7025715516779]]}"
428,428,Heritage Park Public School,80 Old Finch Avenue,Scarborough,M1B 5J2,E,9246459,80,Old Finch Ave,80 Old Finch Ave,Scarborough,Heritage Park Public School,115001,30074026,80,None,,None,10252,428,"{'type': 'MultiPoint', 'coordinates': [[-79.207720158593, 43.8213508850921]]}"
429,429,Heather Heights Junior Public School,80 Slan Avenue,Scarborough,M1G 3B5,E,386802,80,Slan Ave,80 Slan Ave,Scarborough,Heather Heights Junior Public School,115001,107600,80,None,,None,8966,429,"{'type': 'MultiPoint', 'coordinates': [[-79.2150687264433, 43.7751558784252]]}"
430,430,Danforth Collegiate and Technical Institute,800 Greenwood Avenue,Toronto,M4J 4B7,S,6624393,800,Greenwood Ave,800 Greenwood Ave,former Toronto,Danforth Collegiate & T.I.,115001,6620281,800,None,,None,181,430,"{'type': 'MultiPoint', 'coordinates': [[-79.3340895606897, 43.6828387343202]]}"
431,431,Bedford Park Public School,81 Ranleigh Avenue,Toronto,M4N 1X2,E,7792874,81,Ranleigh Ave,81 Ranleigh Ave,former Toronto,Bedford Park Community Centre - Building Grounds,115001,7792835,81,None,,None,4253,431,"{'type': 'MultiPoint', 'coordinates': [[-79.4002783723743, 43.7277982581742]]}"
432,432,Frankland Community School,816 Logan Avenue,Toronto,M4K 3E1,E,7570431,816,Logan Ave,816 Logan Ave,former Toronto,"Frankland Community School, Frankland Community Centre",115001,14021507,816,None,,None,228,432,"{'type': 'MultiPoint', 'coordinates': [[-79.3496800848427, 43.6771506675787]]}"
433,433,Cottingham Junior Public School,85 Birch Avenue,Toronto,M4V 1E3,E,772190,85,Birch Ave,85 Birch Ave,former Toronto,Cottingham Junior Public School,115001,20045802,85,None,,None,3007,433,"{'type': 'MultiPoint', 'coordinates': [[-79.3956090079305, 43.6803794372321]]}"
434,434,John English Junior Middle School,95 Mimico Avenue,Etobicoke,M8V 1R4,E,7561025,95,Mimico Ave,95 Mimico Ave,Etobicoke,John English Junior Middle School,115001,7561026,95,None,,None,2119,434,"{'type': 'MultiPoint', 'coordinates': [[-79.4944180034274, 43.6118557338467]]}"
435,435,Ryerson Community School,96 Denison Avenue,Toronto,M5T 1E4,E,10560819,96,Denison Ave,96 Denison Ave,former Toronto,Ryerson Community School Jr. & Sr.,115001,10560820,96,None,,None,3287,435,"{'type': 'MultiPoint', 'coordinates': [[-79.4023797268448, 43.6512817054496]]}"
436,436,Keele Street Public School,99 Mountview Avenue,Toronto,M6P 2L5,E,8004943,99,Mountview Ave,99 Mountview Ave,former Toronto,Keele Street Public School,115001,8004908,99,None,,None,4028,436,"{'type': 'MultiPoint', 'coordinates': [[-79.4615965745208, 43.6575074742763]]}"
437,437,Mountview Alternative Junior School,99 Mountview Avenue,Toronto,M6P 2L5,E,8004943,99,Mountview Ave,99 Mountview Ave,former Toronto,Keele Street Public School,115001,8004908,99,None,,None,4028,437,"{'type': 'MultiPoint', 'coordinates': [[-79.4615965745208, 43.6575074742763]]}"
438,438,Oakwood Collegiate Institute,991 St Clair Avenue West,Toronto,M6E 1A3,S,12116136,991,St Clair Ave W,991 St Clair Ave W,former Toronto,Oakwood Collegiate Institute,115001,12116129,991,None,,None,890,438,"{'type': 'MultiPoint', 'coordinates': [[-79.4363790055539, 43.6786558887327]]}"
439,439,Westwood Middle School,994 Carlaw Avenue,East York,M4K 3M6,E,3232918,994,Carlaw Ave,994 Carlaw Ave,East York,Westwood Park,115001,1834,994,None,,None,56,439,"{'type': 'MultiPoint', 'coordinates': [[-79.3509795618846, 43.6864953869061]]}"
440,440,Broadlands Public School,106 Broadlands Boulevard,North York,M3A 1J7,E,492477,106,Broadlands Blvd,106 Broadlands Blvd,North York,Broadlands Public School,115001,441603,106,None,,None,5039,440,"{'type': 'MultiPoint', 'coordinates': [[-79.316462271329, 43.7457277227854]]}"
441,441,Delphi Secondary Alternative School,109 Chartland Boulevard South,Agincourt,M1S 2R7,S,6332543,109,Chartland Blvd S,109 Chartland Blvd S,Scarborough,Chartland Junior Public School,115001,6332527,109,None,,None,7566,441,"{'type': 'MultiPoint', 'coordinates': [[-79.2785043435939, 43.799988726269]]}"
442,442,Chartland Junior Public School,109 Chartland Boulevard South,Agincourt,M1S 2R7,E,6332543,109,Chartland Blvd S,109 Chartland Blvd S,Scarborough,Chartland Junior Public School,115001,6332527,109,None,,None,7566,442,"{'type': 'MultiPoint', 'coordinates': [[-79.2785043435939, 43.799988726269]]}"
443,443,Pineway Public School,110 Pineway Boulevard,North York,M2H 1A8,E,551399,110,Pineway Blvd,110 Pineway Blvd,North York,"Pineway Public School,Pineway Park",115001,30108298,110,None,,None,6436,443,"{'type': 'MultiPoint', 'coordinates': [[-79.3745155238261, 43.7964177776079]]}"
444,444,Owen Public School,111 Owen Boulevard,North York,M2P 1G6,E,548301,111,Owen Blvd,111 Owen Blvd,North York,Owen Public School,115001,441294,111,None,,None,6357,444,"{'type': 'MultiPoint', 'coordinates': [[-79.3925162004247, 43.7490561850855]]}"
445,445,J B Tyrrell Senior Public School,10 Corinthian Boulevard,Agincourt,M1W 1B3,E,322672,10,Corinthian Blvd,10 Corinthian Blvd,Scarborough,J.B. Tyrell Public School,115001,106292,10,None,,None,7651,445,"{'type': 'MultiPoint', 'coordinates': [[-79.3241750662902, 43.7888787686407]]}"
446,446,David Lewis Public School,130 Fundy Bay Boulevard,Agincourt,M1W 3G1,E,3073655,130,Fundy Bay Blvd,130 Fundy Bay Blvd,Scarborough,David Lewis Public School,115001,3065783,130,None,,None,7938,446,"{'type': 'MultiPoint', 'coordinates': [[-79.3178860611438, 43.8091967088078]]}"
447,447,Valley Park Middle School,130 Overlea Boulevard,Don Mills,M3C 1B2,E,10750671,130,Overlea Blvd,130 Overlea Blvd,North York,Valley Park Middle School,115001,10750670,130,None,,None,278,447,"{'type': 'MultiPoint', 'coordinates': [[-79.3358705226236, 43.7104405907514]]}"
448,448,Sir Samuel B Steele Junior Public School,131 Huntsmill Boulevard,Agincourt,M1W 2Y2,E,6261352,131,Huntsmill Blvd,131 Huntsmill Blvd,Scarborough,Sir Samuel B Steele Junior Public School,115001,6261355,131,None,,None,8151,448,"{'type': 'MultiPoint', 'coordinates': [[-79.3275418257916, 43.8070663083017]]}"
449,449,Marc Garneau Collegiate Institute,135 Overlea Boulevard,East York,M3C 1B3,S,10750672,135,Overlea Blvd,135 Overlea Blvd,North York,Marc Garneau Collegiate Institute,115001,10750670,135,None,,None,278,449,"{'type': 'MultiPoint', 'coordinates': [[-79.3349679464078, 43.7089756853719]]}"
450,450,Macklin Public School,136 Ingleton Boulevard,Scarborough,M1V 2Y4,E,347260,136,Ingleton Blvd,136 Ingleton Blvd,Scarborough,Macklin Public School,115001,30058455,136,None,,None,8163,450,"{'type': 'MultiPoint', 'coordinates': [[-79.2674700420568, 43.821788456337]]}"
451,451,Summit Heights Public School,139 Armour Boulevard,North York,M3H 1M1,E,484181,139,Armour Blvd,139 Armour Blvd,North York,Summit Heights Public School,115001,442284,139,None,,None,4827,451,"{'type': 'MultiPoint', 'coordinates': [[-79.4300369383682, 43.7413217746515]]}"
452,452,Sir Ernest MacMillan Senior Public School,149 Huntsmill Boulevard,Scarborough,M1W 2Y2,E,346660,149,Huntsmill Blvd,149 Huntsmill Blvd,Scarborough,Sir Ernest Macmillan Public School,115001,104516,149,None,,None,8151,452,"{'type': 'MultiPoint', 'coordinates': [[-79.3286382346771, 43.8066383253939]]}"
453,453,Ernest Public School,150 Cherokee Boulevard,North York,M2J 4A4,E,498502,150,Cherokee Blvd,150 Cherokee Blvd,North York,Ernest Public School,115001,436907,150,None,,None,5182,453,"{'type': 'MultiPoint', 'coordinates': [[-79.3373825688455, 43.791415465113]]}"
454,454,Brimwood Boulevard Junior Public School,151 Brimwood Boulevard,Agincourt,M1V 1E5,E,313306,151,Brimwood Blvd,151 Brimwood Blvd,Scarborough,Brimwood Boulevard Junior Public School,115001,103922,151,None,,None,7438,454,"{'type': 'MultiPoint', 'coordinates': [[-79.2740896574429, 43.8116998848004]]}"
455,455,Burrows Hall Junior Public School,151 Burrows Hall Boulevard,Agincourt,M1B 1M5,E,314663,151,Burrows Hall Blvd,151 Burrows Hall Blvd,Scarborough,Burrows Hall Junior Public School,115001,30063088,151,None,,None,7479,455,"{'type': 'MultiPoint', 'coordinates': [[-79.2288180080604, 43.792697960518]]}"
456,456,Timberbank Junior Public School,170 Timberbank Boulevard,Agincourt,M1W 2A3,E,391661,170,Timberbank Blvd,170 Timberbank Blvd,Scarborough,Timberbank Junior Public School,115001,106097,170,None,,None,9087,456,"{'type': 'MultiPoint', 'coordinates': [[-79.307285388876, 43.7914712561725]]}"
457,457,Chief Dan George Public School,185 Generation Boulevard,Scarborough,M1B 2K5,E,337172,185,Generation Blvd,185 Generation Blvd,Scarborough,Chief Dan George Public School,115001,104636,185,None,,None,7965,457,"{'type': 'MultiPoint', 'coordinates': [[-79.1638346582217, 43.8027223090495]]}"
458,458,Terry Fox Public School,185 Wintermute Boulevard,Agincourt,M1W 3M9,E,399160,185,Wintermute Blvd,185 Wintermute Blvd,Scarborough,Terry Fox Public School,115001,20050681,185,None,,None,9249,458,"{'type': 'MultiPoint', 'coordinates': [[-79.3186862950221, 43.8158993563047]]}"
459,459,Gracedale Public School,186 Gracedale Boulevard,North York,M9L 2C1,E,10494308,186,Gracedale Blvd,186 Gracedale Blvd,North York,Gracedale Park,115001,10494275,186,None,,None,5728,459,"{'type': 'MultiPoint', 'coordinates': [[-79.5618421120233, 43.753197538015]]}"
460,460,George Webster Elementary School,50 Chapman Ave,East York,M4B1C5,E,30091787,50,Chapman Ave,50 Chapman Ave,East York,George E. Webster Public School,115001,7776717,50,None,,None,59,460,"{'type': 'MultiPoint', 'coordinates': [[-79.299760623825, 43.7010488988453]]}"
461,461,Anson S Taylor Junior Public School,20 Placentia Boulevard,Agincourt,M1S 4C5,E,374465,20,Placentia Blvd,20 Placentia Blvd,Scarborough,Anson S Taylor Junior Public School,115001,104662,20,None,,None,8711,461,"{'type': 'MultiPoint', 'coordinates': [[-79.2615613356444, 43.8042919764275]]}"
462,462,Danforth Gardens Public School,20 Santamonica Boulevard,Scarborough,M1L 4H4,E,2370028,20,Santamonica Blvd,20 Santamonica Blvd,Scarborough,Danforth Gardens Public School,115001,2370032,20,None,,None,8879,462,"{'type': 'MultiPoint', 'coordinates': [[-79.270927399778, 43.7087670630065]]}"
463,463,Dr Norman Bethune Collegiate Institute,200 Fundy Bay Boulevard,Agincourt,M1W 3G1,S,3070250,200,Fundy Bay Blvd,200 Fundy Bay Blvd,Scarborough,Overcomers Christian Fellowship Church,115001,3065529,200,None,,None,7938,463,"{'type': 'MultiPoint', 'coordinates': [[-79.3194284089425, 43.8121621401057]]}"
464,464,Chester Le Junior Public School,201 Chester Le Boulevard,Agincourt,M1W 2K7,E,6242276,201,Chester Le Blvd,201 Chester Le Blvd,Scarborough,Chester Le Junior Elementary School - Building Grounds,115001,6242279,201,None,,None,7576,464,"{'type': 'MultiPoint', 'coordinates': [[-79.3310953374039, 43.7985877098575]]}"
465,465,Tam O'Shanter Junior Public School,21 King Henrys Boulevard,Agincourt,M1T 2V3,E,351647,21,King Henry's Blvd,21 King Henry's Blvd,Scarborough,Tam O'Shanter Junior Public School,115001,106768,21,None,,None,8255,465,"{'type': 'MultiPoint', 'coordinates': [[-79.2976616870896, 43.7850716358588]]}"
466,466,Silver Springs Public School,222 Silver Springs Boulevard,Agincourt,M1V 1S4,E,386342,222,Silver Springs Blvd,222 Silver Springs Blvd,Scarborough,Silver Springs Public School,115001,14669334,222,None,,None,8952,466,"{'type': 'MultiPoint', 'coordinates': [[-79.3023769660098, 43.8044295089524]]}"
467,467,Brookmill Boulevard Junior Public School,25 Brookmill Boulevard,Agincourt,M1W 2L5,E,6242368,25,Brookmill Blvd,25 Brookmill Blvd,Scarborough,Brookmill Boulevard Junior Public School,115001,6242369,25,None,,None,7452,467,"{'type': 'MultiPoint', 'coordinates': [[-79.3148680045935, 43.80122038284]]}"
468,468,Charles Gordon Senior Public School,25 Marcos Boulevard,Scarborough,M1K 5A7,E,6436438,25,Marcos Blvd,25 Marcos Blvd,Scarborough,Charles Gordon Public School,115001,110208,25,None,,None,8421,468,"{'type': 'MultiPoint', 'coordinates': [[-79.2605263117434, 43.7462850480666]]}"
469,469,Iroquois Junior Public School,265 Chartland Boulevard South,Agincourt,M1S 2S6,E,318894,265,Chartland Blvd S,265 Chartland Blvd S,Scarborough,Iroquois Public School,115001,104797,265,None,,None,7566,469,"{'type': 'MultiPoint', 'coordinates': [[-79.2694408055289, 43.8026801566349]]}"
470,470,Gosford Public School,30 Gosford Boulevard,North York,M3N 2G8,E,11267530,30,Gosford Blvd,30 Gosford Blvd,North York,Gosford Public School,115001,11267531,30,None,,None,5724,470,"{'type': 'MultiPoint', 'coordinates': [[-79.5213241884271, 43.7643184871585]]}"
471,471,Shaughnessy Public School,30 Shaughnessy Boulevard,North York,M2J 1H5,E,10538488,30,Shaughnessy Blvd,30 Shaughnessy Blvd,North York,Shaughnessy Public School,115001,10538470,30,None,,None,6691,471,"{'type': 'MultiPoint', 'coordinates': [[-79.3516008694888, 43.7702840439533]]}"
472,472,Twentieth Street Junior School,3190 Lake Shore Boulevard West,Etobicoke,M8V 1L8,E,6735913,3190,Lake Shore Blvd W,3190 Lake Shore Blvd W,Etobicoke,Twentieth Street Junior Public School,115001,6735911,3190,None,,None,1962,472,"{'type': 'MultiPoint', 'coordinates': [[-79.5199382429952, 43.5979771530563]]}"
473,473,Lamberton Public School,33 Lamberton Boulevard,North York,M3J 1G6,E,534646,33,Lamberton Blvd,33 Lamberton Blvd,North York,Lamberton Public School,115001,440937,33,None,,None,5999,473,"{'type': 'MultiPoint', 'coordinates': [[-79.5028244891368, 43.7536543018276]]}"
474,474,Pauline Johnson Junior Public School,35 Dunmurray Boulevard,Agincourt,M1T 2K2,E,329105,35,Dunmurray Blvd,35 Dunmurray Blvd,Scarborough,Pauline Johnson Public School,115001,106690,35,None,,None,7788,474,"{'type': 'MultiPoint', 'coordinates': [[-79.3035712981415, 43.7851298582651]]}"
475,475,Percy Williams Junior Public School,35 White Heather Boulevard,Agincourt,M1V 1P6,E,397655,35,White Heather Blvd,35 White Heather Blvd,Scarborough,Percy Williams Public School,115001,103968,35,None,,None,9222,475,"{'type': 'MultiPoint', 'coordinates': [[-79.2656585281205, 43.8126668817723]]}"
476,476,Cherokee Public School,390 Cherokee Boulevard,North York,M2H 2W7,E,498606,390,Cherokee Blvd,390 Cherokee Blvd,North York,Cherokee Public School,115001,436481,390,None,,None,5182,476,"{'type': 'MultiPoint', 'coordinates': [[-79.338614744436, 43.7987627465793]]}"
477,477,Rockcliffe Middle School,400 Rockcliffe Boulevard,York,M6N 4R8,E,71840,400,Rockcliffe Blvd,400 Rockcliffe Blvd,York,Rockcliffe Middle School,115001,30007274,400,None,,None,847,477,"{'type': 'MultiPoint', 'coordinates': [[-79.4888938172078, 43.6738651424808]]}"
478,478,Cassandra Public School,45 Cassandra Boulevard,North York,M3A 1S5,E,497128,45,Cassandra Blvd,45 Cassandra Blvd,North York,Cassandra Public School,115001,30100005,45,None,,None,5139,478,"{'type': 'MultiPoint', 'coordinates': [[-79.3289014753509, 43.7484250053493]]}"
479,479,North Bridlewood Junior Public School,50 Collingsbrook Boulevard,Agincourt,M1W 1L7,E,321476,50,Collingsbrook Blvd,50 Collingsbrook Blvd,Scarborough,North Bridlewood Public School,115001,106384,50,None,,None,7625,479,"{'type': 'MultiPoint', 'coordinates': [[-79.3185870835038, 43.788916355463]]}"
480,480,Denlow Public School,50 Denlow Boulevard,North York,M3B 1P7,E,507023,50,Denlow Blvd,50 Denlow Blvd,North York,Denlow Public School,115001,441685,50,None,,None,5371,480,"{'type': 'MultiPoint', 'coordinates': [[-79.3642277250946, 43.7458394934387]]}"
481,481,Gateway Public School,55 Gateway Boulevard,North York,M3C 1B4,E,8929147,55,Gateway Blvd,55 Gateway Blvd,North York,Gateway Public School,115001,8929149,55,None,,None,5672,481,"{'type': 'MultiPoint', 'coordinates': [[-79.3310091533195, 43.7117262234356]]}"
482,482,Bridlewood Junior Public School,60 Bridlewood Boulevard,Agincourt,M1T 1P7,E,312084,60,Bridlewood Blvd,60 Bridlewood Blvd,Scarborough,Bridlewood Public School,115001,14198001,60,None,,None,7427,482,"{'type': 'MultiPoint', 'coordinates': [[-79.3150953883817, 43.7807962711677]]}"
483,483,Morrish Public School,61 Canmore Boulevard,Scarborough,M1C 3T7,E,20037846,61,Canmore Blvd,61 Canmore Blvd,Scarborough,Morrish Public School,115001,6444773,61,None,,None,9526,483,"{'type': 'MultiPoint', 'coordinates': [[-79.1792700314566, 43.7931879168947]]}"
484,484,Beverly Glen Junior Public School,85 Beverly Glen Boulevard,Agincourt,M1W 1W4,E,307817,85,Beverly Glen Blvd,85 Beverly Glen Blvd,Scarborough,Beverly Glen Junior Public School,115001,14229540,85,None,,None,7356,484,"{'type': 'MultiPoint', 'coordinates': [[-79.3230676298928, 43.7986530998679]]}"
485,485,Charlottetown Junior Public School,85 Charlottetown Boulevard,West Hill,M1C 2C7,E,318714,85,Charlottetown Blvd,85 Charlottetown Blvd,Scarborough,Charlottetown Junior Elementary School - Building Grounds,115001,106764,85,None,,None,7564,485,"{'type': 'MultiPoint', 'coordinates': [[-79.1422089559982, 43.7820702346732]]}"
486,486,Alvin Curling Public School,50 Upper Rouge Trail,Scarborough,M1B 6K4,E,30033029,50,Upper Rouge Trl,50 Upper Rouge Trl,Scarborough,Meadowvale Sheppard Public School,115001,20057597,50,None,,None,18115,486,"{'type': 'MultiPoint', 'coordinates': [[-79.1902392505261, 43.8084816562815]]}"
487,487,Humberwood Downs Junior Middle Academy,850 Humberwood Boulevard,Etobicoke,M9W 7A6,E,12551948,850,Humberwood Blvd,850 Humberwood Blvd,Etobicoke,Humberwood Park,115001,30003276,850,None,,None,10534,487,"{'type': 'MultiPoint', 'coordinates': [[-79.6191818734033, 43.7288858667834]]}"
488,488,Alexmuir Junior Public School,95 Alexmuir Boulevard,Agincourt,M1V 1H6,E,300827,95,Alexmuir Blvd,95 Alexmuir Blvd,Scarborough,Alexmuir Public School,115001,104290,95,None,,None,7182,488,"{'type': 'MultiPoint', 'coordinates': [[-79.2856134903058, 43.809109322683]]}"
489,489,Faywood Arts-Based Curriculum School,95 Faywood Boulevard,North York,M3H 2X5,E,8014986,95,Faywood Blvd,95 Faywood Blvd,North York,Faywood Arts-Based Curriculum School,115001,442642,95,None,,None,5570,489,"{'type': 'MultiPoint', 'coordinates': [[-79.4466973349755, 43.7398550354918]]}"
490,490,Lucy Maud Montgomery Public School,95 Murison Boulevard,Scarborough,M1B 2L6,E,366470,95,Murison Blvd,95 Murison Blvd,Scarborough,Lucy Maud Montgomery Public School,115001,105173,95,None,,None,8552,490,"{'type': 'MultiPoint', 'coordinates': [[-79.2093657180027, 43.7969167927449]]}"
491,491,Terraview-Willowfield Public School,95 Pachino Boulevard,Scarborough,M1R 4K1,E,370058,95,Pachino Blvd,95 Pachino Blvd,Scarborough,Terraview-Willowfield Public School,115001,108875,95,None,,None,8636,491,"{'type': 'MultiPoint', 'coordinates': [[-79.3085727444468, 43.7637829145381]]}"
492,492,Agnes Macphail Public School,112 Goldhawk Trail,Agincourt,M1V 1W5,E,30022742,112,Goldhawk Trl,112 Goldhawk Trl,Scarborough,None,115001,103439,112,None,,None,7999,492,"{'type': 'MultiPoint', 'coordinates': [[-79.2785533935458, 43.819268975669]]}"
493,493,Berner Trail Junior Public School,120 Berner Trail,Agincourt,M1B 1B3,E,307348,120,Berner Trl,120 Berner Trl,Scarborough,Berner Trail Junior Public School,115001,104808,120,None,,None,7349,493,"{'type': 'MultiPoint', 'coordinates': [[-79.2211413058912, 43.8014341079073]]}"
494,494,Milliken Public School,130 Port Royal Trail,Agincourt,M1V 2T4,E,375326,130,Port Royal Trl,130 Port Royal Trl,Scarborough,Milliken Public School,115001,103623,130,None,,None,8721,494,"{'type': 'MultiPoint', 'coordinates': [[-79.2884969457851, 43.8165865457748]]}"
495,495,Mary Shadd Public School,135 Hupfield Trail,Scarborough,M1B 4R6,E,6947413,135,Hupfield Trl,135 Hupfield Trl,Scarborough,Mary Shadd Public School,115001,6947409,135,None,,None,11329,495,"{'type': 'MultiPoint', 'coordinates': [[-79.2183240428671, 43.8143956979563]]}"
496,496,Highland Creek Public School,1410 Military Trail,West Hill,M1C 1A8,E,363876,1410,Military Trl,1410 Military Trl,Scarborough,Highland Creek Public School,115001,106744,1410,None,,None,8501,496,"{'type': 'MultiPoint', 'coordinates': [[-79.1784462927192, 43.7835009010173]]}"
497,497,Grey Owl Junior Public School,150 Wickson Trail,Agincourt,M1B 1M4,E,398141,150,Wickson Trl,150 Wickson Trl,Scarborough,Grey Owl Junior Public School,115001,104613,150,None,,None,9227,497,"{'type': 'MultiPoint', 'coordinates': [[-79.2133003232257, 43.8039892965967]]}"
498,498,Joseph Howe Senior Public School,20 Winter Gardens Trail,West Hill,M1C 3E7,E,398881,20,Winter Gardens Trl,20 Winter Gardens Trl,Scarborough,Joseph Howe Public School,115001,106627,20,None,,None,9519,498,"{'type': 'MultiPoint', 'coordinates': [[-79.13729821037, 43.785807845353]]}"
499,499,Tom Longboat Junior Public School,37 Crow Trail,Scarborough,M1B 1X6,E,324647,37,Crow Trl,37 Crow Trl,Scarborough,Tom Longboat Junior Public School,115001,104120,37,None,,None,7689,499,"{'type': 'MultiPoint', 'coordinates': [[-79.2316269659623, 43.8104461724402]]}"
500,500,Highcastle Public School,370 Military Trail,West Hill,M1E 4E6,E,363718,370,Military Trl,370 Military Trl,Scarborough,Highcastle Public School,115001,106480,370,None,,None,8501,500,"{'type': 'MultiPoint', 'coordinates': [[-79.2124956285055, 43.7867616021878]]}"
501,501,Banting and Best Public School,380 Goldhawk Trail,Agincourt,M1V 4E7,E,338836,380,Goldhawk Trl,380 Goldhawk Trl,Scarborough,Banting & Best Public School,115001,103029,380,None,,None,7999,501,"{'type': 'MultiPoint', 'coordinates': [[-79.2798335039423, 43.8268714163484]]}"
502,502,Port Royal Public School,408 Port Royal Trail,Agincourt,M1V 4R1,E,5024206,408,Port Royal Trl,408 Port Royal Trl,Scarborough,Port Royal Public School,115001,5024208,408,None,,None,8721,502,"{'type': 'MultiPoint', 'coordinates': [[-79.2899667499679, 43.8246324049807]]}"
503,503,Alexander Stirling Public School,70 Fawcett Trail,Scarborough,M1B 3A9,E,333733,70,Fawcett Trl,70 Fawcett Trl,Scarborough,Alexander Stirling Public School,115001,103838,70,None,,None,7886,503,"{'type': 'MultiPoint', 'coordinates': [[-79.2076059405385, 43.8116563251017]]}"
504,504,Malvern Junior Public School,70 Mammoth Hall Trail,Agincourt,M1B 1P6,E,358756,70,Mammoth Hall Trl,70 Mammoth Hall Trl,Scarborough,Malvern Junior Public School,115001,30060555,70,None,,None,8403,504,"{'type': 'MultiPoint', 'coordinates': [[-79.2332519441342, 43.7978394610251]]}"
505,505,Military Trail Public School,701 Military Trail,West Hill,M1E 4P6,E,6942851,701,Military Trl,701 Military Trl,Scarborough,Military Trail Public School,115001,14658974,701,None,,None,8501,505,"{'type': 'MultiPoint', 'coordinates': [[-79.1971169704309, 43.7891154918287]]}"
506,506,Emily Carr Public School,90 John Tabor Trail,Scarborough,M1B 2V2,E,349131,90,John Tabor Trl,90 John Tabor Trl,Scarborough,Emily Carr Public School,115001,104486,90,None,,None,8200,506,"{'type': 'MultiPoint', 'coordinates': [[-79.2069358552156, 43.8050223865269]]}"
507,507,Greenholme Junior Middle School,10 Jamestown Crescent,Etobicoke,M9V 3M5,E,9178016,10,Jamestown Cres,10 Jamestown Cres,Etobicoke,Greenholme Public School,115001,30081010,10,None,,None,1870,507,"{'type': 'MultiPoint', 'coordinates': [[-79.582908112082, 43.7350715355536]]}"
508,508,Portage Trail Community School,100 Sidney Belsey Crescent,York,M6M 5H6,E,14171495,100,Sidney Belsey Cres,100 Sidney Belsey Cres,York,Portage Trail Community School,115001,30055631,100,None,,None,11205,508,"{'type': 'MultiPoint', 'coordinates': [[-79.5097668839041, 43.6922961842952]]}"
509,509,Western Technical-Commercial School,125 Evelyn Crescent,Toronto,M6P 3E3,S,7986677,125,Evelyn Cres,125 Evelyn Cres,former Toronto,The Student School,115001,7986678,125,None,,None,3415,509,"{'type': 'MultiPoint', 'coordinates': [[-79.4745815146538, 43.6570914920911]]}"
510,510,THESTUDENTSCHOOL,160 Glendonwynne Road,Toronto,M6P 0A5,S,30041280,160,Glendonwynne Rd,160 Glendonwynne Rd,former Toronto,Entrance to Specialty School,115001,1144630,160,None,,None,3537,510,"{'type': 'MultiPoint', 'coordinates': [[-79.4741378104814, 43.657050103374]]}"
511,511,General Brock Public School,140 Chestnut Crescent,Scarborough,M1L 1Y5,E,319504,140,Chestnut Cres,140 Chestnut Cres,Scarborough,General Brock Public School,115001,30055414,140,None,,None,7580,511,"{'type': 'MultiPoint', 'coordinates': [[-79.2745902135289, 43.7185070990624]]}"
512,512,Braeburn Junior School,15 Tandridge Crescent,Etobicoke,M9W 2N8,E,1035925,15,Tandridge Cres,15 Tandridge Cres,Etobicoke,Braeburn Public School,115001,907479,15,None,,None,2579,512,"{'type': 'MultiPoint', 'coordinates': [[-79.5488638133372, 43.7280298273892]]}"
513,513,Blythwood Junior Public School,2 Strathgowan Crescent,Toronto,M4N 2Z5,E,7754014,2,Strathgowan Cres,2 Strathgowan Cres,former Toronto,Blythwood Junior Public School,115001,7754013,2,None,,None,4499,513,"{'type': 'MultiPoint', 'coordinates': [[-79.3895057084414, 43.7199314988808]]}"
514,514,Kennedy Public School,20 Elmfield Crescent,Scarborough,M1V 2Y6,E,332056,20,Elmfield Cres,20 Elmfield Cres,Scarborough,Kennedy Public School,115001,20051349,20,None,,None,7841,514,"{'type': 'MultiPoint', 'coordinates': [[-79.3081805175917, 43.8188359157905]]}"
515,515,Thistletown Collegiate Institute,20 Fordwich Crescent,Etobicoke,M9W 2T4,S,1001687,20,Fordwich Cres,20 Fordwich Cres,Etobicoke,Thistletown Collegiate Institute,115001,907494,20,None,,None,1624,515,"{'type': 'MultiPoint', 'coordinates': [[-79.5624526489507, 43.7277265566382]]}"
516,516,Clairlea Public School,25 Rosalind Crescent,Scarborough,M1L 2X1,E,6511806,25,Rosalind Cres,25 Rosalind Cres,Scarborough,Clairlea Public School,115001,6511804,25,None,,None,8824,516,"{'type': 'MultiPoint', 'coordinates': [[-79.2962358879462, 43.7164767633036]]}"
517,517,Firgrove Public School,270 Firgrove Crescent,North York,M3N 1K8,E,3062806,270,Firgrove Cres,270 Firgrove Cres,North York,Firgrove Public School,115001,30092050,270,None,,None,5594,517,"{'type': 'MultiPoint', 'coordinates': [[-79.519910862165, 43.7520008914053]]}"
518,518,Indian Road Crescent Junior Public School,285 Indian Road Crescent,Toronto,M6P 2G8,E,824662,285,Indian Road Cres,285 Indian Road Cres,former Toronto,Indian Road Crescent Public School,115001,1143611,285,None,,None,3724,518,"{'type': 'MultiPoint', 'coordinates': [[-79.4600779001397, 43.6625287329027]]}"
519,519,North Bendale Junior Public School,29 Aveline Crescent,Scarborough,M1H 2P4,E,303840,29,Aveline Cres,29 Aveline Cres,Scarborough,North Bendale Junior Public School,115001,108255,29,None,,None,7259,519,"{'type': 'MultiPoint', 'coordinates': [[-79.2478021030816, 43.7705721088236]]}"
520,520,Anson Park Public School,30 MacDuff Crescent,Scarborough,M1M 1X5,E,358063,30,Macduff Cres,30 Macduff Cres,Scarborough,Anson Park Public School,115001,111602,30,None,,None,8385,520,"{'type': 'MultiPoint', 'coordinates': [[-79.2411154201694, 43.7261289165667]]}"
521,521,SATEC @ WA Porter Collegiate Institute,40 Fairfax Crescent,Scarborough,M1L 1Z9,S,2375151,40,Fairfax Cres,40 Fairfax Cres,Scarborough,W.A. Porter Collegiate Institute,115001,30059892,40,None,,None,7865,521,"{'type': 'MultiPoint', 'coordinates': [[-79.2872695164287, 43.7165934572119]]}"
522,522,Blacksmith Public School,45 Blacksmith Crescent,North York,M3N 1V5,E,490154,45,Blacksmith Cres,45 Blacksmith Cres,North York,Blacksmith Elementary School - Building Grounds,115001,30092674,45,None,,None,4965,522,"{'type': 'MultiPoint', 'coordinates': [[-79.5268106869839, 43.7711639591637]]}"
523,523,Lambton Park Community School,50 Bernice Crescent,York,M6N 1W9,E,52404,50,Bernice Cres,50 Bernice Cres,York,Lambton Park Community School,115001,9328,50,None,,None,445,523,"{'type': 'MultiPoint', 'coordinates': [[-79.4983074871366, 43.6675759817237]]}"
524,524,Glamorgan Junior Public School,51 Antrim Crescent,Scarborough,M1P 4N4,E,302317,51,Antrim Cres,51 Antrim Cres,Scarborough,Glamorgan Junior Public School,115001,107996,51,None,,None,7216,524,"{'type': 'MultiPoint', 'coordinates': [[-79.2895538318113, 43.7713003109162]]}"
525,525,Ranchdale Public School,60 Ranchdale Crescent,North York,M3A 2M3,E,554092,60,Ranchdale Cres,60 Ranchdale Cres,North York,Ranchdale Public School,115001,440998,60,None,,None,6499,525,"{'type': 'MultiPoint', 'coordinates': [[-79.3232914375889, 43.7524580000985]]}"
526,526,St George's Junior School,70 Princess Anne Crescent,Etobicoke,M9A 2P7,E,1024923,70,Princess Anne Cres,70 Princess Anne Cres,Etobicoke,St. Georges Junior Public School,115001,909875,70,None,,None,2300,526,"{'type': 'MultiPoint', 'coordinates': [[-79.5417121934287, 43.6726005054962]]}"
527,527,Sir Wilfrid Laurier Collegiate Institute,145 Guildwood Parkway,Scarborough,M1E 1P5,S,341419,145,Guildwood Pkwy,145 Guildwood Pkwy,Scarborough,Sir Wilfrid Laurier Collegiate Institute,115001,110088,145,None,,None,8047,527,"{'type': 'MultiPoint', 'coordinates': [[-79.1969914784391, 43.7470335031665]]}"
528,528,Joyce Public School,26 Joyce Parkway,North York,M6B 2S9,E,532121,26,Joyce Pkwy,26 Joyce Pkwy,North York,"Joyce Public School, Delo Park",115001,446122,26,None,,None,5927,528,"{'type': 'MultiPoint', 'coordinates': [[-79.4637574882499, 43.7097753946106]]}"
529,529,Jack Miner Senior Public School,405 Guildwood Parkway,West Hill,M1E 1R3,E,341468,405,Guildwood Pkwy,405 Guildwood Pkwy,Scarborough,Jack Miner Senior Public School,115001,109865,405,None,,None,8047,529,"{'type': 'MultiPoint', 'coordinates': [[-79.186968339472, 43.749688633648]]}"
530,530,Albert Campbell Collegiate Institute,1550 Sandhurst Circle,Agincourt,M1V 1S6,S,7531001,1550,Sandhurst Crcl,1550 Sandhurst Crcl,Scarborough,Albert Campbell Collegiate Institute,115001,7531000,1550,None,,None,8871,530,"{'type': 'MultiPoint', 'coordinates': [[-79.272424472942, 43.8092625383141]]}"
531,531,L'Amoreaux Collegiate Institute,2501 Bridletowne Circle,Agincourt,M1W 2K1,S,312017,2501,Bridletowne Crcl,2501 Bridletowne Crcl,Scarborough,Lamoreaux Collegiate Institute,115001,104968,2501,None,,None,7426,531,"{'type': 'MultiPoint', 'coordinates': [[-79.3180737471701, 43.80291776814]]}"
532,532,Park Lane Public School,60 Park Lane Circle,North York,M3C 2N2,E,7684096,60,Park Lane Crcl,60 Park Lane Crcl,North York,Park Lane Public School,115001,7683816,60,None,,None,6377,532,"{'type': 'MultiPoint', 'coordinates': [[-79.3668200605055, 43.7289236202676]]}"
533,533,The Waterfront School,635 Queens Quay West,Toronto,M5V 3G3,E,20056424,635,Queens Quay W,635 Queens Quay W,former Toronto,Waterfront School,115001,14130691,635,None,,None,4244,533,"{'type': 'MultiPoint', 'coordinates': [[-79.3971875912132, 43.6357488157646]]}"
534,534,City School,635 Queens Quay West,Toronto,M5V 3G3,S,20056424,635,Queens Quay W,635 Queens Quay W,former Toronto,Waterfront School,115001,14130691,635,None,,None,4244,534,"{'type': 'MultiPoint', 'coordinates': [[-79.3971875912132, 43.6357488157646]]}"
535,535,Bayview Middle School,25 Bunty Lane,North York,M2K 1W4,E,7963754,25,Bunty Lane,25 Bunty Lane,North York,Bayview Middle School,115001,7963734,25,None,,None,5064,535,"{'type': 'MultiPoint', 'coordinates': [[-79.3852946788356, 43.7762622265316]]}"
536,536,Don Mills Collegiate Institute,15 The Donway East,North York,M3C 1X6,S,568398,15,The Donway E,15 The Donway E,North York,Don Mills Collegiate Institute,115001,443123,15,None,,None,6881,536,"{'type': 'MultiPoint', 'coordinates': [[-79.339277147401, 43.7359592881657]]}"
537,537,Don Mills Middle School,17 The Donway East,North York,M3C 1X6,E,568400,17,The Donway E,17 The Donway E,North York,Don Mills Middle School - Building Grounds,115001,443123,17,None,,None,6881,537,"{'type': 'MultiPoint', 'coordinates': [[-79.3397470950251, 43.7363797020937]]}"
538,538,Market Lane Junior and Senior Public School,246 The Esplanade,Toronto,M5A 4J6,E,8354441,246,The Esplanade,246 The Esplanade,former Toronto,Market Lane Ps Jr. & Sr.,115001,8354438,246,None,,None,4541,538,"{'type': 'MultiPoint', 'coordinates': [[-79.3647413959783, 43.6498503802646]]}"
539,539,Yorkwoods Public School,25 Yorkwoods Gate,North York,M3N 1K1,E,10258462,25,Yorkwoods Gt,25 Yorkwoods Gt,North York,Yorkwoods Public School - Building Grounds,115001,30102680,25,None,,None,7152,539,"{'type': 'MultiPoint', 'coordinates': [[-79.5138847463308, 43.7506598381465]]}"
540,540,Dr Marion Hilliard Senior Public School,280 Washburn Way,Agincourt,M1B 2P3,E,11048083,280,Washburn Way,280 Washburn Way,Scarborough,Dr Marion Hilliard Senior Public School,115001,11048082,280,None,,None,9193,540,"{'type': 'MultiPoint', 'coordinates': [[-79.2248218322885, 43.8036860800068]]}"
541,541,Dixon Grove Junior Middle School,315 The Westway,Etobicoke,M9R 1H1,E,1037664,315,The Westway,315 The Westway,Etobicoke,Dixon Grove Junior Middle School,115001,909200,315,None,,None,2606,541,"{'type': 'MultiPoint', 'coordinates': [[-79.5559776877569, 43.6850065948201]]}"
542,542,Highland Heights Junior Public School,35 Glendower Circuit,Agincourt,M1T 2Z3,E,4812502,35,Glendower Crct,35 Glendower Crct,Scarborough,Highland Heights Public School,115001,4812493,35,None,,None,11111,542,"{'type': 'MultiPoint', 'coordinates': [[-79.3002623454523, 43.7944199052402]]}"
543,543,Kipling Collegiate Institute,380 The Westway,Etobicoke,M9R 1H4,S,1037710,380,The Westway,380 The Westway,Etobicoke,Kipling Collegiate Institute,115001,909272,380,None,,None,2606,543,"{'type': 'MultiPoint', 'coordinates': [[-79.5623537178777, 43.685288122965]]}"
544,544,Crescent Town Elementary School,4 Massey Square,East York,M4C 5M9,E,4202208,4,Massey Sq,4 Massey Sq,East York,Crescent Town Elementary School,115001,4153333,4,None,,None,11100,544,"{'type': 'MultiPoint', 'coordinates': [[-79.2924665101008, 43.6968367454986]]}"
545,545,Lawrence Heights Middle School,50 Highland Hill,North York,M6A 2R1,E,10379215,50,Highland Hill,50 Highland Hill,North York,Lawrence Heights Middle School,115001,10379214,50,None,,None,5833,545,"{'type': 'MultiPoint', 'coordinates': [[-79.4510772508882, 43.7208322543823]]}"
546,546,Cornell Junior Public School,61 Holmfirth Terrace,Scarborough,M1G 1G8,E,344918,61,Holmfirth Ter,61 Holmfirth Ter,Scarborough,Cornell Junior Public School - Building Grounds,115001,109132,61,None,,None,8123,546,"{'type': 'MultiPoint', 'coordinates': [[-79.2180382189696, 43.7593925779675]]}"
547,547,Poplar Road Junior Public School,66 Dearham Wood,West Hill,M1E 1S4,E,326920,66,Dearham Wood,66 Dearham Wood,Scarborough,Poplar Road Junior Public School,115001,109624,66,None,,None,7725,547,"{'type': 'MultiPoint', 'coordinates': [[-79.1872408418527, 43.7537306281654]]}"
548,548,Givins/Shaw Junior Public School,49 Givins Street,Toronto,M6J 2X5,E,11180397,49,Givins St,49 Givins St,former Toronto,Givins/Shaw Public School,115001,11180398,49,None,,None,3505,548,"{'type': 'MultiPoint', 'coordinates': [[-79.4175842923766, 43.6464076573477]]}"
549,549,Island Public/Natural Science School,30 Centre Island Park,Toronto,M5J 2E9,E,14258202,30,Centre Island Pk,30 Centre Island Pk,former Toronto,None,115001,1147832,30,None,,None,17507,549,"{'type': 'MultiPoint', 'coordinates': [[-79.3783881351182, 43.6157002778621]]}"
550,550,SEED Alternative School,885 Dundas Street East,Toronto,M4M 1R4,S,7576864,885,Dundas St E,885 Dundas St E,former Toronto,None,115001,14047336,885,None,,None,3334,550,"{'type': 'MultiPoint', 'coordinates': [[-79.3503749917097, 43.6622721119517]]}"
551,551,Native Learning Centre,83 Alexander Street,Toronto,M4Y 1B7,S,762114,83,Alexander St,83 Alexander St,former Toronto,Church Street Public School,115001,14023586,83,None,,None,9761,551,"{'type': 'MultiPoint', 'coordinates': [[-79.3791781653545, 43.6636084257427]]}"
552,552,Avondale Public School,171 Avondale Ave,North York,M2N 2V4,E,485329,171,Avondale Ave,171 Avondale Ave,North York,Avondale Alternative School,115001,439906,171,None,,None,4853,552,"{'type': 'MultiPoint', 'coordinates': [[-79.4000020943236, 43.7596784143197]]}"
553,553,Burnhamthorpe Collegiate Institute,500 The East Mall,Etobicoke,M9B 2C4,S,6765660,500,The East Mall,500 The East Mall,Etobicoke,Burnhamthorpe Collegiate Institute,115001,6765661,500,None,,None,2597,553,"{'type': 'MultiPoint', 'coordinates': [[-79.5616948758766, 43.6491679256634]]}"
554,554,CALC Secondary School,1 Danforth Avenue,Toronto,M4K 1M8,S,3841913,1,Danforth Ave,1 Danforth Ave,former Toronto,City Adult Learning Centre (Calc),115001,3841911,1,None,,None,86,554,"{'type': 'MultiPoint', 'coordinates': [[-79.3600575652384, 43.674910857793]]}"
555,555,Scarborough Centre for Alternative Studies,720 Midland Avenue,Scarborough,M1K 4C9,S,363296,720,Midland Ave,720 Midland Ave,Scarborough,Midland Ave Collegiate Institute,115001,111524,720,None,,None,8496,555,"{'type': 'MultiPoint', 'coordinates': [[-79.2565866863318, 43.7283605174473]]}"
556,556,Caring and Safe School LC4,540 Jones Ave,Toronto,M4J3G9,S,8822790,540,Jones Ave,540 Jones Ave,former Toronto,Jones Avenue Adult New Canadian,115001,8822783,540,None,,None,3752,556,"{'type': 'MultiPoint', 'coordinates': [[-79.3395605756216, 43.6772533084015]]}"
557,557,Caring and Safe School LC2,1641 Pharmacy Avenue,Scarborough,M1R 2L2,S,373500,1641,Pharmacy Ave,1641 Pharmacy Ave,Scarborough,None,115001,108595,1641,None,,None,8691,557,"{'type': 'MultiPoint', 'coordinates': [[-79.313002607885, 43.7673772800379]]}"
558,558,North West Year Round Alternative Centre,425 Patricia Avenue,North York,M2R 2N1,S,30055925,425,Patricia Ave,425 Patricia Ave,North York,None,115001,7156908,425,None,,None,6386,558,"{'type': 'MultiPoint', 'coordinates': [[-79.4411616324684, 43.784556440757]]}"
559,559,Yorkdale Secondary School,38 Orfus Road,North York,M6A 1L6,S,12789760,38,Orfus Rd,38 Orfus Rd,North York,Yorkdale Secondary School,115001,12789755,38,None,,None,6342,559,"{'type': 'MultiPoint', 'coordinates': [[-79.4597250980034, 43.7201620650265]]}"
560,560,Thomas L Wells Public School,69 Nightstar Road,Scarborough,M1X 1V6,E,14310229,69,Nightstar Rd,69 Nightstar Rd,Scarborough,Thomas L Wells Public School,115001,14310896,69,None,,None,18022,560,"{'type': 'MultiPoint', 'coordinates': [[-79.2261254163676, 43.8242998088678]]}"
561,561,Etobicoke Year Round Alternative Centre,160 Silverhill Drive,Etobicoke,M9B 3W7,S,9109922,160,Silverhill Dr,160 Silverhill Dr,Etobicoke,None,115001,9109918,160,None,,None,2484,561,"{'type': 'MultiPoint', 'coordinates': [[-79.551276113705, 43.6338578460427]]}"
562,562,South East Year Round Alternative Centre,720 Midland Avenue,Scarborough,M1K 4C9,S,363296,720,Midland Ave,720 Midland Ave,Scarborough,Midland Ave Collegiate Institute,115001,111524,720,None,,None,8496,562,"{'type': 'MultiPoint', 'coordinates': [[-79.2565866863318, 43.7283605174473]]}"
563,563,North East Year Round Alternative Centre,2900 Don Mills Road,North York,M2J 3B6,S,9950376,2900,Don Mills Rd E,2900 Don Mills Rd E,North York,Woodbine Junior High School,115001,9950377,2900,None,,None,5398,563,"{'type': 'MultiPoint', 'coordinates': [[-79.349385410988, 43.7824288154923]]}"
564,564,Brookside Public School,75 Oasis Blvd,Scarborough,M1X 0A3,E,14248664,75,Oasis Blvd,75 Oasis Blvd,Scarborough,Brookside Public School,115001,14248995,75,None,,None,16908,564,"{'type': 'MultiPoint', 'coordinates': [[-79.2338532994675, 43.8303652064155]]}"
565,565,ALPHA II Alternative School,1141 Bloor Street West,Toronto,M6H 1M9,ES,6710176,1141,Bloor St W,1141 Bloor St W,former Toronto,Bloor Collegiate Institute,115001,6710177,1141,None,,None,458,565,"{'type': 'MultiPoint', 'coordinates': [[-79.4367968963581, 43.65924610796]]}"
566,566,Karen Kain School of the Arts,60 Berl Avenue,Etobicoke,M8Y 3C7,E,987291,60,Berl Ave,60 Berl Ave,Etobicoke,None,115001,912871,60,None,,None,1156,566,"{'type': 'MultiPoint', 'coordinates': [[-79.5001456127783, 43.6310527117539]]}"
567,567,Africentric Alternative School,1430 Sheppard Avenue West,North York,M3M 2W9,E,10133016,1430,Sheppard Ave W,1430 Sheppard Ave W,North York,Sheppard Public School,115001,10133008,1430,None,,None,6699,567,"{'type': 'MultiPoint', 'coordinates': [[-79.4882606578029, 43.7454243556118]]}"
568,568,da Vinci School,33 Robert Street,Toronto,M5S 2K2,E,8105948,33,Robert St,33 Robert St,former Toronto,None,115001,14022601,33,None,,None,844,568,"{'type': 'MultiPoint', 'coordinates': [[-79.401909850979, 43.6589530395299]]}"
569,569,The Grove Community School,108 Gladstone Avenue,Toronto,M6J 3L2,E,10527839,108,Gladstone Ave,108 Gladstone Ave,former Toronto,Alexander Muir/Gladstone Ave Junior and Senior Public School,115001,10527836,108,None,,None,3506,569,"{'type': 'MultiPoint', 'coordinates': [[-79.4288472631571, 43.6460212506421]]}"
570,570,Equinox Holistic Alternative School,151 Hiawatha Road,Toronto,M4L 2Y1,E,820061,151,Hiawatha Rd,151 Hiawatha Rd,former Toronto,Roden Junior Public School,115001,14022212,151,None,,None,3656,570,"{'type': 'MultiPoint', 'coordinates': [[-79.3230764862029, 43.6738732738778]]}"
571,571,Caring and Safe School LC3,720 Midland Avenue,Scarborough,M1K 4C9,S,363296,720,Midland Ave,720 Midland Ave,Scarborough,Midland Ave Collegiate Institute,115001,111524,720,None,,None,8496,571,"{'type': 'MultiPoint', 'coordinates': [[-79.2565866863318, 43.7283605174473]]}"
572,572,Parkview Alternative School,1641 Pharmacy Avenue,Scarborough,M1R 2L2,S,373500,1641,Pharmacy Ave,1641 Pharmacy Ave,Scarborough,None,115001,108595,1641,None,,None,8691,572,"{'type': 'MultiPoint', 'coordinates': [[-79.313002607885, 43.7673772800379]]}"
573,573,Boys Leadership Academy,45 Golfdown Drive,Etobicoke,M9W 2H8,E,1003702,45,Golfdown Dr,45 Golfdown Dr,Etobicoke,The Elms Junior Middle School,115001,907618,45,None,,None,1690,573,"{'type': 'MultiPoint', 'coordinates': [[-79.5521137885613, 43.722227297768]]}"
574,574,Jean Augustine Girls' Leadership Academy,35 Glendower Circuit,Agincourt,M1T 2Z3,E,4812502,35,Glendower Crct,35 Glendower Crct,Scarborough,Highland Heights Public School,115001,4812493,35,None,,None,11111,574,"{'type': 'MultiPoint', 'coordinates': [[-79.3002623454523, 43.7944199052402]]}"
575,575,Ben Heppner Vocal Music Academy,80 Slan Avenue,Scarborough,M1G 3B5,E,386802,80,Slan Ave,80 Slan Ave,Scarborough,Heather Heights Junior Public School,115001,107600,80,None,,None,8966,575,"{'type': 'MultiPoint', 'coordinates': [[-79.2150687264433, 43.7751558784252]]}"
576,576,Downtown Vocal Music Academy of Toronto,96 Denison Avenue,Toronto,M5T 1E4,E,10560819,96,Denison Ave,96 Denison Ave,former Toronto,Ryerson Community School Jr. & Sr.,115001,10560820,96,None,,None,3287,576,"{'type': 'MultiPoint', 'coordinates': [[-79.4023797268448, 43.6512817054496]]}"
577,577,Native Learning Centre East,145 Guildwood Parkway,Scarborough,M1E 1P5,S,341419,145,Guildwood Pkwy,145 Guildwood Pkwy,Scarborough,Sir Wilfrid Laurier Collegiate Institute,115001,110088,145,None,,None,8047,577,"{'type': 'MultiPoint', 'coordinates': [[-79.1969914784391, 43.7470335031665]]}"
578,578,Fraser Mustard Early Learning Academy,82 Thorncliffe Park Drive,Toronto,M4H 0A2,E,30026375,82,Thorncliffe Park Dr,82 Thorncliffe Park Dr,East York,None,115001,3829449,82,None,,None,354,578,"{'type': 'MultiPoint', 'coordinates': [[-79.3435512383368, 43.7055777504935]]}"
579,579,Caring and Safe School LC1,30 Barrhead Crescent,Etobicoke,M9W 3Z7,S,986007,30,Barrhead Cres,30 Barrhead Cres,Etobicoke,Mississauga Private School,115001,907839,30,None,,None,1110,579,"{'type': 'MultiPoint', 'coordinates': [[-79.5665521913805, 43.7193132274678]]}"
580,580,Emery EdVance Secondary,3395 Weston Road,North York,M9M 2V9,S,574355,3395,Weston Rd,3395 Weston Rd,North York,Emery Collegiate Institute,115001,30117738,3395,None,,None,952,580,"{'type': 'MultiPoint', 'coordinates': [[-79.5395569845548, 43.7487227091093]]}"
581,581,Oasis Alternative SS (Skateboard Factory) (Scadding Court),707 Dundas Street West,Toronto,M5T2W6,S,796653,707,Dundas St W,707 Dundas St W,former Toronto,Scadding Court Community Centre,115001,1145100,707,None,,None,558,581,"{'type': 'MultiPoint', 'coordinates': [[-79.404893894284, 43.6517857045587]]}"
582,582,Oasis Triangle Program,115 Simpson Avenue,Toronto,M4K1A1,S,868553,115,Simpson Ave,115 Simpson Ave,former Toronto,Metropolitan Community Church,115001,14023169,115,None,,None,9784,582,"{'type': 'MultiPoint', 'coordinates': [[-79.3478625108852, 43.6669210199121]]}"
583,583,Norseman Junior Middle School- Castlebar,70 Chartwell Road,Etobicoke,M8Z 4G6,E,992851,70,Chartwell Rd,70 Chartwell Rd,Etobicoke,None,115001,912905,70,None,,None,1336,583,"{'type': 'MultiPoint', 'coordinates': [[-79.5137942125371, 43.6305564879895]]}"
584,584,Davisville Junior Public School,529 Vaughan Road,York,M6C2R1,E,75474,529,Vaughan Rd,529 Vaughan Rd,York,Vaughan Road Academy,115001,8128,529,None,,None,930,584,"{'type': 'MultiPoint', 'coordinates': [[-79.436702828382, 43.6910217034241]]}"
585,585,Spectrum Alternative Senior School,529 Vaughan Road,York,M6C2R1,E,75474,529,Vaughan Rd,529 Vaughan Rd,York,Vaughan Road Academy,115001,8128,529,None,,None,930,585,"{'type': 'MultiPoint', 'coordinates': [[-79.436702828382, 43.6910217034241]]}"
